Board Name,Board Type,School Name,School Type,School Special Condition Code,School Level,School Language,Grade Range,City,Postal Code,Enrolment,Latitude,Longitude,First Language Not English,New to Canada from Non-English Speaking Country,Receiving Special Education Services,Identified as Gifted,Live in Low-Income Households,Parents Have Some University Education,2016 Grade 3 Reading,2019 Grade 3 Reading,2016 Grade 3 Writing,2019 Grade 3 Writing,2016 Grade 3 Math,2019 Grade 3 Math,2016 Grade 6 Reading,2019 Grade 6 Reading,2016 Grade 6 Writing,2019 Grade 6 Writing,2016 Grade 6 Math,2019 Grade 6 Math
Bloorview SA,Provincial/Hospital,Bloorview School Authority,Hospital,Not applicable,Elementary,English,JK-8,Toronto,M4G1R8,65.0,43.71881,-79.3725,6.0,0.0,0.0,0.0,0.0,0.0,N/A,N/A,N/A,N/A,N/A,N/A,N/A,N/A,N/A,N/A,N/A,N/A
Toronto CDSB,Cath Dist Sch Brd (E/F),All Saints Catholic School,Catholic,Not applicable,Elementary,English,JK-8,Etobicoke,M9P3A7,870.0,43.68526,-79.5279,200.0,44.0,104.0,17.0,165.0,487.0,765.0,696.0,802.0,722.0,705.0,522.0,774.0,774.0,773.0,835.0,554.0,609.0
Toronto CDSB,Cath Dist Sch Brd (E/F),Annunciation Catholic School,Catholic,Not applicable,Elementary,English,JK-8,Toronto,M3A2M8,340.0,43.75329,-79.3214,102.0,51.0,34.0,0.0,85.0,204.0,274.0,299.0,286.0,272.0,243.0,258.0,319.0,316.0,305.0,326.0,262.0,252.0
Toronto CDSB,Cath Dist Sch Brd (E/F),Blessed Margherita of Citta Castello Catholic School,Catholic,Not applicable,Elementary,English,JK-8,Toronto,M3L1Z5,335.0,43.74319,-79.5077,100.0,0.0,67.0,0.0,67.0,100.0,274.0,181.0,318.0,194.0,170.0,141.0,248.0,255.0,262.0,265.0,75.0,57.0
Toronto CDSB,Cath Dist Sch Brd (E/F),Blessed Pier Giorgio Frassati Catholic School,Catholic,Not applicable,Elementary,English,JK-8,Scarborough,M1X1X4,340.0,43.82953,-79.2333,102.0,17.0,34.0,0.0,68.0,102.0,340.0,323.0,340.0,323.0,183.0,190.0,340.0,299.0,340.0,326.0,200.0,136.0
Toronto CDSB,Cath Dist Sch Brd (E/F),Blessed Sacrament Catholic School,Catholic,Not applicable,Elementary,English,JK-8,Toronto,M5M1H9,560.0,43.72718,-79.4041,67.0,39.0,45.0,22.0,39.0,482.0,536.0,515.0,536.0,515.0,482.0,487.0,506.0,521.0,527.0,538.0,377.0,392.0
Toronto CDSB,Cath Dist Sch Brd (E/F),Blessed Trinity Catholic School,Catholic,Not applicable,Elementary,English,JK-8,North York,M2K1G3,220.0,43.78703,-79.3925,66.0,33.0,55.0,0.0,88.0,132.0,160.0,154.0,160.0,154.0,146.0,73.0,183.0,110.0,200.0,110.0,0.0,0.0
Toronto CDSB,Cath Dist Sch Brd (E/F),Canadian Martyrs Catholic School,Catholic,Not applicable,Elementary,English,JK-8,Toronto,M4C2Z1,345.0,43.69801,-79.3194,69.0,17.0,52.0,0.0,121.0,207.0,323.0,310.0,309.0,300.0,209.0,224.0,323.0,304.0,334.0,304.0,209.0,238.0
Toronto CDSB,Cath Dist Sch Brd (E/F),Cardinal Carter Academy for the Arts,Catholic,Not applicable,Elementary,English,7-8,Toronto,M2N3C8,120.0,43.76382,-79.4096,12.0,0.0,0.0,6.0,24.0,84.0,N/A,N/A,N/A,N/A,N/A,N/A,N/A,N/A,N/A,N/A,N/A,N/A
Toronto CDSB,Cath Dist Sch Brd (E/F),Cardinal Leger Catholic School,Catholic,Not applicable,Elementary,English,JK-8,Toronto,M1C4Y1,335.0,43.79349,-79.1747,34.0,0.0,34.0,17.0,67.0,134.0,248.0,211.0,243.0,224.0,153.0,90.0,240.0,278.0,280.0,255.0,127.0,104.0
Toronto CDSB,Cath Dist Sch Brd (E/F),D'Arcy McGee Catholic School,Catholic,Not applicable,Elementary,English,JK-8,Toronto,M6E2A2,285.0,43.6923,-79.4426,86.0,14.0,86.0,0.0,57.0,114.0,166.0,217.0,164.0,202.0,95.0,108.0,219.0,188.0,198.0,222.0,69.0,63.0
Toronto CDSB,Cath Dist Sch Brd (E/F),Epiphany of our Lord Catholic Academy,Catholic,Not applicable,Elementary,English,JK-8,Toronto,M1W3J5,175.0,43.79901,-79.3285,61.0,44.0,44.0,0.0,70.0,79.0,139.0,150.0,127.0,163.0,68.0,63.0,111.0,117.0,110.0,136.0,41.0,46.0
Toronto CDSB,Cath Dist Sch Brd (E/F),Father Serra Catholic School,Catholic,Not applicable,Elementary,English,JK-8,Toronto,M9P3J3,540.0,43.68565,-79.5375,27.0,5.0,54.0,16.0,43.0,443.0,504.0,459.0,497.0,497.0,386.0,340.0,529.0,529.0,529.0,518.0,418.0,351.0
Toronto CDSB,Cath Dist Sch Brd (E/F),Holy Angels Catholic School,Catholic,Not applicable,Elementary,English,JK-8,Toronto,M8Z2G6,560.0,43.62882,-79.5174,112.0,45.0,73.0,11.0,95.0,358.0,447.0,398.0,460.0,409.0,441.0,375.0,470.0,437.0,503.0,448.0,334.0,291.0
Toronto CDSB,Cath Dist Sch Brd (E/F),Holy Child Catholic Catholic School,Catholic,Not applicable,Elementary,English,JK-8,Toronto,M9W7A6,330.0,43.72963,-79.6196,50.0,33.0,66.0,0.0,99.0,99.0,235.0,261.0,239.0,234.0,217.0,221.0,241.0,248.0,253.0,248.0,122.0,82.0
Toronto CDSB,Cath Dist Sch Brd (E/F),Holy Cross Catholic School,Catholic,Not applicable,Elementary,English,JK-8,Toronto,M4J3R7,365.0,43.68999,-79.3411,110.0,36.0,55.0,0.0,110.0,164.0,274.0,299.0,257.0,234.0,174.0,223.0,282.0,299.0,303.0,288.0,92.0,77.0
Toronto CDSB,Cath Dist Sch Brd (E/F),Holy Family Catholic School,Catholic,Not applicable,Elementary,English,JK-8,Toronto,M6K2V6,235.0,43.63845,-79.435,70.0,12.0,47.0,0.0,106.0,70.0,149.0,134.0,165.0,122.0,66.0,40.0,175.0,186.0,193.0,195.0,104.0,118.0
Toronto CDSB,Cath Dist Sch Brd (E/F),Holy Name Catholic School,Catholic,Not applicable,Elementary,English,JK-8,Toronto,M4K3K9,320.0,43.67753,-79.3469,64.0,0.0,64.0,16.0,64.0,208.0,244.0,234.0,244.0,234.0,170.0,182.0,298.0,259.0,291.0,259.0,152.0,128.0
Toronto CDSB,Cath Dist Sch Brd (E/F),Holy Rosary Catholic School,Catholic,Not applicable,Elementary,English,JK-8,Toronto,M5P2Y1,295.0,43.68492,-79.4137,88.0,30.0,30.0,0.0,59.0,177.0,295.0,271.0,295.0,295.0,243.0,209.0,254.0,295.0,281.0,295.0,190.0,198.0
Toronto CDSB,Cath Dist Sch Brd (E/F),Holy Spirit Catholic School,Catholic,Not applicable,Elementary,English,JK-8,Toronto,M1T3K7,445.0,43.78026,-79.3019,178.0,89.0,44.0,0.0,156.0,200.0,242.0,249.0,257.0,285.0,155.0,147.0,316.0,240.0,309.0,263.0,113.0,93.0
Toronto CDSB,Cath Dist Sch Brd (E/F),Immaculate Conception Catholic School,Catholic,Not applicable,Elementary,English,JK-8,Toronto,M6M2K9,520.0,43.69763,-79.4786,166.0,52.0,68.0,0.0,182.0,130.0,275.0,322.0,278.0,286.0,142.0,146.0,316.0,348.0,349.0,359.0,134.0,130.0
Toronto CDSB,Cath Dist Sch Brd (E/F),Immaculate Heart of Mary Catholic School,Catholic,Not applicable,Elementary,English,JK-8,Toronto,M1N3J7,175.0,43.69503,-79.2631,26.0,18.0,26.0,9.0,35.0,96.0,124.0,126.0,126.0,136.0,96.0,107.0,165.0,152.0,154.0,128.0,85.0,93.0
Toronto CDSB,Cath Dist Sch Brd (E/F),James Culnan Catholic School,Catholic,Not applicable,Elementary,English,JK-8,Toronto,M6S3S1,550.0,43.66109,-79.4862,176.0,39.0,66.0,6.0,160.0,204.0,352.0,440.0,429.0,468.0,280.0,308.0,361.0,440.0,335.0,412.0,215.0,286.0
Toronto CDSB,Cath Dist Sch Brd (E/F),Josyf Cardinal Slipyj Catholic School,Catholic,Not applicable,Elementary,English,JK-8,Toronto,M9B2R5,575.0,43.66009,-79.5655,489.0,34.0,17.0,12.0,86.0,362.0,525.0,483.0,545.0,529.0,527.0,443.0,540.0,540.0,563.0,512.0,400.0,328.0
Toronto CDSB,Cath Dist Sch Brd (E/F),Mother Cabrini Catholic School,Catholic,Not applicable,Elementary,English,JK-8,Toronto,M9C2N9,185.0,43.6641,-79.5854,28.0,0.0,18.0,0.0,18.0,111.0,138.0,154.0,169.0,144.0,123.0,133.0,150.0,185.0,130.0,166.0,99.0,115.0
Toronto CDSB,Cath Dist Sch Brd (E/F),Msgr John Corrigan Catholic School,Catholic,Not applicable,Elementary,English,JK-8,Toronto,M9V5B4,235.0,43.75107,-79.6052,59.0,47.0,47.0,0.0,70.0,82.0,168.0,101.0,151.0,110.0,113.0,94.0,146.0,127.0,146.0,162.0,82.0,73.0
Toronto CDSB,Cath Dist Sch Brd (E/F),Nativity of Our Lord Catholic School,Catholic,Not applicable,Elementary,English,JK-8,Toronto,M9C3T8,450.0,43.65348,-79.5758,90.0,45.0,68.0,0.0,135.0,225.0,386.0,320.0,378.0,333.0,316.0,234.0,433.0,450.0,413.0,450.0,352.0,387.0
Toronto CDSB,Cath Dist Sch Brd (E/F),Our Lady of Fatima Catholic School,Catholic,Not applicable,Elementary,English,JK-8,Toronto,M1L1V6,765.0,43.70951,-79.2931,145.0,92.0,107.0,8.0,260.0,360.0,569.0,620.0,602.0,620.0,445.0,436.0,557.0,574.0,575.0,650.0,329.0,375.0
Toronto CDSB,Cath Dist Sch Brd (E/F),Our Lady of Grace Catholic School,Catholic,Not applicable,Elementary,English,JK-8,Toronto,M1V1E5,255.0,43.81224,-79.2733,76.0,13.0,13.0,13.0,76.0,102.0,186.0,184.0,188.0,212.0,166.0,128.0,237.0,194.0,247.0,240.0,172.0,122.0
Toronto CDSB,Cath Dist Sch Brd (E/F),Our Lady of Guadalupe Catholic School,Catholic,Not applicable,Elementary,English,JK-8,Toronto,M2J3C2,170.0,43.78995,-79.3539,68.0,34.0,26.0,0.0,76.0,102.0,156.0,133.0,155.0,119.0,106.0,82.0,159.0,156.0,169.0,144.0,106.0,53.0
Toronto CDSB,Cath Dist Sch Brd (E/F),Our Lady of Lourdes Catholic School,Catholic,Not applicable,Elementary,English,JK-8,Toronto,M4X1K2,575.0,43.66623,-79.3744,218.0,92.0,86.0,0.0,264.0,288.0,416.0,437.0,442.0,420.0,338.0,368.0,437.0,437.0,475.0,494.0,238.0,236.0
Toronto CDSB,Cath Dist Sch Brd (E/F),Our Lady of Peace Catholic School,Catholic,Not applicable,Elementary,English,JK-8,Toronto,M9B1T6,650.0,43.64646,-79.5409,111.0,20.0,46.0,26.0,98.0,429.0,N/A,N/A,N/A,N/A,460.0,455.0,592.0,598.0,570.0,598.0,429.0,416.0
Toronto CDSB,Cath Dist Sch Brd (E/F),Our Lady of Perpetual Help Catholic School,Catholic,Not applicable,Elementary,English,JK-8,Toronto,M4T1E6,370.0,43.68697,-79.3834,37.0,18.0,37.0,18.0,37.0,333.0,371.0,352.0,363.0,352.0,361.0,303.0,345.0,359.0,356.0,370.0,253.0,248.0
Toronto CDSB,Cath Dist Sch Brd (E/F),Our Lady of Sorrows Catholic School,Catholic,Not applicable,Elementary,English,JK-8,Toronto,M8X1Z4,745.0,43.64895,-79.5188,97.0,22.0,67.0,60.0,74.0,566.0,650.0,663.0,650.0,611.0,574.0,551.0,699.0,685.0,687.0,708.0,592.0,551.0
Toronto CDSB,Cath Dist Sch Brd (E/F),Our Lady of Victory Catholic School,Catholic,Not applicable,Elementary,English,JK-8,Toronto,M6N4N3,675.0,43.68329,-79.4893,216.0,101.0,115.0,0.0,230.0,162.0,413.0,425.0,385.0,412.0,286.0,277.0,352.0,331.0,358.0,344.0,69.0,61.0
Toronto CDSB,Cath Dist Sch Brd (E/F),Our Lady of Wisdom Catholic School,Catholic,Not applicable,Elementary,English,JK-8,Scarborough,M1R4R7,385.0,43.76164,-79.3082,77.0,19.0,38.0,19.0,116.0,192.0,N/A,N/A,N/A,N/A,244.0,127.0,330.0,346.0,365.0,339.0,178.0,169.0
Toronto CDSB,Cath Dist Sch Brd (E/F),Our Lady of the Assumption Catholic School,Catholic,Not applicable,Elementary,English,JK-8,Toronto,M6B3C2,365.0,43.71656,-79.4315,182.0,91.0,36.0,0.0,73.0,219.0,221.0,245.0,259.0,285.0,189.0,172.0,225.0,277.0,261.0,318.0,114.0,113.0
Toronto CDSB,Cath Dist Sch Brd (E/F),Pope Francis Catholic School,Catholic,Not applicable,Elementary,English,JK-8,Toronto,M6J3A6,250.0,43.65156,-79.421,50.0,0.0,50.0,0.0,38.0,138.0,211.0,228.0,226.0,228.0,164.0,195.0,204.0,218.0,194.0,210.0,103.0,105.0
Toronto CDSB,Cath Dist Sch Brd (E/F),Precious Blood Catholic School,Catholic,Not applicable,Elementary,English,JK-8,Toronto,M1R2G8,475.0,43.7394,-79.3029,214.0,119.0,48.0,0.0,190.0,190.0,337.0,361.0,384.0,380.0,311.0,299.0,274.0,318.0,318.0,375.0,109.0,100.0
Toronto CDSB,Cath Dist Sch Brd (E/F),Prince of Peace Catholic School,Catholic,Not applicable,Elementary,English,JK-8,Toronto,M1V4E7,280.0,43.82541,-79.2788,126.0,14.0,28.0,28.0,84.0,70.0,249.0,274.0,249.0,266.0,211.0,238.0,260.0,263.0,280.0,263.0,205.0,207.0
Toronto CDSB,Cath Dist Sch Brd (E/F),Regina Mundi Catholic School,Catholic,Not applicable,Elementary,English,JK-8,Toronto,M6B2P9,370.0,43.71006,-79.4593,92.0,18.0,37.0,0.0,74.0,130.0,302.0,326.0,333.0,326.0,282.0,237.0,310.0,270.0,314.0,289.0,121.0,70.0
Toronto CDSB,Cath Dist Sch Brd (E/F),Sacred Heart Catholic School,Catholic,Not applicable,Elementary,English,JK-8,Toronto,M1B4S3,255.0,43.81222,-79.2207,51.0,0.0,76.0,0.0,76.0,76.0,178.0,201.0,156.0,181.0,138.0,145.0,181.0,181.0,194.0,194.0,112.0,133.0
Toronto CDSB,Cath Dist Sch Brd (E/F),Santa Maria Catholic School,Catholic,Not applicable,Elementary,English,JK-8,Toronto,M6N4X8,230.0,43.68132,-79.4778,115.0,23.0,34.0,0.0,69.0,46.0,100.0,120.0,103.0,110.0,62.0,69.0,159.0,196.0,156.0,184.0,77.0,92.0
Toronto CDSB,Cath Dist Sch Brd (E/F),St Agatha Catholic School,Catholic,Not applicable,Elementary,English,JK-8,Toronto,M1M2T6,430.0,43.72359,-79.2299,43.0,22.0,43.0,22.0,108.0,215.0,256.0,292.0,377.0,249.0,245.0,228.0,370.0,396.0,358.0,387.0,143.0,133.0
Toronto CDSB,Cath Dist Sch Brd (E/F),St Agnes Catholic School,Catholic,Not applicable,Elementary,English,JK-8,North York,M2M2T2,315.0,43.79853,-79.4026,94.0,63.0,32.0,16.0,94.0,252.0,276.0,287.0,266.0,287.0,257.0,239.0,227.0,186.0,244.0,220.0,113.0,94.0
Toronto CDSB,Cath Dist Sch Brd (E/F),St Aidan Catholic School,Catholic,Not applicable,Elementary,English,JK-8,Toronto,M1W2S2,295.0,43.79751,-79.3093,133.0,88.0,15.0,0.0,118.0,118.0,202.0,230.0,206.0,218.0,191.0,174.0,219.0,239.0,234.0,239.0,160.0,142.0
Toronto CDSB,Cath Dist Sch Brd (E/F),St Albert Catholic School,Catholic,Not applicable,Elementary,English,JK-8,Toronto,M1K4H2,425.0,43.74377,-79.2613,128.0,42.0,64.0,0.0,128.0,170.0,292.0,298.0,287.0,264.0,218.0,255.0,331.0,285.0,337.0,340.0,160.0,170.0
Toronto CDSB,Cath Dist Sch Brd (E/F),St Alphonsus Catholic School,Catholic,Not applicable,Elementary,English,JK-8,Toronto,M6C3N9,240.0,43.68313,-79.4317,72.0,24.0,48.0,0.0,60.0,144.0,149.0,156.0,160.0,144.0,99.0,84.0,151.0,178.0,160.0,209.0,96.0,137.0
Toronto CDSB,Cath Dist Sch Brd (E/F),St Ambrose Catholic School,Catholic,Not applicable,Elementary,English,JK-8,Toronto,M8W2N9,405.0,43.6477,-79.4321,81.0,0.0,40.0,0.0,40.0,202.0,371.0,360.0,366.0,373.0,349.0,328.0,405.0,304.0,405.0,336.0,298.0,170.0
Toronto CDSB,Cath Dist Sch Brd (E/F),St Andre Catholic School,Catholic,Not applicable,Elementary,English,JK-8,Toronto,M3L1C9,615.0,43.72357,-79.5175,178.0,160.0,86.0,0.0,228.0,117.0,395.0,529.0,368.0,486.0,357.0,400.0,433.0,338.0,461.0,424.0,166.0,148.0
Toronto CDSB,Cath Dist Sch Brd (E/F),St Andrew Catholic School,Catholic,Not applicable,Elementary,English,JK-8,Toronto,M9V3A8,705.0,43.74488,-79.5821,190.0,176.0,63.0,0.0,324.0,169.0,377.0,388.0,442.0,402.0,251.0,254.0,345.0,345.0,435.0,479.0,170.0,148.0
Toronto CDSB,Cath Dist Sch Brd (E/F),St Angela Catholic School,Catholic,Not applicable,Elementary,English,JK-8,Toronto,M9V3Z5,515.0,43.75426,-79.5974,139.0,98.0,77.0,0.0,191.0,134.0,345.0,335.0,320.0,294.0,181.0,139.0,369.0,273.0,331.0,232.0,90.0,57.0
Toronto CDSB,Cath Dist Sch Brd (E/F),St Anselm Catholic School,Catholic,Not applicable,Elementary,English,JK-8,Toronto,M4G3J9,360.0,43.70535,-79.3716,54.0,18.0,36.0,18.0,54.0,288.0,334.0,284.0,337.0,313.0,311.0,202.0,345.0,335.0,330.0,360.0,262.0,270.0
Toronto CDSB,Cath Dist Sch Brd (E/F),St Anthony Catholic School,Catholic,Not applicable,Elementary,English,JK-8,Toronto,M6H1L9,340.0,43.66342,-79.4348,68.0,34.0,85.0,0.0,68.0,170.0,262.0,296.0,253.0,258.0,195.0,214.0,274.0,279.0,292.0,269.0,186.0,207.0
Toronto CDSB,Cath Dist Sch Brd (E/F),St Antoine Daniel Catholic School,Catholic,Not applicable,Elementary,English,JK-8,Toronto,M2N2J2,415.0,43.77712,-79.4296,124.0,83.0,42.0,0.0,124.0,249.0,371.0,382.0,355.0,344.0,290.0,232.0,305.0,290.0,320.0,320.0,130.0,133.0
Toronto CDSB,Cath Dist Sch Brd (E/F),St Augustine Catholic School,Catholic,Not applicable,Elementary,English,JK-8,Toronto,M3N1S9,570.0,43.76808,-79.5248,160.0,108.0,57.0,6.0,234.0,80.0,360.0,353.0,413.0,376.0,206.0,165.0,331.0,331.0,354.0,393.0,82.0,80.0
Toronto CDSB,Cath Dist Sch Brd (E/F),St Barbara Catholic School,Catholic,Not applicable,Elementary,English,JK-8,Toronto,M1G1Y2,325.0,43.76244,-79.2188,81.0,65.0,32.0,0.0,130.0,81.0,176.0,218.0,173.0,182.0,123.0,153.0,300.0,276.0,294.0,276.0,154.0,143.0
Toronto CDSB,Cath Dist Sch Brd (E/F),St Barnabas Catholic School,Catholic,Not applicable,Elementary,English,JK-8,Toronto,M1B1H3,290.0,43.79734,-79.2284,58.0,29.0,29.0,0.0,87.0,102.0,210.0,241.0,236.0,252.0,145.0,151.0,278.0,267.0,290.0,278.0,202.0,232.0
Toronto CDSB,Cath Dist Sch Brd (E/F),St Bartholomew Catholic School,Catholic,Not applicable,Elementary,English,JK-8,Toronto,M1S2E2,90.0,43.78982,-79.2715,18.0,0.0,9.0,0.0,18.0,45.0,82.0,75.0,90.0,75.0,68.0,75.0,N/A,N/A,N/A,N/A,N/A,N/A
Toronto CDSB,Cath Dist Sch Brd (E/F),St Bede Catholic School,Catholic,Not applicable,Elementary,English,JK-8,Toronto,M1B5H3,145.0,43.81809,-79.2068,29.0,14.0,22.0,0.0,36.0,44.0,118.0,72.0,128.0,64.0,92.0,55.0,121.0,130.0,133.0,145.0,86.0,130.0
Toronto CDSB,Cath Dist Sch Brd (E/F),St Benedict Catholic School,Catholic,Not applicable,Elementary,English,JK-8,Toronto,M9W4K9,635.0,43.72316,-79.5728,146.0,44.0,102.0,6.0,114.0,267.0,557.0,546.0,587.0,546.0,509.0,489.0,545.0,540.0,544.0,533.0,227.0,184.0
Toronto CDSB,Cath Dist Sch Brd (E/F),St Bernard Catholic School,Catholic,Not applicable,Elementary,English,JK-8,Toronto,M6M4W4,680.0,43.7027,-79.5,190.0,54.0,88.0,0.0,231.0,136.0,488.0,537.0,548.0,537.0,456.0,456.0,422.0,422.0,495.0,530.0,111.0,109.0
Toronto CDSB,Cath Dist Sch Brd (E/F),St Bonaventure Catholic School,Catholic,Not applicable,Elementary,English,JK-8,Toronto,M3C2K9,595.0,43.73307,-79.3558,149.0,42.0,42.0,77.0,113.0,393.0,549.0,565.0,503.0,583.0,398.0,541.0,576.0,559.0,577.0,577.0,446.0,464.0
Toronto CDSB,Cath Dist Sch Brd (E/F),St Boniface Catholic School,Catholic,Not applicable,Elementary,English,JK-8,Scarborough,M1M2J1,330.0,43.74057,-79.2197,99.0,66.0,33.0,0.0,148.0,115.0,240.0,274.0,274.0,274.0,186.0,182.0,281.0,267.0,280.0,294.0,168.0,201.0
Toronto CDSB,Cath Dist Sch Brd (E/F),St Brendan Catholic School,Catholic,Not applicable,Elementary,English,JK-8,Scarborough,M1C1Z9,550.0,43.78273,-79.149,39.0,11.0,55.0,11.0,55.0,346.0,538.0,500.0,515.0,484.0,433.0,424.0,503.0,473.0,501.0,456.0,371.0,352.0
Toronto CDSB,Cath Dist Sch Brd (E/F),St Brigid Catholic School,Catholic,Not applicable,Elementary,English,JK-8,Toronto,M4C3X9,650.0,43.68716,-79.3162,104.0,39.0,65.0,6.0,150.0,422.0,592.0,598.0,554.0,526.0,440.0,436.0,567.0,488.0,578.0,520.0,270.0,227.0
Toronto CDSB,Cath Dist Sch Brd (E/F),St Bruno/St. Raymond Catholic School,Catholic,Not applicable,Elementary,English,JK-8,Toronto,M6G3X6,210.0,43.67333,-79.4273,42.0,21.0,63.0,0.0,42.0,105.0,N/A,187.0,N/A,197.0,N/A,151.0,N/A,136.0,N/A,145.0,N/A,97.0
Toronto CDSB,Cath Dist Sch Brd (E/F),St Catherine Catholic School,Catholic,Not applicable,Elementary,English,JK-8,Toronto,M3A1E9,110.0,43.7423,-79.3245,28.0,6.0,22.0,0.0,33.0,55.0,72.0,89.0,78.0,68.0,58.0,62.0,N/A,46.0,N/A,74.0,N/A,28.0
Toronto CDSB,Cath Dist Sch Brd (E/F),St Cecilia Catholic School,Catholic,Not applicable,Elementary,English,JK-8,Toronto,M6P1R3,645.0,43.66056,-79.4745,110.0,26.0,39.0,26.0,90.0,451.0,588.0,535.0,567.0,374.0,443.0,439.0,593.0,593.0,584.0,619.0,425.0,497.0
Toronto CDSB,Cath Dist Sch Brd (E/F),St Charles Catholic School,Catholic,Not applicable,Elementary,English,JK-8,Toronto,M6B2W1,280.0,43.7133,-79.4512,70.0,14.0,42.0,0.0,70.0,98.0,174.0,148.0,205.0,176.0,136.0,120.0,206.0,140.0,242.0,218.0,97.0,87.0
Toronto CDSB,Cath Dist Sch Brd (E/F),St Charles Garnier Catholic School,Catholic,Not applicable,Elementary,English,JK-8,Toronto,M3N2X9,465.0,43.76234,-79.5178,140.0,46.0,46.0,0.0,232.0,93.0,271.0,339.0,297.0,353.0,205.0,228.0,265.0,260.0,269.0,339.0,110.0,121.0
Toronto CDSB,Cath Dist Sch Brd (E/F),St Clare Catholic School,Catholic,Not applicable,Elementary,English,JK-8,Toronto,M6E3K4,425.0,43.67929,-79.4414,128.0,0.0,42.0,0.0,85.0,170.0,425.0,412.0,425.0,412.0,409.0,327.0,365.0,416.0,359.0,416.0,174.0,183.0
Toronto CDSB,Cath Dist Sch Brd (E/F),St Clement Catholic School,Catholic,Not applicable,Elementary,English,JK-8,Etobicoke,M9C2A2,475.0,43.63258,-79.5739,71.0,0.0,48.0,48.0,48.0,332.0,409.0,446.0,406.0,418.0,339.0,332.0,475.0,432.0,475.0,456.0,418.0,318.0
Toronto CDSB,Cath Dist Sch Brd (E/F),St Columba Catholic School,Catholic,Not applicable,Elementary,English,JK-8,Toronto,M1B1M9,230.0,43.8062,-79.2113,69.0,12.0,58.0,0.0,58.0,69.0,136.0,99.0,97.0,58.0,105.0,58.0,146.0,133.0,143.0,150.0,71.0,62.0
Toronto CDSB,Cath Dist Sch Brd (E/F),St Conrad Catholic School,Catholic,Not applicable,Elementary,English,JK-8,North York,M3M0A8,615.0,43.73023,-79.4927,160.0,37.0,68.0,0.0,172.0,166.0,462.0,467.0,443.0,430.0,359.0,381.0,435.0,461.0,424.0,504.0,172.0,203.0
Toronto CDSB,Cath Dist Sch Brd (E/F),St Cyril Catholic School,Catholic,Not applicable,Elementary,English,JK-8,Toronto,M2N2B9,350.0,43.77667,-79.4165,70.0,18.0,35.0,0.0,88.0,245.0,N/A,N/A,N/A,N/A,314.0,298.0,327.0,340.0,339.0,329.0,232.0,329.0
Toronto CDSB,Cath Dist Sch Brd (E/F),St Demetrius Catholic School,Catholic,Not applicable,Elementary,English,JK-8,Toronto,M9P1A6,275.0,43.68471,-79.5216,179.0,28.0,28.0,14.0,55.0,165.0,265.0,220.0,265.0,220.0,233.0,198.0,251.0,231.0,217.0,250.0,183.0,198.0
Toronto CDSB,Cath Dist Sch Brd (E/F),St Denis Catholic School,Catholic,Not applicable,Elementary,English,JK-8,Toronto,M4E3B8,290.0,43.67299,-79.2899,29.0,14.0,29.0,0.0,14.0,232.0,257.0,267.0,267.0,278.0,237.0,223.0,268.0,281.0,269.0,290.0,211.0,215.0
Toronto CDSB,Cath Dist Sch Brd (E/F),St Dominic Savio Catholic School,Catholic,Not applicable,Elementary,English,JK-8,Toronto,M1B5X3,250.0,43.79831,-79.1555,38.0,12.0,25.0,0.0,50.0,112.0,182.0,198.0,212.0,208.0,165.0,168.0,228.0,185.0,223.0,225.0,112.0,58.0
Toronto CDSB,Cath Dist Sch Brd (E/F),St Dorothy Catholic School,Catholic,Not applicable,Elementary,English,JK-8,Toronto,M9V1N7,340.0,43.73174,-79.5913,85.0,17.0,68.0,0.0,136.0,102.0,223.0,248.0,198.0,238.0,125.0,146.0,229.0,197.0,270.0,248.0,76.0,71.0
Toronto CDSB,Cath Dist Sch Brd (E/F),St Dunstan Catholic School,Catholic,Not applicable,Elementary,English,JK-8,Toronto,M1L3E4,275.0,43.6933,-79.2842,110.0,69.0,41.0,0.0,138.0,138.0,167.0,157.0,193.0,168.0,185.0,148.0,219.0,223.0,233.0,242.0,148.0,170.0
Toronto CDSB,Cath Dist Sch Brd (E/F),St Edmund Campion Catholic School,Catholic,Not applicable,Elementary,English,JK-8,Toronto,M1E4N1,270.0,43.78806,-79.2156,81.0,68.0,27.0,14.0,81.0,94.0,206.0,167.0,191.0,176.0,172.0,167.0,204.0,235.0,225.0,216.0,123.0,135.0
Toronto CDSB,Cath Dist Sch Brd (E/F),St Edward Catholic School,Catholic,Not applicable,Elementary,English,JK-8,Toronto,M2N2J6,490.0,43.75377,-79.4133,172.0,74.0,49.0,0.0,98.0,416.0,444.0,382.0,444.0,382.0,444.0,382.0,442.0,407.0,420.0,416.0,290.0,255.0
Toronto CDSB,Cath Dist Sch Brd (E/F),St Elizabeth Catholic School,Catholic,Not applicable,Elementary,English,JK-8,Etobicoke,M9B1J8,230.0,43.63506,-79.5575,69.0,46.0,34.0,0.0,46.0,138.0,187.0,196.0,231.0,150.0,145.0,80.0,185.0,196.0,211.0,209.0,144.0,145.0
Toronto CDSB,Cath Dist Sch Brd (E/F),St Elizabeth Seton Catholic School,Catholic,Not applicable,Elementary,English,JK-8,Toronto,M1S3A4,145.0,43.78897,-79.2467,44.0,7.0,36.0,0.0,44.0,65.0,110.0,103.0,115.0,83.0,53.0,52.0,91.0,86.0,88.0,77.0,49.0,51.0
Toronto CDSB,Cath Dist Sch Brd (E/F),St Eugene Catholic School,Catholic,Not applicable,Elementary,English,JK-8,Toronto,M9P2C3,440.0,43.69236,-79.5369,88.0,22.0,66.0,22.0,88.0,220.0,336.0,299.0,336.0,343.0,302.0,251.0,335.0,268.0,381.0,339.0,168.0,114.0
Toronto CDSB,Cath Dist Sch Brd (E/F),St Fidelis Catholic School,Catholic,Not applicable,Elementary,English,JK-8,Toronto,M6L2S5,635.0,43.71721,-79.4852,89.0,19.0,70.0,6.0,114.0,229.0,533.0,533.0,547.0,552.0,400.0,368.0,549.0,533.0,557.0,546.0,305.0,305.0
Toronto CDSB,Cath Dist Sch Brd (E/F),St Florence Catholic School,Catholic,Not applicable,Elementary,English,JK-8,Toronto,M1B2L6,180.0,43.79868,-79.2073,36.0,18.0,27.0,0.0,36.0,72.0,122.0,95.0,137.0,85.0,104.0,85.0,151.0,115.0,151.0,115.0,69.0,77.0
Toronto CDSB,Cath Dist Sch Brd (E/F),St Francis Xavier Catholic School,Catholic,Not applicable,Elementary,English,JK-8,Toronto,M6L1L3,545.0,43.71098,-79.4832,196.0,76.0,109.0,0.0,158.0,202.0,313.0,354.0,374.0,452.0,271.0,322.0,332.0,332.0,441.0,463.0,146.0,142.0
Toronto CDSB,Cath Dist Sch Brd (E/F),St Francis de Sales Catholic School,Catholic,Not applicable,Elementary,English,JK-8,Toronto,M3N1K9,485.0,43.75414,-79.5189,97.0,73.0,73.0,0.0,242.0,73.0,345.0,286.0,409.0,286.0,166.0,121.0,334.0,354.0,408.0,388.0,167.0,179.0
Toronto CDSB,Cath Dist Sch Brd (E/F),St Francis of Assisi Catholic School,Catholic,Not applicable,Elementary,English,JK-8,Toronto,M6G2Y3,160.0,43.65633,-79.4146,32.0,0.0,40.0,16.0,24.0,88.0,148.0,139.0,147.0,128.0,134.0,117.0,129.0,93.0,148.0,99.0,95.0,74.0
Toronto CDSB,Cath Dist Sch Brd (E/F),St Gabriel Catholic Catholic School,Catholic,Not applicable,Elementary,English,JK-8,Toronto,M2N3H5,295.0,43.76878,-79.3907,133.0,88.0,30.0,0.0,103.0,221.0,220.0,233.0,199.0,233.0,148.0,136.0,191.0,180.0,221.0,192.0,127.0,124.0
Toronto CDSB,Cath Dist Sch Brd (E/F),St Gabriel Lalemant Catholic School,Catholic,Not applicable,Elementary,English,JK-8,Toronto,M1B1Y3,145.0,43.81284,-79.2262,87.0,7.0,22.0,0.0,44.0,29.0,119.0,135.0,100.0,116.0,88.0,106.0,119.0,115.0,115.0,135.0,44.0,52.0
Toronto CDSB,Cath Dist Sch Brd (E/F),St Gerald Catholic School,Catholic,Not applicable,Elementary,English,JK-8,Toronto,M2J3L9,295.0,43.78044,-79.3263,103.0,88.0,30.0,0.0,88.0,148.0,202.0,206.0,228.0,201.0,192.0,177.0,239.0,268.0,239.0,268.0,182.0,198.0
Toronto CDSB,Cath Dist Sch Brd (E/F),St Gregory Catholic School,Catholic,Not applicable,Elementary,English,JK-8,Toronto,M9B2K6,730.0,43.65989,-79.5442,110.0,29.0,80.0,29.0,88.0,533.0,614.0,657.0,686.0,686.0,513.0,518.0,617.0,635.0,653.0,679.0,445.0,423.0
Toronto CDSB,Cath Dist Sch Brd (E/F),St Helen Catholic School,Catholic,Not applicable,Elementary,English,JK-8,Toronto,M6H1B8,405.0,43.65199,-79.4358,122.0,20.0,81.0,0.0,101.0,162.0,238.0,259.0,235.0,251.0,211.0,259.0,339.0,251.0,367.0,316.0,139.0,89.0
Toronto CDSB,Cath Dist Sch Brd (E/F),St Henry Catholic Catholic School,Catholic,Not applicable,Elementary,English,JK-8,Toronto,M1W3R3,250.0,43.81373,-79.3278,88.0,25.0,25.0,0.0,62.0,112.0,236.0,250.0,227.0,225.0,210.0,212.0,227.0,250.0,243.0,250.0,130.0,168.0
Toronto CDSB,Cath Dist Sch Brd (E/F),St Ignatius of Loyola Catholic School,Catholic,Not applicable,Elementary,English,JK-8,Toronto,M1S4B4,120.0,43.80342,-79.2649,48.0,12.0,24.0,0.0,36.0,36.0,N/A,N/A,N/A,N/A,N/A,N/A,83.0,88.0,85.0,98.0,40.0,43.0
Toronto CDSB,Cath Dist Sch Brd (E/F),St Isaac Jogues Catholic School,Catholic,Not applicable,Elementary,English,JK-8,Toronto,M3A1Z8,355.0,43.76245,-79.3218,178.0,106.0,36.0,0.0,106.0,178.0,300.0,312.0,294.0,312.0,240.0,252.0,293.0,305.0,310.0,344.0,190.0,234.0
Toronto CDSB,Cath Dist Sch Brd (E/F),St James Catholic School,Catholic,Not applicable,Elementary,English,JK-8,Toronto,M6S4L3,180.0,43.66471,-79.4952,81.0,27.0,36.0,0.0,81.0,45.0,93.0,90.0,119.0,124.0,70.0,68.0,98.0,85.0,133.0,121.0,28.0,23.0
Toronto CDSB,Cath Dist Sch Brd (E/F),St Jane Frances Catholic School,Catholic,Not applicable,Elementary,English,JK-8,North York,M3L2E8,690.0,43.74202,-79.5132,255.0,48.0,166.0,0.0,255.0,117.0,394.0,386.0,463.0,421.0,348.0,338.0,405.0,462.0,440.0,524.0,207.0,248.0
Toronto CDSB,Cath Dist Sch Brd (E/F),St Jean de Brebeuf Catholic School,Catholic,Not applicable,Elementary,English,JK-8,Toronto,M1B2X2,215.0,43.80232,-79.1739,54.0,22.0,22.0,0.0,43.0,75.0,173.0,144.0,198.0,129.0,130.0,86.0,195.0,187.0,187.0,215.0,123.0,112.0
Toronto CDSB,Cath Dist Sch Brd (E/F),St Jerome Catholic School,Catholic,Not applicable,Elementary,English,JK-8,Toronto,M3J1P5,525.0,43.74869,-79.4889,152.0,79.0,37.0,5.0,136.0,168.0,397.0,357.0,404.0,420.0,252.0,257.0,444.0,462.0,459.0,509.0,306.0,315.0
Toronto CDSB,Cath Dist Sch Brd (E/F),St Joachim Catholic School,Catholic,Not applicable,Elementary,English,JK-8,Toronto,M1L1W3,300.0,43.71318,-79.2755,75.0,30.0,30.0,0.0,90.0,135.0,194.0,213.0,186.0,192.0,141.0,162.0,231.0,261.0,234.0,243.0,189.0,204.0
Toronto CDSB,Cath Dist Sch Brd (E/F),St John Bosco Catholic School,Catholic,Not applicable,Elementary,English,JK-8,Toronto,M6E1Y2,310.0,43.68866,-79.4505,108.0,31.0,46.0,0.0,62.0,93.0,262.0,236.0,231.0,180.0,150.0,84.0,252.0,214.0,243.0,214.0,76.0,71.0
Toronto CDSB,Cath Dist Sch Brd (E/F),St John Catholic School,Catholic,Not applicable,Elementary,English,JK-8,Toronto,M4E1R7,440.0,43.68032,-79.2944,0.0,22.0,66.0,22.0,66.0,308.0,394.0,370.0,390.0,339.0,371.0,312.0,394.0,414.0,387.0,414.0,246.0,202.0
Toronto CDSB,Cath Dist Sch Brd (E/F),St John Vianney Catholic School,Catholic,Not applicable,Elementary,English,JK-8,Toronto,M9V1J5,370.0,43.73836,-79.5539,111.0,37.0,37.0,0.0,111.0,130.0,250.0,240.0,300.0,285.0,215.0,196.0,250.0,292.0,272.0,337.0,168.0,192.0
Toronto CDSB,Cath Dist Sch Brd (E/F),St John XXIII Catholic School,Catholic,Not applicable,Elementary,English,JK-8,Toronto,M3C3E7,455.0,43.71239,-79.329,205.0,91.0,68.0,0.0,205.0,182.0,327.0,291.0,315.0,255.0,233.0,200.0,439.0,373.0,424.0,373.0,403.0,314.0
Toronto CDSB,Cath Dist Sch Brd (E/F),St John the Evangelist Catholic School,Catholic,Not applicable,Elementary,English,JK-8,Weston,M9N2B4,440.0,43.70362,-79.5223,88.0,66.0,22.0,0.0,154.0,110.0,326.0,339.0,320.0,317.0,249.0,251.0,390.0,312.0,396.0,352.0,162.0,128.0
Toronto CDSB,Cath Dist Sch Brd (E/F),St Josaphat Catholic School,Catholic,Not applicable,Elementary,English,JK-8,Toronto,M8V3G1,155.0,43.59001,-79.544,140.0,31.0,16.0,0.0,39.0,85.0,N/A,N/A,N/A,N/A,N/A,N/A,133.0,121.0,132.0,112.0,117.0,104.0
Toronto CDSB,Cath Dist Sch Brd (E/F),St Joseph Catholic School,Catholic,Not applicable,Elementary,English,JK-8,Toronto,M4M3C7,225.0,43.66596,-79.3315,22.0,0.0,68.0,0.0,56.0,135.0,147.0,153.0,171.0,169.0,106.0,112.0,156.0,153.0,156.0,153.0,64.0,58.0
Toronto CDSB,Cath Dist Sch Brd (E/F),St Jude Catholic School,Catholic,Not applicable,Elementary,English,JK-8,Toronto,M9M2T9,755.0,43.74035,-79.5394,234.0,113.0,76.0,8.0,249.0,166.0,521.0,521.0,590.0,513.0,470.0,385.0,483.0,536.0,515.0,649.0,205.0,189.0
Toronto CDSB,Cath Dist Sch Brd (E/F),St Kateri Tekakwitha Catholic School,Catholic,Not applicable,Elementary,English,JK-8,Toronto,M2J4C5,270.0,43.78584,-79.3374,108.0,108.0,40.0,14.0,81.0,162.0,164.0,216.0,160.0,216.0,159.0,162.0,160.0,211.0,174.0,224.0,112.0,135.0
Toronto CDSB,Cath Dist Sch Brd (E/F),St Kevin Catholic School,Catholic,Not applicable,Elementary,English,JK-8,Scarborough,M1R3J6,235.0,43.75109,-79.3064,70.0,47.0,47.0,0.0,59.0,94.0,135.0,169.0,159.0,157.0,70.0,78.0,188.0,190.0,188.0,190.0,98.0,113.0
Toronto CDSB,Cath Dist Sch Brd (E/F),St Lawrence Catholic School,Catholic,Not applicable,Elementary,English,JK-8,Toronto,M1P2P9,440.0,43.74908,-79.2799,220.0,66.0,66.0,0.0,132.0,176.0,336.0,383.0,374.0,374.0,268.0,273.0,333.0,330.0,342.0,387.0,205.0,189.0
Toronto CDSB,Cath Dist Sch Brd (E/F),St Leo Catholic School,Catholic,Not applicable,Elementary,English,JK-8,Toronto,M8V1P1,360.0,43.6145,-79.4965,108.0,36.0,54.0,0.0,72.0,198.0,294.0,259.0,316.0,281.0,167.0,180.0,295.0,292.0,313.0,335.0,240.0,259.0
Toronto CDSB,Cath Dist Sch Brd (E/F),St Louis Catholic School,Catholic,Not applicable,Elementary,English,JK-8,Toronto,M8Y2Z7,215.0,43.62589,-79.5008,54.0,11.0,32.0,11.0,43.0,129.0,176.0,150.0,159.0,183.0,135.0,108.0,177.0,170.0,198.0,200.0,150.0,123.0
Toronto CDSB,Cath Dist Sch Brd (E/F),St Luigi Catholic School,Catholic,Not applicable,Elementary,English,JK-8,Toronto,M6P3P8,130.0,43.66264,-79.4526,65.0,20.0,13.0,0.0,26.0,52.0,N/A,N/A,N/A,N/A,N/A,N/A,N/A,N/A,N/A,N/A,N/A,N/A
Toronto CDSB,Cath Dist Sch Brd (E/F),St Malachy Catholic School,Catholic,Not applicable,Elementary,English,JK-8,Toronto,M1E3Y3,300.0,43.77131,-79.1658,75.0,30.0,60.0,0.0,60.0,150.0,218.0,261.0,218.0,231.0,153.0,144.0,252.0,267.0,282.0,279.0,171.0,198.0
Toronto CDSB,Cath Dist Sch Brd (E/F),St Marcellus Catholic School,Catholic,Not applicable,Elementary,English,JK-8,Toronto,M9R3H2,425.0,43.6797,-79.5541,85.0,106.0,42.0,0.0,170.0,170.0,275.0,217.0,296.0,234.0,176.0,123.0,300.0,306.0,293.0,366.0,133.0,153.0
Toronto CDSB,Cath Dist Sch Brd (E/F),St Margaret Catholic School,Catholic,Not applicable,Elementary,English,JK-8,Toronto,M5M2X1,645.0,43.73611,-79.4267,322.0,129.0,64.0,13.0,161.0,361.0,591.0,561.0,611.0,580.0,498.0,503.0,465.0,451.0,539.0,561.0,263.0,297.0
Toronto CDSB,Cath Dist Sch Brd (E/F),St Marguerite Bourgeoys Catholic Catholic School,Catholic,Not applicable,Elementary,English,JK-8,Toronto,M1V1H6,90.0,43.80808,-79.2855,36.0,0.0,18.0,0.0,18.0,36.0,N/A,68.0,N/A,75.0,N/A,68.0,N/A,84.0,N/A,90.0,N/A,64.0
Toronto CDSB,Cath Dist Sch Brd (E/F),St Maria Goretti Catholic School,Catholic,Not applicable,Elementary,English,JK-8,Toronto,M1K3N8,975.0,43.73017,-79.2657,322.0,156.0,98.0,10.0,332.0,429.0,811.0,770.0,773.0,819.0,605.0,575.0,793.0,722.0,811.0,722.0,255.0,224.0
Toronto CDSB,Cath Dist Sch Brd (E/F),St Mark Catholic School,Catholic,Not applicable,Elementary,English,JK-8,Toronto,M8Y1T4,220.0,43.63447,-79.4899,110.0,33.0,44.0,0.0,55.0,121.0,194.0,198.0,194.0,198.0,195.0,209.0,163.0,183.0,145.0,183.0,96.0,73.0
Toronto CDSB,Cath Dist Sch Brd (E/F),St Martha Catholic School,Catholic,Not applicable,Elementary,English,JK-8,Toronto,M3L1Y5,235.0,43.741,-79.5021,59.0,12.0,47.0,0.0,47.0,70.0,145.0,197.0,146.0,186.0,120.0,110.0,178.0,141.0,159.0,164.0,66.0,70.0
Toronto CDSB,Cath Dist Sch Brd (E/F),St Martin De Porres Catholic School,Catholic,Not applicable,Elementary,English,JK-8,Toronto,M1E3E1,405.0,43.76702,-79.1865,122.0,81.0,40.0,20.0,202.0,122.0,276.0,243.0,288.0,190.0,172.0,150.0,333.0,316.0,369.0,284.0,229.0,174.0
Toronto CDSB,Cath Dist Sch Brd (E/F),St Mary Catholic School,Catholic,Not applicable,Elementary,English,JK-8,Toronto,M6H1M4,340.0,43.64565,-79.4048,85.0,34.0,34.0,17.0,119.0,153.0,216.0,231.0,216.0,231.0,165.0,170.0,281.0,289.0,316.0,272.0,130.0,136.0
Toronto CDSB,Cath Dist Sch Brd (E/F),St Mary of the Angels Catholic School,Catholic,Not applicable,Elementary,English,JK-8,Toronto,M6H4C7,255.0,43.67223,-79.4401,115.0,38.0,26.0,0.0,51.0,102.0,244.0,237.0,226.0,237.0,170.0,163.0,184.0,219.0,221.0,232.0,170.0,150.0
Toronto CDSB,Cath Dist Sch Brd (E/F),St Matthew Catholic School,Catholic,Not applicable,Elementary,English,JK-8,Toronto,M6N2B5,530.0,43.68053,-79.4678,244.0,69.0,74.0,0.0,117.0,111.0,327.0,360.0,332.0,329.0,220.0,238.0,349.0,318.0,359.0,366.0,153.0,138.0
Toronto CDSB,Cath Dist Sch Brd (E/F),St Matthias Catholic School,Catholic,Not applicable,Elementary,English,JK-8,Toronto,M2J2S8,285.0,43.78508,-79.3596,100.0,57.0,28.0,14.0,100.0,171.0,258.0,222.0,209.0,242.0,215.0,200.0,249.0,271.0,249.0,271.0,145.0,128.0
Toronto CDSB,Cath Dist Sch Brd (E/F),St Maurice Catholic School,Catholic,Not applicable,Elementary,English,JK-8,Toronto,M9R1T7,285.0,43.69829,-79.5539,71.0,28.0,28.0,0.0,114.0,86.0,262.0,262.0,262.0,262.0,240.0,274.0,261.0,219.0,249.0,271.0,128.0,91.0
Toronto CDSB,Cath Dist Sch Brd (E/F),St Michael Catholic School,Catholic,Not applicable,Elementary,English,JK-8,Toronto,M5A4B2,175.0,43.64791,-79.3698,70.0,18.0,35.0,0.0,61.0,96.0,131.0,138.0,139.0,150.0,104.0,124.0,148.0,142.0,150.0,158.0,71.0,66.0
Toronto CDSB,Cath Dist Sch Brd (E/F),St Michael's Choir (Jr) School,Catholic,Not applicable,Elementary,English,1-8,Toronto,M5B1X2,170.0,43.65534,-79.3777,34.0,0.0,0.0,34.0,34.0,110.0,163.0,170.0,163.0,153.0,147.0,146.0,170.0,165.0,170.0,165.0,149.0,122.0
Toronto CDSB,Cath Dist Sch Brd (E/F),St Monica Catholic School,Catholic,Not applicable,Elementary,English,JK-8,Toronto,M4P1T4,315.0,43.70996,-79.3976,110.0,79.0,63.0,0.0,79.0,236.0,244.0,239.0,267.0,227.0,204.0,151.0,274.0,255.0,283.0,277.0,172.0,158.0
Toronto CDSB,Cath Dist Sch Brd (E/F),St Nicholas Catholic School,Catholic,Not applicable,Elementary,English,JK-8,Toronto,M1J2P7,375.0,43.69132,-79.2982,75.0,56.0,38.0,19.0,112.0,150.0,300.0,285.0,294.0,259.0,172.0,150.0,337.0,364.0,354.0,308.0,211.0,278.0
Toronto CDSB,Cath Dist Sch Brd (E/F),St Nicholas of Bari Catholic School,Catholic,Not applicable,Elementary,English,JK-8,Toronto,M6E1R6,610.0,43.68328,-79.4607,268.0,49.0,140.0,0.0,116.0,146.0,393.0,342.0,424.0,360.0,262.0,220.0,454.0,409.0,487.0,458.0,151.0,128.0
Toronto CDSB,Cath Dist Sch Brd (E/F),St Norbert Catholic School,Catholic,Not applicable,Elementary,English,JK-8,Toronto,M3K1R6,345.0,43.73457,-79.4643,69.0,34.0,52.0,0.0,69.0,138.0,276.0,276.0,280.0,297.0,209.0,228.0,278.0,259.0,291.0,279.0,61.0,59.0
Toronto CDSB,Cath Dist Sch Brd (E/F),St Paschal Baylon Catholic School,Catholic,Not applicable,Elementary,English,JK-8,Toronto,M2M1X6,740.0,43.79192,-79.4316,340.0,178.0,44.0,7.0,244.0,422.0,577.0,525.0,568.0,511.0,400.0,400.0,555.0,555.0,568.0,585.0,271.0,222.0
Toronto CDSB,Cath Dist Sch Brd (E/F),St Paul Catholic School,Catholic,Not applicable,Elementary,English,JK-8,Toronto,M5A3E5,200.0,43.65571,-79.3613,70.0,20.0,20.0,0.0,100.0,90.0,141.0,120.0,138.0,134.0,138.0,134.0,140.0,170.0,136.0,184.0,66.0,70.0
Toronto CDSB,Cath Dist Sch Brd (E/F),St Paul VI Catholic School,Catholic,Not applicable,Elementary,English,JK-8,Toronto,M6N2X5,310.0,43.67432,-79.4575,140.0,31.0,78.0,0.0,78.0,108.0,190.0,146.0,206.0,202.0,159.0,146.0,255.0,232.0,270.0,273.0,100.0,90.0
Toronto CDSB,Cath Dist Sch Brd (E/F),St Pius X Catholic School,Catholic,Not applicable,Elementary,English,JK-8,Toronto,M6S3Y3,520.0,43.6511,-79.485,62.0,10.0,57.0,10.0,78.0,416.0,494.0,489.0,493.0,468.0,471.0,452.0,498.0,478.0,477.0,510.0,322.0,328.0
Toronto CDSB,Cath Dist Sch Brd (E/F),St Raphael Catholic School,Catholic,Not applicable,Elementary,English,JK-8,Toronto,M3M2K2,510.0,43.72871,-79.489,122.0,46.0,71.0,0.0,143.0,158.0,380.0,357.0,444.0,377.0,346.0,332.0,403.0,367.0,411.0,403.0,134.0,143.0
Toronto CDSB,Cath Dist Sch Brd (E/F),St Rene Goupil Catholic School,Catholic,Not applicable,Elementary,English,JK-8,Toronto,M1V2G8,200.0,43.81937,-79.2879,50.0,130.0,20.0,0.0,40.0,60.0,N/A,N/A,N/A,N/A,N/A,N/A,N/A,150.0,N/A,200.0,N/A,34.0
Toronto CDSB,Cath Dist Sch Brd (E/F),St Richard Catholic School,Catholic,Not applicable,Elementary,English,JK-8,Toronto,M1H1H1,405.0,43.76839,-79.2397,81.0,20.0,61.0,0.0,101.0,162.0,367.0,312.0,367.0,312.0,289.0,263.0,325.0,364.0,312.0,381.0,249.0,182.0
Toronto CDSB,Cath Dist Sch Brd (E/F),St Rita Catholic School,Catholic,Not applicable,Elementary,English,JK-8,Toronto,M6P3Z9,80.0,43.66633,-79.4562,32.0,8.0,16.0,0.0,24.0,24.0,N/A,N/A,N/A,N/A,N/A,N/A,N/A,N/A,N/A,N/A,N/A,N/A
Toronto CDSB,Cath Dist Sch Brd (E/F),St Robert Catholic School,Catholic,Not applicable,Elementary,English,JK-8,NORTH YORK,M3H2K2,620.0,43.74957,-79.4443,211.0,87.0,37.0,12.0,118.0,422.0,547.0,552.0,532.0,527.0,405.0,446.0,548.0,564.0,583.0,595.0,330.0,267.0
Toronto CDSB,Cath Dist Sch Brd (E/F),St Roch Catholic School,Catholic,Not applicable,Elementary,English,JK-8,Toronto,M9L2E3,365.0,43.75397,-79.5661,110.0,36.0,73.0,0.0,146.0,110.0,225.0,277.0,253.0,288.0,172.0,193.0,236.0,248.0,259.0,259.0,121.0,128.0
Toronto CDSB,Cath Dist Sch Brd (E/F),St Rose of Lima Catholic School,Catholic,Not applicable,Elementary,English,JK-8,Toronto,M1H1A4,470.0,43.75712,-79.2407,94.0,94.0,47.0,0.0,164.0,188.0,419.0,390.0,348.0,334.0,289.0,263.0,394.0,343.0,418.0,376.0,144.0,141.0
Toronto CDSB,Cath Dist Sch Brd (E/F),St Sebastian Catholic School,Catholic,Not applicable,Elementary,English,JK-8,Toronto,M6H3P1,220.0,43.66283,-79.4398,88.0,22.0,44.0,0.0,44.0,88.0,220.0,220.0,220.0,220.0,202.0,178.0,212.0,220.0,202.0,202.0,164.0,128.0
Toronto CDSB,Cath Dist Sch Brd (E/F),St Simon Catholic School,Catholic,Not applicable,Elementary,English,JK-8,North York,M9M2K3,550.0,43.71961,-79.5359,138.0,50.0,55.0,6.0,121.0,204.0,414.0,418.0,446.0,446.0,302.0,242.0,434.0,456.0,446.0,468.0,221.0,192.0
Toronto CDSB,Cath Dist Sch Brd (E/F),St Stephen Catholic School,Catholic,Not applicable,Elementary,English,JK-8,Toronto,M9W2H8,425.0,43.72199,-79.5544,106.0,85.0,106.0,0.0,149.0,106.0,314.0,314.0,299.0,323.0,236.0,191.0,275.0,302.0,287.0,327.0,74.0,68.0
Toronto CDSB,Cath Dist Sch Brd (E/F),St Sylvester Catholic School,Catholic,Not applicable,Elementary,English,JK-8,Toronto,M1V1S4,190.0,43.80559,-79.3021,95.0,19.0,10.0,0.0,76.0,76.0,190.0,179.0,171.0,118.0,157.0,118.0,180.0,169.0,180.0,180.0,142.0,141.0
Toronto CDSB,Cath Dist Sch Brd (E/F),St Theresa Shrine Catholic School,Catholic,Not applicable,Elementary,English,JK-8,Toronto,M1M1M2,215.0,43.71558,-79.2424,43.0,11.0,32.0,0.0,54.0,108.0,128.0,125.0,151.0,101.0,79.0,69.0,196.0,196.0,205.0,215.0,81.0,58.0
Toronto CDSB,Cath Dist Sch Brd (E/F),St Thomas Aquinas Catholic School,Catholic,Not applicable,Elementary,English,JK-8,Toronto,M6E3G9,515.0,43.69591,-79.4451,196.0,88.0,62.0,5.0,129.0,185.0,443.0,474.0,422.0,443.0,332.0,299.0,385.0,458.0,412.0,474.0,230.0,237.0
Toronto CDSB,Cath Dist Sch Brd (E/F),St Thomas More Catholic School,Catholic,Not applicable,Elementary,English,JK-8,Toronto,M1G3M7,335.0,43.77841,-79.2251,117.0,67.0,34.0,0.0,134.0,134.0,283.0,218.0,260.0,174.0,153.0,151.0,265.0,305.0,284.0,298.0,178.0,221.0
Toronto CDSB,Cath Dist Sch Brd (E/F),St Timothy Catholic School,Catholic,Not applicable,Elementary,English,JK-8,Toronto,M2J1Y3,600.0,43.77453,-79.3508,246.0,126.0,78.0,12.0,222.0,384.0,462.0,504.0,396.0,360.0,379.0,360.0,445.0,498.0,480.0,552.0,237.0,246.0
Toronto CDSB,Cath Dist Sch Brd (E/F),St Ursula Catholic School,Catholic,Not applicable,Elementary,English,JK-8,Toronto,M1E1L8,260.0,43.74982,-79.1997,13.0,26.0,26.0,0.0,65.0,117.0,188.0,192.0,187.0,146.0,104.0,86.0,204.0,200.0,247.0,200.0,64.0,60.0
Toronto CDSB,Cath Dist Sch Brd (E/F),St Victor Catholic School,Catholic,Not applicable,Elementary,English,JK-8,Toronto,M1P4M2,325.0,43.76907,-79.2591,98.0,16.0,32.0,0.0,81.0,146.0,166.0,188.0,210.0,231.0,158.0,169.0,253.0,286.0,275.0,286.0,160.0,166.0
Toronto CDSB,Cath Dist Sch Brd (E/F),St Vincent de Paul Catholic School,Catholic,Not applicable,Elementary,English,JK-8,Toronto,M6R1M2,335.0,43.64668,-79.4478,67.0,0.0,50.0,0.0,50.0,234.0,301.0,325.0,308.0,305.0,296.0,275.0,316.0,325.0,316.0,335.0,211.0,241.0
Toronto CDSB,Cath Dist Sch Brd (E/F),St Wilfrid Catholic School,Catholic,Not applicable,Elementary,English,JK-8,Toronto,M3J2G8,675.0,43.7601,-79.5025,196.0,135.0,74.0,0.0,263.0,196.0,428.0,385.0,489.0,425.0,308.0,277.0,417.0,446.0,489.0,479.0,225.0,182.0
Toronto CDSB,Cath Dist Sch Brd (E/F),Stella Maris Catholic School,Catholic,Not applicable,Elementary,English,JK-8,Toronto,M6E1E6,340.0,43.67974,-79.4445,187.0,51.0,51.0,0.0,68.0,136.0,251.0,211.0,259.0,150.0,140.0,105.0,274.0,255.0,261.0,248.0,138.0,139.0
Toronto CDSB,Cath Dist Sch Brd (E/F),Sts Cosmas and Damian Catholic School,Catholic,Not applicable,Elementary,English,JK-8,Toronto,M6B3L3,380.0,43.70672,-79.4445,152.0,57.0,57.0,0.0,76.0,171.0,347.0,274.0,360.0,346.0,292.0,213.0,336.0,346.0,343.0,357.0,290.0,293.0
Toronto CDSB,Cath Dist Sch Brd (E/F),The Divine Infant Catholic School,Catholic,Not applicable,Elementary,English,JK-8,Scarborough,M1V3H7,110.0,43.82181,-79.2709,33.0,11.0,28.0,6.0,33.0,38.0,N/A,101.0,N/A,110.0,N/A,85.0,104.0,103.0,98.0,97.0,60.0,62.0
Toronto CDSB,Cath Dist Sch Brd (E/F),The Holy Trinity Catholic School,Catholic,Not applicable,Elementary,English,JK-8,Toronto,M8V4B7,540.0,43.59763,-79.517,103.0,43.0,65.0,16.0,124.0,281.0,N/A,491.0,N/A,491.0,N/A,400.0,N/A,454.0,N/A,481.0,N/A,297.0
Toronto CDSB,Cath Dist Sch Brd (E/F),Transfiguration of our Lord Catholic School,Catholic,Not applicable,Elementary,English,JK-8,Toronto,M9R2J2,430.0,43.69182,-79.563,64.0,22.0,22.0,43.0,86.0,215.0,339.0,366.0,309.0,340.0,288.0,331.0,385.0,404.0,401.0,417.0,273.0,262.0
Toronto CDSB,Cath Dist Sch Brd (E/F),Venerable John Merlini Catholic School,Catholic,Not applicable,Elementary,English,JK-8,Toronto,M9L1G9,285.0,43.75691,-79.5798,43.0,0.0,57.0,14.0,57.0,57.0,267.0,262.0,257.0,242.0,228.0,185.0,253.0,245.0,266.0,231.0,141.0,123.0
Toronto DSB,Pub Dist Sch Brd (E/F),ALPHA Alternative Junior School,Public,Not applicable,Elementary,English,JK-6,Toronto,M5V2M1,80.0,43.64571,-79.3982,8.0,0.0,8.0,0.0,16.0,48.0,N/A,N/A,N/A,N/A,N/A,N/A,N/A,N/A,N/A,N/A,N/A,N/A
Toronto DSB,Pub Dist Sch Brd (E/F),Adam Beck Junior Public School,Public,Not applicable,Elementary,English,JK-6,Toronto,M4E3M8,525.0,43.68315,-79.2885,42.0,16.0,63.0,0.0,32.0,430.0,448.0,452.0,390.0,273.0,309.0,294.0,488.0,488.0,452.0,488.0,304.0,210.0
Toronto DSB,Pub Dist Sch Brd (E/F),Africentric Alternative School,Public,Not applicable,Elementary,English,JK-8,Toronto,M3M2W9,105.0,43.74443,-79.4883,0.0,0.0,10.0,0.0,42.0,26.0,75.0,83.0,73.0,90.0,48.0,60.0,66.0,81.0,68.0,89.0,9.0,8.0
Toronto DSB,Pub Dist Sch Brd (E/F),Agincourt Junior Public School,Public,Not applicable,Elementary,English,JK-6,Toronto,M1S1N3,215.0,43.78823,-79.281,161.0,22.0,32.0,0.0,64.0,97.0,195.0,170.0,187.0,170.0,162.0,131.0,183.0,174.0,187.0,194.0,147.0,146.0
Toronto DSB,Pub Dist Sch Brd (E/F),Agnes Macphail Public School,Public,Not applicable,Elementary,English,JK-8,Scarborough,M1V1W5,310.0,43.81926,-79.2784,248.0,46.0,31.0,0.0,62.0,93.0,254.0,236.0,250.0,220.0,257.0,254.0,259.0,282.0,269.0,282.0,247.0,257.0
Toronto DSB,Pub Dist Sch Brd (E/F),Albion Heights Junior Middle School,Public,Not applicable,Elementary,English,JK-8,Etobicoke,M9V3W9,445.0,43.73138,-79.5943,222.0,44.0,67.0,0.0,134.0,178.0,376.0,365.0,389.0,338.0,261.0,222.0,348.0,418.0,340.0,432.0,193.0,187.0
Toronto DSB,Pub Dist Sch Brd (E/F),Alexander Muir/Gladstone Ave Junior and Senior Public School,Public,Not applicable,Elementary,English,JK-8,Toronto,M6J3L2,445.0,43.64578,-79.4287,89.0,22.0,89.0,0.0,111.0,245.0,298.0,316.0,372.0,387.0,246.0,214.0,394.0,418.0,419.0,432.0,264.0,267.0
Toronto DSB,Pub Dist Sch Brd (E/F),Alexander Stirling Public School,Public,Not applicable,Elementary,English,JK-8,Scarborough,M1B3A9,355.0,43.81165,-79.2076,106.0,18.0,71.0,0.0,106.0,106.0,189.0,178.0,212.0,248.0,136.0,135.0,242.0,213.0,217.0,213.0,95.0,71.0
Toronto DSB,Pub Dist Sch Brd (E/F),Alexmuir Junior Public School,Public,Not applicable,Elementary,English,JK-6,Scarborough,M1V1H6,380.0,43.8091,-79.2856,323.0,38.0,38.0,0.0,114.0,133.0,294.0,300.0,296.0,281.0,296.0,281.0,345.0,331.0,346.0,353.0,219.0,243.0
Toronto DSB,Pub Dist Sch Brd (E/F),Allenby Junior Public School,Public,Not applicable,Elementary,English,JK-6,Toronto,M5N1M2,800.0,43.70943,-79.4128,80.0,72.0,64.0,0.0,64.0,704.0,713.0,720.0,691.0,656.0,592.0,616.0,760.0,760.0,759.0,744.0,691.0,608.0
Toronto DSB,Pub Dist Sch Brd (E/F),Alvin Curling Public School,Public,Not applicable,Elementary,English,JK-8,Scarborough,M1B6K4,535.0,43.80812,-79.1905,369.0,27.0,70.0,0.0,102.0,171.0,442.0,455.0,457.0,471.0,405.0,348.0,513.0,503.0,524.0,514.0,388.0,353.0
Toronto DSB,Pub Dist Sch Brd (E/F),Amesbury Middle School,Public,Not applicable,Elementary,English,6-8,North York,M6L1L7,270.0,43.70829,-79.4931,108.0,27.0,81.0,0.0,108.0,54.0,N/A,N/A,N/A,N/A,N/A,N/A,160.0,157.0,171.0,162.0,52.0,49.0
Toronto DSB,Pub Dist Sch Brd (E/F),Ancaster Public School,Public,Not applicable,Elementary,English,JK-5,North York,M3K1S6,115.0,43.73286,-79.467,46.0,23.0,34.0,0.0,23.0,46.0,53.0,51.0,75.0,64.0,48.0,44.0,N/A,N/A,N/A,N/A,N/A,N/A
Toronto DSB,Pub Dist Sch Brd (E/F),Annette Street Junior and Senior Public School,Public,Not applicable,Elementary,English,JK-8,Toronto,M6P1R3,535.0,43.66142,-79.4728,54.0,27.0,96.0,16.0,54.0,433.0,452.0,407.0,364.0,342.0,329.0,316.0,431.0,444.0,423.0,444.0,235.0,209.0
Toronto DSB,Pub Dist Sch Brd (E/F),Anson Park Public School,Public,Not applicable,Elementary,English,JK-8,Scarborough,M1M1X5,220.0,43.72612,-79.241,121.0,22.0,33.0,0.0,77.0,88.0,173.0,180.0,206.0,194.0,154.0,143.0,157.0,191.0,173.0,211.0,106.0,125.0
Toronto DSB,Pub Dist Sch Brd (E/F),Anson S Taylor Junior Public School,Public,Not applicable,Elementary,English,JK-6,Scarborough,M1S4C5,220.0,43.80428,-79.2616,187.0,22.0,22.0,0.0,88.0,66.0,152.0,143.0,145.0,161.0,136.0,136.0,190.0,196.0,192.0,213.0,129.0,145.0
Toronto DSB,Pub Dist Sch Brd (E/F),Arbor Glen Public School,Public,Not applicable,Elementary,English,JK-5,North York,M2H3H6,305.0,43.80948,-79.3557,214.0,61.0,15.0,0.0,46.0,259.0,287.0,290.0,293.0,290.0,293.0,284.0,N/A,N/A,N/A,N/A,N/A,N/A
Toronto DSB,Pub Dist Sch Brd (E/F),Armour Heights Public School,Public,Not applicable,Elementary,English,JK-6,North York,M5M3A5,250.0,43.7409,-79.4195,25.0,0.0,25.0,0.0,38.0,175.0,218.0,198.0,224.0,190.0,200.0,210.0,230.0,242.0,225.0,250.0,148.0,152.0
Toronto DSB,Pub Dist Sch Brd (E/F),Avondale Alternative Elementary School,Public,Not applicable,Elementary,English,JK-8,North York,M2N2V4,140.0,43.75967,-79.4002,28.0,7.0,7.0,14.0,35.0,112.0,140.0,140.0,140.0,140.0,140.0,127.0,140.0,140.0,140.0,140.0,127.0,112.0
Toronto DSB,Pub Dist Sch Brd (E/F),Avondale Public School,Public,Not applicable,Elementary,English,JK-8,North York,M2N2V4,425.0,43.75967,-79.4002,298.0,170.0,21.0,0.0,128.0,382.0,250.0,327.0,238.0,293.0,222.0,251.0,343.0,336.0,334.0,391.0,254.0,246.0
Toronto DSB,Pub Dist Sch Brd (E/F),Bala Avenue Community School,Public,Not applicable,Elementary,English,JK-5,York,M6M2E1,240.0,43.6894,-79.4994,48.0,24.0,36.0,0.0,96.0,48.0,142.0,149.0,180.0,166.0,75.0,74.0,N/A,N/A,N/A,N/A,N/A,N/A
Toronto DSB,Pub Dist Sch Brd (E/F),Balmy Beach Community School,Public,Not applicable,Elementary,English,JK-6,Toronto,M4E1L6,420.0,43.67643,-79.2898,21.0,21.0,42.0,0.0,21.0,378.0,394.0,382.0,401.0,357.0,366.0,311.0,380.0,395.0,373.0,399.0,329.0,378.0
Toronto DSB,Pub Dist Sch Brd (E/F),Banting and Best Public School,Public,Not applicable,Elementary,English,JK-8,Scarborough,M1V4E7,370.0,43.82651,-79.2798,314.0,56.0,37.0,0.0,130.0,92.0,246.0,300.0,242.0,266.0,225.0,266.0,304.0,292.0,310.0,326.0,257.0,278.0
Toronto DSB,Pub Dist Sch Brd (E/F),Baycrest Public School,Public,Not applicable,Elementary,English,JK-8,North York,M6A1W4,170.0,43.7266,-79.4442,51.0,26.0,17.0,0.0,51.0,68.0,N/A,104.0,N/A,85.0,N/A,66.0,N/A,156.0,N/A,156.0,N/A,14.0
Toronto DSB,Pub Dist Sch Brd (E/F),Bayview Middle School,Public,Not applicable,Elementary,English,6-8,North York,M2K1W4,450.0,43.77619,-79.3852,270.0,90.0,68.0,0.0,112.0,382.0,N/A,N/A,N/A,N/A,N/A,N/A,382.0,378.0,380.0,414.0,309.0,297.0
Toronto DSB,Pub Dist Sch Brd (E/F),Beaches Alternative Junior School,Public,Not applicable,Elementary,English,JK-6,Toronto,M4E2Z5,75.0,43.68261,-79.2991,8.0,0.0,15.0,0.0,15.0,45.0,N/A,68.0,N/A,61.0,N/A,41.0,N/A,N/A,N/A,N/A,N/A,N/A
Toronto DSB,Pub Dist Sch Brd (E/F),Beaumonde Heights Junior Middle School,Public,Not applicable,Elementary,English,JK-8,Etobicoke,M9V1T1,595.0,43.74258,-79.5746,321.0,89.0,95.0,0.0,178.0,202.0,444.0,422.0,475.0,399.0,412.0,280.0,481.0,500.0,449.0,512.0,294.0,321.0
Toronto DSB,Pub Dist Sch Brd (E/F),Bedford Park Public School,Public,Not applicable,Elementary,English,JK-8,Toronto,M4N1X2,715.0,43.72785,-79.4,93.0,57.0,107.0,0.0,43.0,658.0,694.0,701.0,693.0,679.0,685.0,651.0,685.0,644.0,631.0,644.0,547.0,465.0
Toronto DSB,Pub Dist Sch Brd (E/F),Bellmere Junior Public School,Public,Not applicable,Elementary,English,JK-6,Scarborough,M1H2E6,400.0,43.77196,-79.2351,280.0,100.0,40.0,0.0,180.0,220.0,301.0,316.0,296.0,296.0,275.0,272.0,378.0,272.0,371.0,312.0,306.0,236.0
Toronto DSB,Pub Dist Sch Brd (E/F),Bendale Junior Public School,Public,Not applicable,Elementary,English,JK-6,Scarborough,M1H1M4,410.0,43.76256,-79.2449,246.0,62.0,41.0,0.0,102.0,205.0,289.0,332.0,286.0,303.0,252.0,262.0,314.0,336.0,308.0,336.0,242.0,242.0
Toronto DSB,Pub Dist Sch Brd (E/F),Bennington Heights Elementary School,Public,Not applicable,Elementary,English,JK-6,East York,M4G1B1,190.0,43.69407,-79.3687,48.0,19.0,19.0,10.0,19.0,171.0,175.0,182.0,162.0,182.0,174.0,167.0,190.0,177.0,190.0,182.0,167.0,154.0
Toronto DSB,Pub Dist Sch Brd (E/F),Berner Trail Junior Public School,Public,Not applicable,Elementary,English,JK-6,Toronto,M1B1B3,270.0,43.80156,-79.2211,108.0,27.0,27.0,0.0,81.0,108.0,177.0,184.0,209.0,192.0,168.0,173.0,226.0,194.0,227.0,202.0,135.0,135.0
Toronto DSB,Pub Dist Sch Brd (E/F),Bessborough Drive Elementary and Middle School,Public,Not applicable,Elementary,English,JK-8,East York,M4G3K2,540.0,43.70721,-79.3701,49.0,22.0,65.0,11.0,38.0,502.0,490.0,529.0,468.0,529.0,487.0,502.0,467.0,486.0,466.0,475.0,361.0,383.0
Toronto DSB,Pub Dist Sch Brd (E/F),Beverley Heights Middle School,Public,Not applicable,Elementary,English,6-8,North York,M3M1S5,435.0,43.73302,-79.5048,174.0,44.0,87.0,0.0,174.0,87.0,N/A,N/A,N/A,N/A,N/A,N/A,293.0,313.0,310.0,344.0,117.0,104.0
Toronto DSB,Pub Dist Sch Brd (E/F),Beverley School,Public,Not applicable,Elementary,English,JK-8,Toronto,M5T1L4,80.0,43.65576,-79.3957,16.0,0.0,80.0,0.0,16.0,48.0,N/A,N/A,N/A,N/A,N/A,N/A,N/A,N/A,N/A,N/A,N/A,N/A
Toronto DSB,Pub Dist Sch Brd (E/F),Beverly Glen Junior Public School,Public,Not applicable,Elementary,English,JK-6,Scarborough,M1W1W4,425.0,43.79865,-79.3231,255.0,42.0,21.0,0.0,85.0,191.0,347.0,361.0,364.0,382.0,311.0,289.0,385.0,408.0,391.0,395.0,282.0,336.0
Toronto DSB,Pub Dist Sch Brd (E/F),Birch Cliff Heights Public School,Public,Not applicable,Elementary,English,JK-8,Toronto,M1N2J1,275.0,43.70173,-79.2598,96.0,28.0,41.0,0.0,55.0,138.0,209.0,184.0,207.0,151.0,153.0,124.0,198.0,168.0,230.0,223.0,116.0,121.0
Toronto DSB,Pub Dist Sch Brd (E/F),Birch Cliff Public School,Public,Not applicable,Elementary,English,JK-8,Scarborough,M1N1S2,435.0,43.69198,-79.2656,44.0,0.0,87.0,0.0,65.0,239.0,376.0,335.0,380.0,365.0,274.0,296.0,330.0,370.0,332.0,418.0,163.0,191.0
Toronto DSB,Pub Dist Sch Brd (E/F),Blacksmith Public School,Public,Not applicable,Elementary,English,JK-5,North York,M3N1V5,200.0,43.77125,-79.5267,90.0,20.0,30.0,0.0,80.0,20.0,165.0,160.0,168.0,176.0,118.0,112.0,N/A,N/A,N/A,N/A,N/A,N/A
Toronto DSB,Pub Dist Sch Brd (E/F),Blake Street Junior Public School,Public,Not applicable,Elementary,English,JK-6,Toronto,M4J1A7,370.0,43.6718,-79.3385,74.0,0.0,18.0,0.0,111.0,185.0,287.0,278.0,309.0,278.0,207.0,174.0,293.0,278.0,283.0,300.0,193.0,141.0
Toronto DSB,Pub Dist Sch Brd (E/F),Blantyre Public School,Public,Not applicable,Elementary,English,JK-8,Scarborough,M1N2S4,305.0,43.68509,-79.2839,15.0,0.0,30.0,15.0,46.0,214.0,237.0,235.0,247.0,217.0,190.0,217.0,276.0,262.0,262.0,262.0,132.0,116.0
Toronto DSB,Pub Dist Sch Brd (E/F),Blaydon Public School,Public,Not applicable,Elementary,English,JK-5,North York,M3M2C9,175.0,43.73551,-79.4862,70.0,18.0,52.0,0.0,52.0,70.0,125.0,145.0,122.0,117.0,106.0,102.0,N/A,N/A,N/A,N/A,N/A,N/A
Toronto DSB,Pub Dist Sch Brd (E/F),Bliss Carman Senior Public School,Public,Not applicable,Elementary,English,7-8,Scarborough,M1M3N8,290.0,43.73264,-79.2256,174.0,29.0,87.0,0.0,145.0,116.0,N/A,N/A,N/A,N/A,N/A,N/A,N/A,N/A,N/A,N/A,N/A,N/A
Toronto DSB,Pub Dist Sch Brd (E/F),Bloordale Middle School,Public,Not applicable,Elementary,English,6-8,Etobicoke,M9C2H3,370.0,43.63914,-79.5719,166.0,18.0,111.0,0.0,92.0,222.0,N/A,N/A,N/A,N/A,N/A,N/A,283.0,289.0,277.0,285.0,170.0,148.0
Toronto DSB,Pub Dist Sch Brd (E/F),Bloorlea Middle School,Public,Not applicable,Elementary,English,6-8,Etobicoke,M9B1M5,285.0,43.63775,-79.555,114.0,28.0,57.0,0.0,57.0,171.0,N/A,N/A,N/A,N/A,N/A,N/A,257.0,262.0,245.0,262.0,175.0,180.0
Toronto DSB,Pub Dist Sch Brd (E/F),Blythwood Junior Public School,Public,Not applicable,Elementary,English,JK-6,Toronto,M4N2Z5,415.0,43.71993,-79.3895,83.0,42.0,42.0,21.0,42.0,394.0,384.0,415.0,377.0,403.0,384.0,403.0,415.0,365.0,416.0,374.0,388.0,303.0
Toronto DSB,Pub Dist Sch Brd (E/F),Bowmore Road Junior and Senior Public School,Public,Not applicable,Elementary,English,JK-8,Toronto,M4L3J2,970.0,43.67678,-79.3149,68.0,29.0,126.0,136.0,116.0,737.0,725.0,660.0,846.0,660.0,589.0,524.0,880.0,854.0,842.0,766.0,615.0,572.0
Toronto DSB,Pub Dist Sch Brd (E/F),Braeburn Junior School,Public,Not applicable,Elementary,English,JK-5,Etobicoke,M9W2N8,175.0,43.72802,-79.5489,70.0,18.0,18.0,0.0,88.0,35.0,163.0,145.0,164.0,154.0,168.0,138.0,N/A,N/A,N/A,N/A,N/A,N/A
Toronto DSB,Pub Dist Sch Brd (E/F),Brian Public School,Public,Not applicable,Elementary,English,JK-5,North York,M2J3Y6,380.0,43.7822,-79.3318,190.0,38.0,38.0,0.0,95.0,266.0,237.0,289.0,245.0,289.0,279.0,304.0,N/A,N/A,N/A,N/A,N/A,N/A
Toronto DSB,Pub Dist Sch Brd (E/F),Briarcrest Junior School,Public,Not applicable,Elementary,English,JK-5,Etobicoke,M9C4R3,275.0,43.66646,-79.5801,82.0,14.0,41.0,0.0,28.0,138.0,213.0,228.0,225.0,234.0,198.0,214.0,N/A,N/A,N/A,N/A,N/A,N/A
Toronto DSB,Pub Dist Sch Brd (E/F),Bridlewood Junior Public School,Public,Not applicable,Elementary,English,JK-6,Scarborough,M1T1P7,235.0,43.78079,-79.3151,47.0,0.0,24.0,0.0,24.0,176.0,208.0,181.0,201.0,195.0,178.0,157.0,201.0,193.0,195.0,193.0,185.0,150.0
Toronto DSB,Pub Dist Sch Brd (E/F),Brimwood Boulevard Junior Public School,Public,Not applicable,Elementary,English,JK-6,Scarborough,M1V1E5,375.0,43.81171,-79.2738,244.0,19.0,38.0,0.0,112.0,150.0,248.0,278.0,243.0,262.0,251.0,236.0,326.0,319.0,342.0,304.0,217.0,202.0
Toronto DSB,Pub Dist Sch Brd (E/F),Broadacres Junior Public School,Public,Not applicable,Elementary,English,JK-5,Etobicoke,M9C3G6,340.0,43.64806,-79.572,102.0,34.0,51.0,68.0,68.0,170.0,204.0,282.0,147.0,156.0,127.0,146.0,N/A,N/A,N/A,N/A,N/A,N/A
Toronto DSB,Pub Dist Sch Brd (E/F),Broadlands Public School,Public,Not applicable,Elementary,English,K-5,North York,M3A1J7,475.0,43.7459,-79.3166,166.0,24.0,48.0,0.0,95.0,285.0,N/A,N/A,N/A,N/A,409.0,352.0,N/A,N/A,N/A,N/A,N/A,N/A
Toronto DSB,Pub Dist Sch Brd (E/F),Brock Public School,Public,Not applicable,Elementary,English,JK-8,Toronto,M6H3S4,310.0,43.65304,-79.4378,93.0,0.0,62.0,0.0,62.0,124.0,241.0,270.0,245.0,257.0,228.0,242.0,265.0,257.0,252.0,257.0,194.0,223.0
Toronto DSB,Pub Dist Sch Brd (E/F),Brookhaven Public School,Public,Not applicable,Elementary,English,JK-5,North York,M6M4N8,375.0,43.7025,-79.4957,150.0,19.0,38.0,0.0,150.0,75.0,276.0,232.0,281.0,270.0,171.0,161.0,N/A,N/A,N/A,N/A,N/A,N/A
Toronto DSB,Pub Dist Sch Brd (E/F),Brookmill Boulevard Junior Public School,Public,Not applicable,Elementary,English,JK-6,Scarborough,M1W2L5,275.0,43.80121,-79.3149,220.0,14.0,28.0,0.0,82.0,138.0,244.0,217.0,256.0,228.0,235.0,209.0,236.0,250.0,266.0,234.0,176.0,192.0
Toronto DSB,Pub Dist Sch Brd (E/F),Brookside Public School,Public,Not applicable,Elementary,English,JK-8,Scarborough,M1X0A3,720.0,43.82784,-79.2345,454.0,22.0,94.0,0.0,108.0,252.0,559.0,598.0,628.0,684.0,524.0,540.0,636.0,655.0,646.0,698.0,466.0,540.0
Toronto DSB,Pub Dist Sch Brd (E/F),Brookview Middle School,Public,Not applicable,Elementary,English,6-8,North York,M3N2K7,430.0,43.76745,-79.5172,172.0,43.0,129.0,0.0,215.0,64.0,N/A,N/A,N/A,N/A,N/A,N/A,233.0,219.0,258.0,258.0,73.0,69.0
Toronto DSB,Pub Dist Sch Brd (E/F),Brown Junior Public School,Public,Not applicable,Elementary,English,JK-6,Toronto,M4V2J1,555.0,43.68491,-79.4013,133.0,67.0,39.0,6.0,78.0,488.0,458.0,472.0,431.0,483.0,400.0,372.0,522.0,527.0,505.0,505.0,447.0,438.0
Toronto DSB,Pub Dist Sch Brd (E/F),Bruce Public School,Public,Not applicable,Elementary,English,JK-8,Toronto,M4M2Y6,245.0,43.66103,-79.3333,24.0,0.0,49.0,0.0,61.0,147.0,174.0,169.0,173.0,142.0,122.0,93.0,181.0,213.0,160.0,213.0,107.0,147.0
Toronto DSB,Pub Dist Sch Brd (E/F),Buchanan Public School,Public,Not applicable,Elementary,English,JK-8,Scarborough,M1R3V3,290.0,43.75144,-79.2998,145.0,29.0,58.0,0.0,72.0,87.0,180.0,261.0,179.0,244.0,149.0,188.0,185.0,276.0,196.0,276.0,145.0,212.0
Toronto DSB,Pub Dist Sch Brd (E/F),Burrows Hall Junior Public School,Public,Not applicable,Elementary,English,JK-6,Scarborough,M1B1M5,230.0,43.79269,-79.2288,115.0,12.0,34.0,0.0,58.0,80.0,177.0,186.0,192.0,159.0,154.0,143.0,187.0,191.0,211.0,200.0,150.0,150.0
Toronto DSB,Pub Dist Sch Brd (E/F),C D Farquharson Junior Public School,Public,Not applicable,Elementary,English,JK-6,Scarborough,M1S2B1,390.0,43.78446,-79.2661,312.0,39.0,58.0,0.0,117.0,156.0,331.0,308.0,360.0,328.0,304.0,289.0,342.0,335.0,361.0,343.0,236.0,257.0
Toronto DSB,Pub Dist Sch Brd (E/F),C R Marchant Middle School,Public,Not applicable,Elementary,English,6-8,York,M9N3A8,420.0,43.70172,-79.5129,126.0,63.0,105.0,0.0,147.0,84.0,N/A,N/A,N/A,N/A,N/A,N/A,276.0,248.0,304.0,277.0,121.0,105.0
Toronto DSB,Pub Dist Sch Brd (E/F),Calico Public School,Public,Not applicable,Elementary,English,JK-5,North York,M3L1V5,305.0,43.7379,-79.5036,137.0,107.0,46.0,0.0,92.0,92.0,167.0,174.0,155.0,149.0,121.0,131.0,N/A,N/A,N/A,N/A,N/A,N/A
Toronto DSB,Pub Dist Sch Brd (E/F),Cameron Public School,Public,Not applicable,Elementary,English,JK-5,North York,M2N1E8,325.0,43.75435,-79.4212,114.0,65.0,16.0,0.0,65.0,276.0,249.0,254.0,232.0,237.0,256.0,205.0,N/A,N/A,N/A,N/A,N/A,N/A
Toronto DSB,Pub Dist Sch Brd (E/F),Carleton Village Junior and Senior Public School,Public,Not applicable,Elementary,English,JK-8,Toronto,M6N2Z4,370.0,43.67235,-79.46,111.0,18.0,37.0,0.0,130.0,111.0,155.0,174.0,161.0,185.0,109.0,100.0,237.0,266.0,245.0,255.0,81.0,104.0
Toronto DSB,Pub Dist Sch Brd (E/F),Cassandra Public School,Public,Not applicable,Elementary,English,JK-5,North York,M3A1S5,280.0,43.74842,-79.3289,84.0,28.0,42.0,0.0,70.0,168.0,232.0,176.0,223.0,185.0,194.0,165.0,N/A,N/A,N/A,N/A,N/A,N/A
Toronto DSB,Pub Dist Sch Brd (E/F),Cedar Drive Junior Public School,Public,Not applicable,Elementary,English,JK-6,Scarborough,M1J3G4,665.0,43.74658,-79.2148,459.0,120.0,93.0,0.0,372.0,259.0,480.0,499.0,459.0,459.0,345.0,366.0,419.0,465.0,447.0,505.0,234.0,279.0
Toronto DSB,Pub Dist Sch Brd (E/F),Cedarbrook Public School,Public,Not applicable,Elementary,English,JK-8,Scarborough,M1J2V6,475.0,43.74729,-79.2302,238.0,24.0,48.0,0.0,142.0,166.0,402.0,366.0,373.0,366.0,311.0,323.0,399.0,423.0,394.0,418.0,285.0,328.0
Toronto DSB,Pub Dist Sch Brd (E/F),Cedarvale Community School,Public,Not applicable,Elementary,English,JK-8,York,M6C1W4,395.0,43.69602,-79.4305,59.0,40.0,40.0,0.0,40.0,336.0,366.0,395.0,372.0,383.0,371.0,375.0,378.0,348.0,353.0,367.0,289.0,237.0
Toronto DSB,Pub Dist Sch Brd (E/F),Centennial Road Junior Public School,Public,Not applicable,Elementary,English,JK-6,Scarborough,M1C2A2,235.0,43.78695,-79.15,47.0,0.0,35.0,0.0,24.0,153.0,224.0,188.0,235.0,188.0,193.0,118.0,230.0,216.0,219.0,223.0,142.0,146.0
Toronto DSB,Pub Dist Sch Brd (E/F),Chalkfarm Public School,Public,Not applicable,Elementary,English,JK-5,North York,M3L1L4,260.0,43.7271,-79.5144,91.0,78.0,39.0,0.0,91.0,39.0,97.0,114.0,102.0,122.0,24.0,23.0,N/A,N/A,N/A,N/A,N/A,N/A
Toronto DSB,Pub Dist Sch Brd (E/F),Charles E Webster Public School,Public,Not applicable,Elementary,English,JK-8,York,M6M3X7,415.0,43.69343,-79.4751,124.0,62.0,104.0,0.0,166.0,104.0,228.0,278.0,236.0,286.0,159.0,191.0,229.0,224.0,248.0,203.0,20.0,17.0
Toronto DSB,Pub Dist Sch Brd (E/F),Charles G Fraser Junior Public School,Public,Not applicable,Elementary,English,JK-6,Toronto,M6J2K6,245.0,43.64852,-79.4095,122.0,24.0,49.0,0.0,49.0,98.0,162.0,198.0,148.0,179.0,134.0,142.0,185.0,157.0,196.0,157.0,178.0,167.0
Toronto DSB,Pub Dist Sch Brd (E/F),Charles Gordon Senior Public School,Public,Not applicable,Elementary,English,7-8,Scarborough,M1K5A7,330.0,43.7463,-79.2604,214.0,33.0,66.0,0.0,115.0,132.0,N/A,N/A,N/A,N/A,N/A,N/A,N/A,N/A,N/A,N/A,N/A,N/A
Toronto DSB,Pub Dist Sch Brd (E/F),Charles H Best Junior and Middle School,Public,Not applicable,Elementary,English,4-8,North York,M3H5K8,355.0,43.76744,-79.4586,195.0,71.0,106.0,0.0,71.0,195.0,N/A,N/A,N/A,N/A,N/A,N/A,269.0,256.0,267.0,259.0,144.0,121.0
Toronto DSB,Pub Dist Sch Brd (E/F),Charlottetown Junior Public School,Public,Not applicable,Elementary,English,JK-6,Scarborough,M1C2C7,415.0,43.78206,-79.1422,83.0,21.0,42.0,0.0,42.0,270.0,334.0,307.0,291.0,274.0,287.0,307.0,391.0,332.0,356.0,299.0,235.0,216.0
Toronto DSB,Pub Dist Sch Brd (E/F),Chartland Junior Public School,Public,Not applicable,Elementary,English,JK-6,Scarborough,M1S2R7,210.0,43.79976,-79.2787,168.0,21.0,21.0,0.0,63.0,52.0,176.0,181.0,154.0,128.0,164.0,166.0,187.0,189.0,177.0,189.0,152.0,155.0
Toronto DSB,Pub Dist Sch Brd (E/F),Cherokee Public School,Public,Not applicable,Elementary,English,JK-5,North York,M2H2W7,170.0,43.79876,-79.3386,136.0,42.0,17.0,0.0,34.0,94.0,150.0,163.0,162.0,141.0,136.0,114.0,N/A,N/A,N/A,N/A,N/A,N/A
Toronto DSB,Pub Dist Sch Brd (E/F),Chester Elementary School,Public,Not applicable,Elementary,English,JK-5,East York,M4K2E4,490.0,43.6876,-79.3517,147.0,49.0,49.0,49.0,147.0,270.0,344.0,358.0,367.0,338.0,291.0,274.0,N/A,N/A,N/A,N/A,N/A,N/A
Toronto DSB,Pub Dist Sch Brd (E/F),Chester Le Junior Public School,Public,Not applicable,Elementary,English,JK-6,Scarborough,M1W2K7,155.0,43.79858,-79.3311,85.0,23.0,16.0,0.0,78.0,46.0,73.0,73.0,48.0,51.0,52.0,62.0,91.0,127.0,84.0,113.0,47.0,64.0
Toronto DSB,Pub Dist Sch Brd (E/F),Chief Dan George Public School,Public,Not applicable,Elementary,English,JK-8,Scarborough,M1B2K5,305.0,43.80271,-79.1638,76.0,0.0,61.0,0.0,76.0,122.0,233.0,235.0,229.0,165.0,141.0,131.0,252.0,217.0,230.0,207.0,106.0,107.0
Toronto DSB,Pub Dist Sch Brd (E/F),Chine Drive Public School,Public,Not applicable,Elementary,English,JK-8,Scarborough,M1M2K8,135.0,43.70998,-79.2418,7.0,0.0,20.0,7.0,20.0,81.0,124.0,99.0,109.0,81.0,108.0,117.0,126.0,116.0,126.0,116.0,87.0,107.0
Toronto DSB,Pub Dist Sch Brd (E/F),Church Street Junior Public School,Public,Not applicable,Elementary,English,JK-6,Toronto,M4Y1B7,405.0,43.6636,-79.3792,202.0,142.0,40.0,0.0,122.0,243.0,313.0,344.0,307.0,279.0,263.0,263.0,283.0,308.0,276.0,320.0,169.0,182.0
Toronto DSB,Pub Dist Sch Brd (E/F),Churchill Heights Public School,Public,Not applicable,Elementary,English,JK-8,Scarborough,M1G2S4,385.0,43.77305,-79.2245,231.0,38.0,0.0,116.0,116.0,154.0,329.0,316.0,320.0,304.0,285.0,316.0,344.0,354.0,348.0,362.0,285.0,331.0
Toronto DSB,Pub Dist Sch Brd (E/F),Churchill Public School,Public,Not applicable,Elementary,English,JK-5,North York,M2N1Z5,410.0,43.77075,-79.427,205.0,62.0,41.0,0.0,102.0,308.0,330.0,353.0,344.0,365.0,311.0,308.0,N/A,N/A,N/A,N/A,N/A,N/A
Toronto DSB,Pub Dist Sch Brd (E/F),City View Alternative Senior School,Public,Not applicable,Elementary,English,7-8,Toronto,M6K1S9,55.0,43.64852,-79.4367,6.0,0.0,16.0,6.0,6.0,33.0,N/A,N/A,N/A,N/A,N/A,N/A,N/A,N/A,N/A,N/A,N/A,N/A
Toronto DSB,Pub Dist Sch Brd (E/F),Claireville Junior School,Public,Not applicable,Elementary,English,JK-5,Etobicoke,M9V3J4,225.0,43.74793,-79.599,90.0,11.0,45.0,0.0,56.0,90.0,148.0,117.0,159.0,126.0,115.0,94.0,N/A,N/A,N/A,N/A,N/A,N/A
Toronto DSB,Pub Dist Sch Brd (E/F),Clairlea Public School,Public,Not applicable,Elementary,English,JK-8,Scarborough,M1L2X1,595.0,43.71647,-79.2963,190.0,30.0,77.0,0.0,161.0,315.0,352.0,363.0,303.0,309.0,301.0,214.0,528.0,422.0,513.0,446.0,256.0,256.0
Toronto DSB,Pub Dist Sch Brd (E/F),Claude Watson School for the Arts,Public,Not applicable,Elementary,English,1-8,North York,M2N0A8,300.0,43.76568,-79.4094,120.0,15.0,0.0,90.0,60.0,240.0,N/A,N/A,N/A,N/A,N/A,N/A,300.0,294.0,300.0,300.0,291.0,300.0
Toronto DSB,Pub Dist Sch Brd (E/F),Cliffside Public School,Public,Not applicable,Elementary,English,JK-8,Scarborough,M1N1M1,185.0,43.70488,-79.2504,92.0,18.0,18.0,0.0,65.0,83.0,N/A,111.0,N/A,130.0,N/A,56.0,N/A,124.0,N/A,124.0,N/A,70.0
Toronto DSB,Pub Dist Sch Brd (E/F),Cliffwood Public School,Public,Not applicable,Elementary,English,JK-6,North York,M2H2E4,350.0,43.80628,-79.3601,193.0,18.0,18.0,0.0,70.0,280.0,336.0,336.0,321.0,308.0,299.0,308.0,N/A,N/A,N/A,N/A,N/A,N/A
Toronto DSB,Pub Dist Sch Brd (E/F),Clinton Street Junior Public School,Public,Not applicable,Elementary,English,JK-6,Toronto,M6G2V7,390.0,43.65764,-79.414,78.0,0.0,39.0,78.0,58.0,234.0,299.0,308.0,268.0,300.0,270.0,281.0,320.0,339.0,302.0,347.0,185.0,172.0
Toronto DSB,Pub Dist Sch Brd (E/F),Cordella Junior Public School,Public,Not applicable,Elementary,English,JK-6,York,M6N2K1,125.0,43.67906,-79.4876,50.0,0.0,38.0,0.0,50.0,25.0,N/A,81.0,N/A,74.0,N/A,30.0,75.0,94.0,91.0,86.0,55.0,48.0
Toronto DSB,Pub Dist Sch Brd (E/F),Cornell Junior Public School,Public,Not applicable,Elementary,English,JK-6,Scarborough,M1G1G8,740.0,43.75939,-79.218,555.0,44.0,67.0,0.0,333.0,200.0,623.0,592.0,672.0,585.0,546.0,459.0,603.0,651.0,640.0,666.0,388.0,466.0
Toronto DSB,Pub Dist Sch Brd (E/F),Corvette Junior Public School,Public,Not applicable,Elementary,English,JK-6,Scarborough,M1K3G2,595.0,43.72648,-79.2622,256.0,71.0,77.0,0.0,244.0,238.0,339.0,393.0,297.0,327.0,310.0,375.0,443.0,470.0,457.0,530.0,272.0,315.0
Toronto DSB,Pub Dist Sch Brd (E/F),Cosburn Middle School,Public,Not applicable,Elementary,English,6-8,East York,M4J2P1,645.0,43.69419,-79.3309,168.0,13.0,110.0,19.0,110.0,451.0,N/A,N/A,N/A,N/A,N/A,N/A,580.0,568.0,531.0,542.0,385.0,393.0
Toronto DSB,Pub Dist Sch Brd (E/F),Cottingham Junior Public School,Public,Not applicable,Elementary,English,JK-6,Toronto,M4V1E3,160.0,43.68037,-79.3956,0.0,8.0,16.0,16.0,16.0,136.0,160.0,144.0,160.0,136.0,145.0,96.0,160.0,152.0,160.0,152.0,145.0,152.0
Toronto DSB,Pub Dist Sch Brd (E/F),Courcelette Public School,Public,Not applicable,Elementary,English,JK-8,Scarborough,M1N2T6,290.0,43.67932,-79.2787,29.0,0.0,29.0,0.0,29.0,261.0,263.0,281.0,276.0,290.0,209.0,249.0,257.0,290.0,265.0,278.0,193.0,226.0
Toronto DSB,Pub Dist Sch Brd (E/F),Crescent Town Elementary School,Public,Not applicable,Elementary,English,JK-5,East York,M4C5M9,560.0,43.69683,-79.2925,470.0,190.0,39.0,0.0,246.0,420.0,477.0,487.0,471.0,476.0,414.0,414.0,N/A,N/A,N/A,N/A,N/A,N/A
Toronto DSB,Pub Dist Sch Brd (E/F),Cresthaven Public School,Public,Not applicable,Elementary,English,JK-5,North York,M2H1M1,235.0,43.79731,-79.3636,141.0,24.0,24.0,0.0,94.0,153.0,200.0,176.0,195.0,195.0,164.0,108.0,N/A,N/A,N/A,N/A,N/A,N/A
Toronto DSB,Pub Dist Sch Brd (E/F),Crestview Public School,Public,Not applicable,Elementary,English,JK-5,Toronto,M2J2W3,345.0,43.78843,-79.3598,241.0,138.0,17.0,0.0,104.0,276.0,304.0,310.0,296.0,293.0,292.0,269.0,N/A,N/A,N/A,N/A,N/A,N/A
Toronto DSB,Pub Dist Sch Brd (E/F),Cummer Valley Middle School,Public,Not applicable,Elementary,English,6-8,North York,M2M3K1,430.0,43.7882,-79.4015,258.0,86.0,43.0,0.0,150.0,344.0,N/A,N/A,N/A,N/A,N/A,N/A,336.0,353.0,339.0,370.0,264.0,275.0
Toronto DSB,Pub Dist Sch Brd (E/F),D A Morrison Middle School,Public,Junior High School,Elementary,English,6-8,East York,M4C4L2,430.0,43.69539,-79.3117,129.0,43.0,108.0,0.0,129.0,258.0,N/A,N/A,N/A,N/A,N/A,N/A,317.0,327.0,314.0,327.0,189.0,189.0
Toronto DSB,Pub Dist Sch Brd (E/F),Dallington Public School,Public,Not applicable,Elementary,English,JK-5,North York,M2J2G3,510.0,43.77712,-79.3547,275.0,87.0,31.0,5.0,158.0,342.0,444.0,413.0,412.0,367.0,390.0,367.0,N/A,N/A,N/A,N/A,N/A,N/A
Toronto DSB,Pub Dist Sch Brd (E/F),Danforth Gardens Public School,Public,Not applicable,Elementary,English,JK-8,Scarborough,M1L4H4,525.0,43.70845,-79.271,278.0,52.0,79.0,0.0,178.0,242.0,377.0,388.0,308.0,268.0,266.0,231.0,446.0,415.0,434.0,399.0,327.0,278.0
Toronto DSB,Pub Dist Sch Brd (E/F),David Hornell Junior School,Public,Not applicable,Elementary,English,JK-5,Etobicoke,M8V1M6,235.0,43.61933,-79.4889,94.0,59.0,24.0,0.0,70.0,118.0,147.0,193.0,166.0,193.0,127.0,150.0,N/A,N/A,N/A,N/A,N/A,N/A
Toronto DSB,Pub Dist Sch Brd (E/F),David Lewis Public School,Public,Not applicable,Elementary,English,JK-8,Scarborough,M1W3G1,490.0,43.80919,-79.3179,368.0,49.0,49.0,0.0,122.0,196.0,453.0,480.0,429.0,416.0,403.0,407.0,412.0,441.0,443.0,461.0,365.0,372.0
Toronto DSB,Pub Dist Sch Brd (E/F),Davisville Junior Public School,Public,Not applicable,Elementary,English,JK-6,Toronto,M4S1J6,530.0,43.69938,-79.3948,201.0,138.0,53.0,5.0,117.0,408.0,447.0,456.0,439.0,408.0,404.0,360.0,463.0,509.0,463.0,509.0,371.0,323.0
Toronto DSB,Pub Dist Sch Brd (E/F),Daystrom Public School,Public,Not applicable,Elementary,English,JK-5,North York,M9M2A8,450.0,43.74794,-79.547,225.0,68.0,22.0,0.0,180.0,90.0,322.0,306.0,378.0,302.0,312.0,256.0,N/A,N/A,N/A,N/A,N/A,N/A
Toronto DSB,Pub Dist Sch Brd (E/F),Deer Park Junior and Senior Public School,Public,Not applicable,Elementary,English,JK-8,Toronto,M4T2B4,540.0,43.68965,-79.3915,184.0,103.0,76.0,11.0,70.0,443.0,454.0,540.0,474.0,540.0,426.0,486.0,463.0,491.0,466.0,508.0,418.0,389.0
Toronto DSB,Pub Dist Sch Brd (E/F),Delta Senior Alternative School,Public,Not applicable,Elementary,English,7-8,Toronto,M6G3G9,60.0,43.65867,-79.4188,6.0,6.0,18.0,6.0,12.0,42.0,N/A,N/A,N/A,N/A,N/A,N/A,N/A,N/A,N/A,N/A,N/A,N/A
Toronto DSB,Pub Dist Sch Brd (E/F),Denlow Public School,Public,Not applicable,Elementary,English,JK-6,Toronto,M3B1P7,350.0,43.74583,-79.3642,158.0,35.0,0.0,105.0,35.0,315.0,324.0,308.0,335.0,308.0,306.0,318.0,N/A,N/A,N/A,N/A,N/A,N/A
Toronto DSB,Pub Dist Sch Brd (E/F),Dennis Avenue Community School,Public,Not applicable,Elementary,English,JK-5,York,M6N2T7,95.0,43.68441,-79.4873,38.0,10.0,19.0,0.0,28.0,28.0,59.0,59.0,71.0,81.0,49.0,59.0,N/A,N/A,N/A,N/A,N/A,N/A
Toronto DSB,Pub Dist Sch Brd (E/F),Derrydown Public School,Public,Not applicable,Elementary,English,JK-5,North York,M3J1R7,420.0,43.75868,-79.4937,189.0,21.0,42.0,0.0,147.0,105.0,251.0,176.0,216.0,160.0,154.0,139.0,N/A,N/A,N/A,N/A,N/A,N/A
Toronto DSB,Pub Dist Sch Brd (E/F),Dewson Street Junior Public School,Public,Not applicable,Elementary,English,JK-6,Toronto,M6H2N9,480.0,43.65558,-79.4238,96.0,0.0,24.0,0.0,96.0,336.0,300.0,360.0,279.0,120.0,366.0,293.0,461.0,470.0,452.0,470.0,313.0,322.0
Toronto DSB,Pub Dist Sch Brd (E/F),Diefenbaker Elementary School,Public,Not applicable,Elementary,English,JK-5,East York,M4J2R2,390.0,43.69513,-79.3313,58.0,0.0,20.0,0.0,58.0,273.0,360.0,292.0,369.0,273.0,314.0,273.0,N/A,N/A,N/A,N/A,N/A,N/A
Toronto DSB,Pub Dist Sch Brd (E/F),Dixon Grove Junior Middle School,Public,Not applicable,Elementary,English,JK-8,Etobicoke,M9R1H1,685.0,43.6849,-79.5561,363.0,110.0,123.0,0.0,281.0,267.0,356.0,370.0,417.0,342.0,288.0,288.0,472.0,486.0,478.0,507.0,240.0,247.0
Toronto DSB,Pub Dist Sch Brd (E/F),Don Mills Middle School,Public,Not applicable,Elementary,English,6-8,North York,M3C1X6,415.0,43.73663,-79.3393,187.0,42.0,104.0,0.0,104.0,270.0,N/A,N/A,N/A,N/A,N/A,N/A,325.0,315.0,321.0,340.0,193.0,212.0
Toronto DSB,Pub Dist Sch Brd (E/F),Don Valley Middle School,Public,Junior High School,Elementary,English,6-8,Toronto,M2J3C3,295.0,43.78953,-79.355,133.0,30.0,59.0,15.0,88.0,206.0,N/A,N/A,N/A,N/A,N/A,N/A,N/A,283.0,N/A,283.0,N/A,212.0
Toronto DSB,Pub Dist Sch Brd (E/F),Donview Middle School,Public,Not applicable,Elementary,English,6-8,North York,M3A2S3,350.0,43.76434,-79.3315,140.0,52.0,70.0,88.0,105.0,175.0,N/A,N/A,N/A,N/A,N/A,N/A,244.0,234.0,246.0,241.0,144.0,130.0
Toronto DSB,Pub Dist Sch Brd (E/F),Donwood Park Public School,Public,Not applicable,Elementary,English,JK-8,Scarborough,M1P3K5,680.0,43.757,-79.2622,449.0,88.0,68.0,0.0,306.0,238.0,488.0,517.0,500.0,510.0,404.0,456.0,530.0,530.0,477.0,496.0,278.0,272.0
Toronto DSB,Pub Dist Sch Brd (E/F),Dorset Park Public School,Public,Not applicable,Elementary,English,JK-8,Scarborough,M1P1V6,235.0,43.75016,-79.2797,118.0,24.0,47.0,0.0,70.0,94.0,130.0,103.0,133.0,73.0,96.0,66.0,140.0,167.0,149.0,174.0,83.0,92.0
Toronto DSB,Pub Dist Sch Brd (E/F),Dovercourt Public School,Public,Not applicable,Elementary,English,JK-8,Toronto,M6H3G4,410.0,43.66701,-79.4361,102.0,0.0,82.0,0.0,62.0,205.0,258.0,250.0,220.0,205.0,203.0,193.0,307.0,328.0,325.0,357.0,143.0,152.0
Toronto DSB,Pub Dist Sch Brd (E/F),Downsview Public School,Public,Not applicable,Elementary,English,JK-5,North York,M3M2G7,230.0,43.73111,-79.4824,115.0,34.0,34.0,0.0,69.0,46.0,146.0,177.0,131.0,159.0,79.0,92.0,N/A,N/A,N/A,N/A,N/A,N/A
Toronto DSB,Pub Dist Sch Brd (E/F),Downtown Alternative School,Public,Not applicable,Elementary,English,JK-6,Toronto,M5E1R8,120.0,43.64773,-79.3704,6.0,0.0,12.0,0.0,36.0,72.0,108.0,91.0,120.0,91.0,108.0,91.0,N/A,120.0,N/A,108.0,N/A,72.0
Toronto DSB,Pub Dist Sch Brd (E/F),Dr Marion Hilliard Senior Public School,Public,Not applicable,Elementary,English,7-8,Scarborough,M1B2P3,275.0,43.80247,-79.2253,151.0,28.0,69.0,0.0,82.0,96.0,N/A,N/A,N/A,N/A,N/A,N/A,N/A,N/A,N/A,N/A,N/A,N/A
Toronto DSB,Pub Dist Sch Brd (E/F),Driftwood Public School,Public,Not applicable,Elementary,English,JK-5,North York,M3N2N6,440.0,43.76272,-79.5146,88.0,22.0,88.0,0.0,220.0,110.0,178.0,180.0,178.0,189.0,92.0,97.0,N/A,N/A,N/A,N/A,N/A,N/A
Toronto DSB,Pub Dist Sch Brd (E/F),Dublin Heights Elementary and Middle School,Public,Not applicable,Elementary,English,JK-8,North York,M3H2K2,860.0,43.74926,-79.4468,353.0,138.0,129.0,77.0,155.0,636.0,600.0,636.0,592.0,628.0,512.0,507.0,694.0,722.0,668.0,748.0,504.0,499.0
Toronto DSB,Pub Dist Sch Brd (E/F),Duke of Connaught Junior and Senior Public School,Public,Not applicable,Elementary,English,JK-8,Toronto,M4L2W6,905.0,43.66588,-79.3224,136.0,18.0,154.0,109.0,181.0,606.0,569.0,643.0,600.0,588.0,445.0,498.0,833.0,833.0,707.0,778.0,453.0,498.0
Toronto DSB,Pub Dist Sch Brd (E/F),Dundas Junior Public School,Public,Not applicable,Elementary,English,JK-5,Toronto,M4M1R4,425.0,43.66207,-79.3487,128.0,21.0,21.0,0.0,106.0,191.0,296.0,361.0,282.0,336.0,234.0,285.0,N/A,N/A,N/A,N/A,N/A,N/A
Toronto DSB,Pub Dist Sch Brd (E/F),Dunlace Public School,Public,Not applicable,Elementary,English,JK-5,North York,M2L2S1,310.0,43.76245,-79.3704,108.0,46.0,31.0,0.0,62.0,248.0,239.0,270.0,245.0,270.0,258.0,279.0,N/A,N/A,N/A,N/A,N/A,N/A
Toronto DSB,Pub Dist Sch Brd (E/F),Earl Beatty Junior and Senior Public School,Public,Not applicable,Elementary,English,JK-8,Toronto,M4C3J6,475.0,43.68602,-79.3212,48.0,0.0,48.0,0.0,48.0,380.0,386.0,394.0,400.0,332.0,349.0,318.0,343.0,285.0,294.0,238.0,90.0,95.0
Toronto DSB,Pub Dist Sch Brd (E/F),Earl Grey Senior Public School,Public,Not applicable,Elementary,English,7-8,Toronto,M4J1G8,455.0,43.67686,-79.3408,91.0,23.0,91.0,0.0,91.0,318.0,N/A,N/A,N/A,N/A,N/A,N/A,N/A,N/A,N/A,N/A,N/A,N/A
Toronto DSB,Pub Dist Sch Brd (E/F),Earl Haig Public School,Public,Not applicable,Elementary,English,JK-8,Toronto,M4C1E2,625.0,43.68132,-79.3212,50.0,6.0,56.0,0.0,88.0,412.0,509.0,550.0,457.0,475.0,435.0,431.0,471.0,594.0,441.0,569.0,330.0,406.0
Toronto DSB,Pub Dist Sch Brd (E/F),East Alternative School of Toronto,Public,Not applicable,Elementary,English,7-8,Toronto,M4J1A7,60.0,43.6718,-79.3385,6.0,0.0,18.0,0.0,6.0,48.0,N/A,N/A,N/A,N/A,N/A,N/A,N/A,N/A,N/A,N/A,N/A,N/A
Toronto DSB,Pub Dist Sch Brd (E/F),Eastview Public School,Public,Not applicable,Elementary,English,JK-8,Scarborough,M1E2E5,365.0,43.75898,-79.1912,91.0,36.0,91.0,0.0,182.0,110.0,147.0,146.0,193.0,201.0,83.0,80.0,226.0,212.0,223.0,223.0,61.0,66.0
Toronto DSB,Pub Dist Sch Brd (E/F),Eatonville Junior School,Public,Not applicable,Elementary,English,JK-5,Etobicoke,M9C2P7,250.0,43.6375,-79.5664,138.0,50.0,38.0,0.0,75.0,150.0,160.0,158.0,176.0,148.0,137.0,140.0,N/A,N/A,N/A,N/A,N/A,N/A
Toronto DSB,Pub Dist Sch Brd (E/F),Edgewood Public School,Public,Not applicable,Elementary,English,JK-8,Scarborough,M1P3S4,190.0,43.7663,-79.2658,57.0,19.0,38.0,0.0,57.0,95.0,91.0,84.0,88.0,84.0,62.0,61.0,165.0,127.0,143.0,144.0,52.0,36.0
Toronto DSB,Pub Dist Sch Brd (E/F),Eglinton Junior Public School,Public,Not applicable,Elementary,English,JK-5,Toronto,M4P1L1,605.0,43.70806,-79.3904,260.0,188.0,48.0,0.0,169.0,496.0,421.0,472.0,385.0,424.0,334.0,351.0,N/A,N/A,N/A,N/A,N/A,N/A
Toronto DSB,Pub Dist Sch Brd (E/F),Elia Middle School,Public,Not applicable,Elementary,English,6-8,North York,M3J1T7,375.0,43.75379,-79.4985,206.0,38.0,56.0,0.0,131.0,94.0,N/A,N/A,N/A,N/A,N/A,N/A,253.0,248.0,274.0,285.0,132.0,112.0
Toronto DSB,Pub Dist Sch Brd (E/F),Elizabeth Simcoe Junior Public School,Public,Not applicable,Elementary,English,JK-6,Scarborough,M1E1A3,280.0,43.73814,-79.206,28.0,0.0,42.0,70.0,28.0,182.0,240.0,252.0,215.0,232.0,198.0,204.0,260.0,263.0,272.0,258.0,191.0,185.0
Toronto DSB,Pub Dist Sch Brd (E/F),Elkhorn Public School,Public,Not applicable,Elementary,English,JK-5,North York,M2K1J3,420.0,43.77121,-79.3801,210.0,84.0,42.0,0.0,84.0,336.0,386.0,374.0,392.0,365.0,392.0,349.0,N/A,N/A,N/A,N/A,N/A,N/A
Toronto DSB,Pub Dist Sch Brd (E/F),Ellesmere-Statton Public School,Public,Not applicable,Elementary,English,JK-8,Toronto,M1P2W1,635.0,43.76362,-79.2876,311.0,76.0,76.0,0.0,184.0,248.0,456.0,451.0,421.0,438.0,348.0,324.0,518.0,591.0,498.0,533.0,390.0,413.0
Toronto DSB,Pub Dist Sch Brd (E/F),Elmbank Junior Middle Academy,Public,Not applicable,Elementary,English,JK-8,Etobicoke,M9V3R4,345.0,43.7365,-79.59,172.0,17.0,86.0,0.0,121.0,104.0,237.0,266.0,228.0,235.0,176.0,155.0,215.0,217.0,215.0,228.0,108.0,117.0
Toronto DSB,Pub Dist Sch Brd (E/F),Elmlea Junior School,Public,Not applicable,Elementary,English,JK-5,Etobicoke,M9W1V4,375.0,43.71594,-79.5499,112.0,19.0,38.0,0.0,131.0,131.0,212.0,274.0,280.0,274.0,155.0,124.0,N/A,N/A,N/A,N/A,N/A,N/A
Toronto DSB,Pub Dist Sch Brd (E/F),Emily Carr Public School,Public,Not applicable,Elementary,English,JK-8,Scarborough,M1B2V2,295.0,43.80501,-79.2069,74.0,15.0,30.0,0.0,74.0,88.0,227.0,295.0,204.0,274.0,161.0,156.0,230.0,295.0,220.0,286.0,108.0,106.0
Toronto DSB,Pub Dist Sch Brd (E/F),Equinox Holistic Alternative School,Public,Not applicable,Elementary,English,JK-8,Toronto,M4L2Y1,190.0,43.67289,-79.3232,10.0,0.0,38.0,0.0,28.0,124.0,141.0,165.0,121.0,116.0,124.0,108.0,148.0,175.0,121.0,175.0,75.0,91.0
Toronto DSB,Pub Dist Sch Brd (E/F),Ernest Public School,Public,Not applicable,Elementary,English,JK-5,North York,M2J4A4,160.0,43.79141,-79.3374,120.0,32.0,8.0,0.0,40.0,104.0,139.0,128.0,133.0,134.0,143.0,109.0,N/A,N/A,N/A,N/A,N/A,N/A
Toronto DSB,Pub Dist Sch Brd (E/F),Essex Junior and Senior Public School,Public,Not applicable,Elementary,English,JK-8,Toronto,M6G1T3,280.0,43.66825,-79.4223,56.0,14.0,98.0,14.0,56.0,154.0,139.0,132.0,149.0,104.0,127.0,104.0,181.0,190.0,189.0,176.0,70.0,59.0
Toronto DSB,Pub Dist Sch Brd (E/F),F H Miller Junior Public School,Public,Not applicable,Elementary,English,JK-6,York,M6E4T5,130.0,43.684,-79.4589,39.0,6.0,32.0,0.0,20.0,32.0,98.0,100.0,91.0,90.0,70.0,60.0,84.0,90.0,84.0,90.0,52.0,60.0
Toronto DSB,Pub Dist Sch Brd (E/F),Fairbank Memorial Community School,Public,Not applicable,Elementary,English,JK-5,York,M6E4M2,165.0,43.6917,-79.4554,41.0,25.0,58.0,0.0,33.0,50.0,78.0,92.0,82.0,82.0,63.0,64.0,N/A,N/A,N/A,N/A,N/A,N/A
Toronto DSB,Pub Dist Sch Brd (E/F),Fairbank Public School,Public,Not applicable,Elementary,English,JK-8,York,M6E3S5,300.0,43.69438,-79.4492,120.0,45.0,75.0,60.0,75.0,120.0,234.0,201.0,251.0,216.0,134.0,117.0,246.0,204.0,237.0,246.0,74.0,54.0
Toronto DSB,Pub Dist Sch Brd (E/F),Fairglen Junior Public School,Public,Not applicable,Elementary,English,JK-6,Scarborough,M1W1H8,300.0,43.78493,-79.3222,195.0,30.0,30.0,120.0,90.0,135.0,253.0,228.0,275.0,228.0,194.0,171.0,300.0,270.0,291.0,288.0,258.0,237.0
Toronto DSB,Pub Dist Sch Brd (E/F),Fairmount Public School,Public,Not applicable,Elementary,English,JK-8,Scarborough,M1M1C7,405.0,43.71975,-79.2309,61.0,20.0,40.0,0.0,40.0,304.0,322.0,332.0,285.0,288.0,235.0,251.0,348.0,348.0,356.0,320.0,170.0,182.0
Toronto DSB,Pub Dist Sch Brd (E/F),Faywood Arts-Based Curriculum School,Public,Not applicable,Elementary,English,JK-8,North York,M3H2X5,500.0,43.73985,-79.4467,185.0,75.0,90.0,0.0,90.0,325.0,355.0,380.0,351.0,365.0,301.0,265.0,375.0,360.0,360.0,335.0,216.0,220.0
Toronto DSB,Pub Dist Sch Brd (E/F),Fenside Public School,Public,Not applicable,Elementary,English,JK-5,North York,M3A2V9,235.0,43.76457,-79.3291,94.0,47.0,47.0,0.0,82.0,106.0,153.0,155.0,146.0,89.0,96.0,80.0,N/A,N/A,N/A,N/A,N/A,N/A
Toronto DSB,Pub Dist Sch Brd (E/F),Fern Avenue Junior and Senior Public School,Public,Not applicable,Elementary,English,JK-8,Toronto,M6R1K3,700.0,43.64517,-79.4461,63.0,14.0,112.0,21.0,70.0,567.0,535.0,588.0,353.0,406.0,469.0,455.0,621.0,609.0,630.0,567.0,478.0,483.0
Toronto DSB,Pub Dist Sch Brd (E/F),Finch Public School,Public,Not applicable,Elementary,English,JK-5,Toronto,M2N4S3,285.0,43.78383,-79.395,171.0,86.0,28.0,0.0,128.0,214.0,233.0,256.0,239.0,225.0,228.0,217.0,N/A,N/A,N/A,N/A,N/A,N/A
Toronto DSB,Pub Dist Sch Brd (E/F),Firgrove Public School,Public,Not applicable,Elementary,English,JK-5,North York,M3N1K8,380.0,43.75196,-79.5203,171.0,38.0,38.0,0.0,171.0,76.0,306.0,361.0,326.0,365.0,227.0,293.0,N/A,N/A,N/A,N/A,N/A,N/A
Toronto DSB,Pub Dist Sch Brd (E/F),Fisherville Senior Public School,Public,Junior High School,Elementary,English,7-8,North York,M2R2N1,160.0,43.78456,-79.441,112.0,64.0,32.0,0.0,48.0,88.0,N/A,N/A,N/A,N/A,N/A,N/A,N/A,N/A,N/A,N/A,N/A,N/A
Toronto DSB,Pub Dist Sch Brd (E/F),Fleming Public School,Public,Not applicable,Elementary,English,JK-8,Scarborough,M1B5B5,290.0,43.8154,-79.2034,87.0,14.0,29.0,0.0,87.0,102.0,290.0,290.0,290.0,278.0,276.0,235.0,279.0,290.0,290.0,281.0,173.0,180.0
Toronto DSB,Pub Dist Sch Brd (E/F),Flemington Public School,Public,Not applicable,Elementary,English,JK-5,North York,M6A2N4,220.0,43.72038,-79.4446,55.0,11.0,44.0,0.0,110.0,33.0,137.0,156.0,150.0,123.0,59.0,57.0,N/A,N/A,N/A,N/A,N/A,N/A
Toronto DSB,Pub Dist Sch Brd (E/F),Forest Hill Junior and Senior Public School,Public,Not applicable,Elementary,English,JK-8,Toronto,M5P2T6,765.0,43.69534,-79.414,252.0,130.0,69.0,207.0,122.0,612.0,741.0,719.0,666.0,666.0,666.0,566.0,714.0,650.0,698.0,635.0,611.0,574.0
Toronto DSB,Pub Dist Sch Brd (E/F),Forest Manor Public School,Public,Not applicable,Elementary,English,JK-5,North York,M2J1M4,760.0,43.77104,-79.3431,517.0,395.0,76.0,8.0,327.0,547.0,625.0,600.0,631.0,593.0,559.0,486.0,N/A,N/A,N/A,N/A,N/A,N/A
Toronto DSB,Pub Dist Sch Brd (E/F),Frankland Community School Junior,Public,Not applicable,Elementary,English,JK-6,Toronto,M4K3E1,370.0,43.67717,-79.3504,37.0,18.0,56.0,0.0,18.0,296.0,349.0,352.0,298.0,340.0,296.0,326.0,362.0,329.0,343.0,340.0,286.0,237.0
Toronto DSB,Pub Dist Sch Brd (E/F),Fraser Mustard Early Learning Academy,Public,Not applicable,Elementary,English,JK-3,Toronto,M4H0A2,590.0,43.70649,-79.3432,543.0,171.0,18.0,0.0,366.0,319.0,N/A,N/A,N/A,N/A,N/A,N/A,N/A,N/A,N/A,N/A,N/A,N/A
Toronto DSB,Pub Dist Sch Brd (E/F),Galloway Road Public School,Public,Not applicable,Elementary,English,JK-8,Scarborough,M1E1X2,220.0,43.76493,-79.1965,77.0,22.0,44.0,0.0,88.0,66.0,141.0,205.0,152.0,189.0,115.0,150.0,127.0,136.0,118.0,114.0,39.0,31.0
Toronto DSB,Pub Dist Sch Brd (E/F),Garden Avenue Junior Public School,Public,Not applicable,Elementary,English,JK-6,Toronto,M6R1M9,280.0,43.64319,-79.4491,28.0,0.0,14.0,0.0,28.0,196.0,248.0,258.0,253.0,230.0,245.0,230.0,272.0,269.0,262.0,249.0,205.0,176.0
Toronto DSB,Pub Dist Sch Brd (E/F),Gateway Public School,Public,Not applicable,Elementary,English,JK-6,North York,M3C1B4,870.0,43.71172,-79.331,635.0,165.0,113.0,0.0,374.0,426.0,623.0,592.0,612.0,557.0,455.0,400.0,614.0,583.0,616.0,696.0,335.0,322.0
Toronto DSB,Pub Dist Sch Brd (E/F),General Brock Public School,Public,Not applicable,Elementary,English,JK-8,Scarborough,M1L1Y5,445.0,43.71855,-79.2746,222.0,89.0,44.0,0.0,111.0,222.0,279.0,254.0,290.0,267.0,249.0,214.0,302.0,329.0,333.0,316.0,186.0,182.0
Toronto DSB,Pub Dist Sch Brd (E/F),General Crerar Public School,Public,Not applicable,Elementary,English,JK-8,Scarborough,M1P1C8,380.0,43.74568,-79.2796,152.0,19.0,38.0,0.0,114.0,152.0,216.0,190.0,250.0,205.0,172.0,186.0,251.0,289.0,238.0,281.0,127.0,122.0
Toronto DSB,Pub Dist Sch Brd (E/F),General Mercer Junior Public School,Public,Not applicable,Elementary,English,JK-6,Toronto,M6N1P8,200.0,43.67895,-79.464,50.0,10.0,60.0,0.0,40.0,50.0,111.0,108.0,86.0,76.0,75.0,60.0,84.0,80.0,101.0,112.0,44.0,48.0
Toronto DSB,Pub Dist Sch Brd (E/F),George Anderson Public School,Public,Not applicable,Elementary,English,JK-5,North York,M6M2Y8,175.0,43.70545,-79.4789,114.0,35.0,18.0,0.0,61.0,70.0,142.0,131.0,133.0,122.0,127.0,122.0,N/A,N/A,N/A,N/A,N/A,N/A
Toronto DSB,Pub Dist Sch Brd (E/F),George B Little Public School,Public,Not applicable,Elementary,English,JK-8,Scarborough,M1G3G9,410.0,43.77119,-79.2081,184.0,41.0,82.0,0.0,123.0,123.0,319.0,271.0,327.0,271.0,233.0,193.0,306.0,324.0,297.0,324.0,170.0,156.0
Toronto DSB,Pub Dist Sch Brd (E/F),George P Mackie Junior Public School,Public,Not applicable,Elementary,English,JK-6,Scarborough,M1M3B1,130.0,43.7393,-79.2118,39.0,6.0,20.0,0.0,26.0,65.0,112.0,104.0,98.0,117.0,46.0,52.0,99.0,114.0,88.0,130.0,62.0,105.0
Toronto DSB,Pub Dist Sch Brd (E/F),George Peck Public School,Public,Not applicable,Elementary,English,JK-8,Scarborough,M1R1Y1,245.0,43.73825,-79.2936,74.0,24.0,49.0,0.0,74.0,98.0,166.0,194.0,145.0,154.0,134.0,154.0,191.0,189.0,191.0,189.0,145.0,132.0
Toronto DSB,Pub Dist Sch Brd (E/F),George R Gauld Junior School,Public,Not applicable,Elementary,English,JK-5,Etobicoke,M8Y1B7,155.0,43.62063,-79.4985,46.0,16.0,23.0,0.0,31.0,85.0,113.0,113.0,120.0,144.0,110.0,113.0,N/A,N/A,N/A,N/A,N/A,N/A
Toronto DSB,Pub Dist Sch Brd (E/F),George Syme Community School,Public,Not applicable,Elementary,English,JK-5,York,M6N1T6,390.0,43.66924,-79.4911,156.0,20.0,58.0,0.0,156.0,117.0,159.0,113.0,211.0,133.0,136.0,109.0,N/A,N/A,N/A,N/A,N/A,N/A
Toronto DSB,Pub Dist Sch Brd (E/F),George Webster Elementary School,Public,Not applicable,Elementary,English,JK-8,East York,M4B1C5,710.0,43.70195,-79.2995,412.0,156.0,163.0,0.0,327.0,341.0,422.0,376.0,386.0,355.0,265.0,199.0,543.0,554.0,529.0,540.0,343.0,298.0
Toronto DSB,Pub Dist Sch Brd (E/F),Givins/Shaw Junior Public School,Public,Not applicable,Elementary,English,JK-6,Toronto,M6J2X5,335.0,43.64631,-79.4177,34.0,0.0,34.0,0.0,67.0,218.0,274.0,258.0,246.0,214.0,233.0,214.0,303.0,315.0,264.0,248.0,207.0,271.0
Toronto DSB,Pub Dist Sch Brd (E/F),Glamorgan Junior Public School,Public,Not applicable,Elementary,English,JK-6,Scarborough,M1P4N4,540.0,43.77139,-79.2893,405.0,59.0,103.0,0.0,227.0,227.0,382.0,367.0,379.0,356.0,306.0,254.0,398.0,410.0,393.0,421.0,244.0,232.0
Toronto DSB,Pub Dist Sch Brd (E/F),Gledhill Junior Public School,Public,Not applicable,Elementary,English,JK-6,Toronto,M4C5K6,450.0,43.68765,-79.3095,45.0,22.0,68.0,0.0,90.0,270.0,193.0,216.0,200.0,216.0,185.0,198.0,N/A,N/A,N/A,N/A,N/A,N/A
Toronto DSB,Pub Dist Sch Brd (E/F),Glen Ames Senior Public School,Public,Not applicable,Elementary,English,7-8,Toronto,M4E1K5,420.0,43.67418,-79.2983,21.0,21.0,63.0,21.0,42.0,336.0,N/A,N/A,N/A,N/A,N/A,N/A,N/A,N/A,N/A,N/A,N/A,N/A
Toronto DSB,Pub Dist Sch Brd (E/F),Glen Park Public School,Public,Not applicable,Elementary,English,JK-6,North York,M6B4L5,470.0,43.71328,-79.4358,94.0,24.0,94.0,0.0,94.0,258.0,363.0,301.0,374.0,277.0,333.0,310.0,407.0,362.0,358.0,376.0,237.0,216.0
Toronto DSB,Pub Dist Sch Brd (E/F),Glen Ravine Junior Public School,Public,Not applicable,Elementary,English,JK-6,Scarborough,M1K4V4,275.0,43.73822,-79.2541,179.0,14.0,41.0,0.0,138.0,96.0,219.0,182.0,204.0,190.0,180.0,146.0,239.0,220.0,218.0,220.0,159.0,135.0
Toronto DSB,Pub Dist Sch Brd (E/F),Glenview Senior Public School,Public,Not applicable,Elementary,English,7-8,Toronto,M4R2B5,770.0,43.71997,-79.4095,139.0,31.0,116.0,15.0,77.0,647.0,N/A,N/A,N/A,N/A,N/A,N/A,N/A,N/A,N/A,N/A,N/A,N/A
Toronto DSB,Pub Dist Sch Brd (E/F),Golf Road Junior Public School,Public,Not applicable,Elementary,English,JK-6,Scarborough,M1G1H7,295.0,43.76393,-79.2169,177.0,15.0,59.0,0.0,74.0,118.0,180.0,189.0,177.0,165.0,119.0,130.0,237.0,204.0,238.0,174.0,113.0,97.0
Toronto DSB,Pub Dist Sch Brd (E/F),Gordon A Brown Middle School,Public,Not applicable,Elementary,English,6-8,East York,M4B1N2,375.0,43.70759,-79.3053,112.0,19.0,56.0,56.0,112.0,188.0,N/A,N/A,N/A,N/A,N/A,N/A,292.0,289.0,273.0,292.0,199.0,191.0
Toronto DSB,Pub Dist Sch Brd (E/F),Gosford Public School,Public,Not applicable,Elementary,English,JK-6,North York,M3N2G8,265.0,43.76386,-79.5216,80.0,13.0,26.0,0.0,106.0,40.0,162.0,154.0,162.0,180.0,128.0,106.0,N/A,N/A,N/A,N/A,N/A,N/A
Toronto DSB,Pub Dist Sch Brd (E/F),Gracedale Public School,Public,Not applicable,Elementary,English,JK-5,North York,M9L2C1,630.0,43.75319,-79.5618,485.0,82.0,76.0,0.0,227.0,220.0,455.0,441.0,489.0,479.0,364.0,346.0,N/A,N/A,N/A,N/A,N/A,N/A
Toronto DSB,Pub Dist Sch Brd (E/F),Gracefield Public School,Public,Not applicable,Elementary,English,JK-5,North York,M6L1L7,220.0,43.709,-79.4915,121.0,22.0,33.0,0.0,66.0,88.0,119.0,128.0,128.0,152.0,97.0,92.0,N/A,N/A,N/A,N/A,N/A,N/A
Toronto DSB,Pub Dist Sch Brd (E/F),Greenholme Junior Middle School,Public,Not applicable,Elementary,English,JK-8,Etobicoke,M9V3M5,305.0,43.73506,-79.5829,122.0,0.0,61.0,0.0,152.0,61.0,190.0,220.0,200.0,210.0,144.0,201.0,210.0,195.0,203.0,207.0,21.0,21.0
Toronto DSB,Pub Dist Sch Brd (E/F),Greenland Public School,Public,Not applicable,Elementary,English,JK-5,North York,M3C1N1,155.0,43.7336,-79.3385,62.0,16.0,16.0,0.0,31.0,93.0,126.0,118.0,115.0,118.0,103.0,81.0,N/A,N/A,N/A,N/A,N/A,N/A
Toronto DSB,Pub Dist Sch Brd (E/F),Grenoble Public School,Public,Not applicable,Elementary,English,JK-6,Toronto,M3C1C3,965.0,43.71545,-79.333,830.0,280.0,87.0,0.0,598.0,357.0,539.0,550.0,499.0,454.0,388.0,376.0,610.0,647.0,685.0,685.0,365.0,347.0
Toronto DSB,Pub Dist Sch Brd (E/F),Grey Owl Junior Public School,Public,Not applicable,Elementary,English,JK-6,Scarborough,M1B1M4,245.0,43.80398,-79.2133,98.0,24.0,24.0,0.0,98.0,61.0,147.0,176.0,140.0,137.0,83.0,76.0,203.0,211.0,169.0,223.0,103.0,113.0
Toronto DSB,Pub Dist Sch Brd (E/F),Guildwood Junior Public School,Public,Not applicable,Elementary,English,JK-6,Scarborough,M1E1L8,125.0,43.75081,-79.2,19.0,0.0,25.0,0.0,38.0,50.0,95.0,101.0,79.0,70.0,54.0,55.0,90.0,104.0,107.0,125.0,50.0,62.0
Toronto DSB,Pub Dist Sch Brd (E/F),Gulfstream Public School,Public,Not applicable,Elementary,English,JK-8,North York,M9M1S3,605.0,43.73907,-79.542,260.0,73.0,151.0,0.0,151.0,151.0,510.0,454.0,529.0,508.0,427.0,363.0,520.0,411.0,543.0,478.0,240.0,230.0
Toronto DSB,Pub Dist Sch Brd (E/F),H A Halbert Junior Public School,Public,Not applicable,Elementary,English,JK-6,Scarborough,M1M0E1,250.0,43.72748,-79.2318,75.0,25.0,50.0,0.0,88.0,88.0,208.0,175.0,215.0,168.0,145.0,125.0,186.0,182.0,198.0,158.0,50.0,42.0
Toronto DSB,Pub Dist Sch Brd (E/F),H J Alexander Community School,Public,Not applicable,Elementary,English,JK-5,York,M9N1K9,540.0,43.70231,-79.5202,173.0,70.0,81.0,0.0,265.0,92.0,406.0,459.0,437.0,437.0,307.0,313.0,N/A,N/A,N/A,N/A,N/A,N/A
Toronto DSB,Pub Dist Sch Brd (E/F),Harrison Public School,Public,Not applicable,Elementary,English,JK-5,North York,M2L1V9,160.0,43.75725,-79.3775,72.0,24.0,16.0,0.0,24.0,128.0,145.0,155.0,145.0,155.0,140.0,155.0,N/A,N/A,N/A,N/A,N/A,N/A
Toronto DSB,Pub Dist Sch Brd (E/F),Harwood Public School,Public,Not applicable,Elementary,English,JK-8,York,M6N3X3,170.0,43.67618,-79.4784,68.0,0.0,34.0,0.0,42.0,42.0,65.0,46.0,71.0,46.0,55.0,46.0,87.0,68.0,115.0,68.0,13.0,12.0
Toronto DSB,Pub Dist Sch Brd (E/F),Hawthorne II Bilingual Alternative Junior School,Public,Not applicable,Elementary,English,JK-6,Toronto,M6G1T3,195.0,43.66825,-79.4223,20.0,0.0,20.0,0.0,20.0,127.0,179.0,152.0,164.0,115.0,158.0,152.0,195.0,148.0,186.0,158.0,104.0,94.0
Toronto DSB,Pub Dist Sch Brd (E/F),Heather Heights Junior Public School,Public,Not applicable,Elementary,English,JK-6,Scarborough,M1G3B5,180.0,43.77515,-79.2151,54.0,18.0,36.0,9.0,54.0,72.0,130.0,121.0,134.0,135.0,88.0,83.0,131.0,157.0,127.0,144.0,79.0,85.0
Toronto DSB,Pub Dist Sch Brd (E/F),Henry Hudson Senior Public School,Public,Not applicable,Elementary,English,7-8,Scarborough,M1G3H4,290.0,43.77773,-79.2145,188.0,0.0,44.0,0.0,102.0,102.0,N/A,N/A,N/A,N/A,N/A,N/A,N/A,N/A,N/A,N/A,N/A,N/A
Toronto DSB,Pub Dist Sch Brd (E/F),Henry Kelsey Senior Public School,Public,Not applicable,Elementary,English,7-8,Scarborough,M1S1K7,300.0,43.79894,-79.2771,240.0,30.0,60.0,30.0,75.0,120.0,N/A,N/A,N/A,N/A,N/A,N/A,N/A,N/A,N/A,N/A,N/A,N/A
Toronto DSB,Pub Dist Sch Brd (E/F),Heritage Park Public School,Public,Not applicable,Elementary,English,JK-8,Scarborough,M1B5J2,330.0,43.82134,-79.2077,148.0,0.0,33.0,0.0,50.0,66.0,274.0,271.0,282.0,271.0,225.0,234.0,305.0,290.0,305.0,290.0,198.0,182.0
Toronto DSB,Pub Dist Sch Brd (E/F),High Park Alternative School Junior,Public,Not applicable,Elementary,English,JK-8,Toronto,M6P1R3,155.0,43.66142,-79.4728,8.0,0.0,8.0,0.0,16.0,101.0,132.0,141.0,98.0,85.0,108.0,113.0,N/A,155.0,N/A,155.0,N/A,93.0
Toronto DSB,Pub Dist Sch Brd (E/F),Highcastle Public School,Public,Not applicable,Elementary,English,JK-8,Scarborough,M1E4E6,330.0,43.78675,-79.2125,115.0,16.0,66.0,0.0,66.0,132.0,239.0,234.0,246.0,221.0,176.0,172.0,269.0,218.0,268.0,257.0,149.0,165.0
Toronto DSB,Pub Dist Sch Brd (E/F),Highfield Junior School,Public,Not applicable,Elementary,English,JK-5,Etobicoke,M9V2C9,670.0,43.7456,-79.5894,482.0,100.0,67.0,20.0,255.0,248.0,538.0,576.0,547.0,596.0,491.0,516.0,N/A,N/A,N/A,N/A,N/A,N/A
Toronto DSB,Pub Dist Sch Brd (E/F),Highland Creek Public School,Public,Not applicable,Elementary,English,JK-8,West Hill,M1C1A8,175.0,43.78349,-79.1784,70.0,0.0,18.0,0.0,44.0,70.0,130.0,138.0,118.0,112.0,104.0,88.0,149.0,142.0,161.0,142.0,96.0,108.0
Toronto DSB,Pub Dist Sch Brd (E/F),Highland Heights Junior Public School,Public,Not applicable,Elementary,English,JK-6,Scarborough,M1T2Z3,180.0,43.79441,-79.3003,108.0,18.0,36.0,0.0,81.0,63.0,118.0,113.0,124.0,113.0,83.0,76.0,108.0,103.0,104.0,94.0,53.0,47.0
Toronto DSB,Pub Dist Sch Brd (E/F),Highland Middle School,Public,Junior High School,Elementary,English,6-8,North York,M2H3B5,405.0,43.80685,-79.3554,284.0,40.0,40.0,0.0,101.0,324.0,N/A,N/A,N/A,N/A,N/A,N/A,374.0,381.0,381.0,389.0,336.0,336.0
Toronto DSB,Pub Dist Sch Brd (E/F),Highview Public School,Public,Not applicable,Elementary,English,JK-5,North York,M3M1C4,185.0,43.72194,-79.4972,74.0,18.0,28.0,0.0,74.0,46.0,83.0,85.0,114.0,115.0,79.0,85.0,N/A,N/A,N/A,N/A,N/A,N/A
Toronto DSB,Pub Dist Sch Brd (E/F),Hillcrest Community School,Public,Not applicable,Elementary,English,JK-6,Toronto,M5R3E6,380.0,43.67904,-79.4158,38.0,38.0,38.0,0.0,38.0,304.0,337.0,327.0,349.0,304.0,315.0,277.0,324.0,350.0,341.0,361.0,214.0,167.0
Toronto DSB,Pub Dist Sch Brd (E/F),Hillmount Public School,Public,Not applicable,Elementary,English,JK-5,Toronto,M2H2C6,230.0,43.7994,-79.3507,196.0,46.0,23.0,0.0,46.0,172.0,230.0,230.0,230.0,223.0,214.0,216.0,N/A,N/A,N/A,N/A,N/A,N/A
Toronto DSB,Pub Dist Sch Brd (E/F),Hilltop Middle School,Public,Not applicable,Elementary,English,6-8,Etobicoke,M9P1N8,560.0,43.68908,-79.533,162.0,17.0,129.0,11.0,168.0,246.0,N/A,N/A,N/A,N/A,N/A,N/A,408.0,420.0,405.0,437.0,211.0,207.0
Toronto DSB,Pub Dist Sch Brd (E/F),Hodgson Middle School,Public,Not applicable,Elementary,English,6-8,Toronto,M4S1H2,535.0,43.70115,-79.3849,128.0,54.0,75.0,11.0,80.0,455.0,N/A,N/A,N/A,N/A,N/A,N/A,N/A,471.0,N/A,455.0,N/A,310.0
Toronto DSB,Pub Dist Sch Brd (E/F),Hollycrest Middle School,Public,Not applicable,Elementary,English,4-8,Etobicoke,M9C2N6,475.0,43.6561,-79.5827,95.0,24.0,95.0,24.0,71.0,261.0,N/A,N/A,N/A,N/A,N/A,N/A,375.0,356.0,394.0,390.0,247.0,242.0
Toronto DSB,Pub Dist Sch Brd (E/F),Hollywood Public School,Public,Not applicable,Elementary,English,JK-6,North York,M2N3L4,440.0,43.77051,-79.3918,176.0,88.0,0.0,0.0,66.0,374.0,430.0,400.0,440.0,400.0,440.0,387.0,N/A,N/A,N/A,N/A,N/A,N/A
Toronto DSB,Pub Dist Sch Brd (E/F),Horizon Alternative Senior School,Public,Not applicable,Elementary,English,7-8,Toronto,M5T1S9,70.0,43.65795,-79.422,0.0,0.0,7.0,7.0,7.0,56.0,N/A,N/A,N/A,N/A,N/A,N/A,N/A,N/A,N/A,N/A,N/A,N/A
Toronto DSB,Pub Dist Sch Brd (E/F),Howard Junior Public School,Public,Not applicable,Elementary,English,JK-6,Toronto,M6R1T2,510.0,43.65039,-79.4526,61.0,10.0,46.0,10.0,51.0,418.0,396.0,352.0,374.0,352.0,402.0,362.0,479.0,479.0,470.0,479.0,355.0,362.0
Toronto DSB,Pub Dist Sch Brd (E/F),Humber Summit Middle School,Public,Not applicable,Elementary,English,6-8,North York,M9L2G9,455.0,43.75056,-79.5645,318.0,46.0,91.0,0.0,182.0,136.0,N/A,N/A,N/A,N/A,N/A,N/A,345.0,328.0,377.0,369.0,192.0,196.0
Toronto DSB,Pub Dist Sch Brd (E/F),Humber Valley Village Junior Middle School,Public,Not applicable,Elementary,English,JK-8,Etobicoke,M9A3E1,405.0,43.66556,-79.5263,101.0,20.0,40.0,0.0,61.0,263.0,321.0,356.0,335.0,332.0,291.0,300.0,375.0,397.0,389.0,397.0,341.0,324.0
Toronto DSB,Pub Dist Sch Brd (E/F),Humbercrest Public School,Public,Not applicable,Elementary,English,JK-8,York,M6S2H7,675.0,43.66045,-79.4911,40.0,7.0,74.0,14.0,68.0,574.0,490.0,554.0,399.0,371.0,476.0,500.0,634.0,634.0,610.0,634.0,424.0,284.0
Toronto DSB,Pub Dist Sch Brd (E/F),Humberwood Downs Junior Middle Academy,Public,Not applicable,Elementary,English,JK-8,Etobicoke,M9W7A6,790.0,43.72886,-79.6191,427.0,63.0,95.0,0.0,166.0,284.0,615.0,664.0,656.0,695.0,555.0,577.0,698.0,719.0,706.0,727.0,545.0,561.0
Toronto DSB,Pub Dist Sch Brd (E/F),Humewood Community School,Public,Not applicable,Elementary,English,JK-8,York,M6C2X4,610.0,43.68663,-79.428,67.0,18.0,73.0,6.0,67.0,421.0,430.0,348.0,519.0,348.0,423.0,372.0,554.0,598.0,572.0,555.0,281.0,354.0
Toronto DSB,Pub Dist Sch Brd (E/F),Hunter's Glen Junior Public School,Public,Not applicable,Elementary,English,JK-6,Scarborough,M1K4X5,420.0,43.74569,-79.2602,273.0,42.0,84.0,0.0,126.0,147.0,350.0,378.0,337.0,357.0,298.0,298.0,380.0,395.0,373.0,399.0,290.0,307.0
Toronto DSB,Pub Dist Sch Brd (E/F),Huron Street Junior Public School,Public,Not applicable,Elementary,English,JK-6,Toronto,M5R2R6,350.0,43.67049,-79.4024,70.0,35.0,52.0,0.0,70.0,210.0,315.0,290.0,307.0,270.0,246.0,234.0,299.0,266.0,287.0,287.0,217.0,206.0
Toronto DSB,Pub Dist Sch Brd (E/F),Indian Road Crescent Junior Public School,Public,Not applicable,Elementary,English,JK-6,Toronto,M6P2G8,320.0,43.66252,-79.4601,32.0,0.0,64.0,0.0,48.0,224.0,259.0,288.0,237.0,246.0,203.0,234.0,254.0,282.0,214.0,272.0,158.0,202.0
Toronto DSB,Pub Dist Sch Brd (E/F),Inglewood Heights Junior Public School,Public,Not applicable,Elementary,English,JK-6,Scarborough,M1T2T6,250.0,43.7794,-79.2923,175.0,50.0,50.0,0.0,62.0,112.0,182.0,140.0,195.0,185.0,128.0,120.0,188.0,180.0,173.0,190.0,108.0,112.0
Toronto DSB,Pub Dist Sch Brd (E/F),Ionview Public School,Public,Not applicable,Elementary,English,JK-8,Scarborough,M1K2Z9,405.0,43.73737,-79.2743,263.0,61.0,81.0,0.0,122.0,162.0,325.0,348.0,326.0,300.0,277.0,255.0,256.0,292.0,287.0,304.0,154.0,134.0
Toronto DSB,Pub Dist Sch Brd (E/F),Iroquois Junior Public School,Public,Not applicable,Elementary,English,JK-6,Scarborough,M1S2S6,325.0,43.80267,-79.2694,227.0,16.0,32.0,98.0,65.0,98.0,214.0,208.0,231.0,240.0,218.0,218.0,289.0,306.0,297.0,306.0,235.0,254.0
Toronto DSB,Pub Dist Sch Brd (E/F),Island Public/Natural Science School,Public,Not applicable,Elementary,English,JK-6,Toronto,M5J2E9,275.0,43.61574,-79.3782,41.0,28.0,14.0,0.0,55.0,248.0,275.0,267.0,219.0,239.0,230.0,212.0,239.0,261.0,239.0,261.0,117.0,160.0
Toronto DSB,Pub Dist Sch Brd (E/F),Islington Junior Middle School,Public,Not applicable,Elementary,English,JK-8,Etobicoke,M9A2H5,505.0,43.64748,-79.5279,328.0,116.0,40.0,0.0,187.0,232.0,414.0,414.0,405.0,449.0,357.0,364.0,382.0,424.0,391.0,465.0,281.0,278.0
Toronto DSB,Pub Dist Sch Brd (E/F),J B Tyrrell Senior Public School,Public,Not applicable,Elementary,English,7-8,Scarborough,M1W1B3,415.0,43.78887,-79.3242,228.0,0.0,83.0,83.0,124.0,228.0,N/A,N/A,N/A,N/A,N/A,N/A,N/A,N/A,N/A,N/A,N/A,N/A
Toronto DSB,Pub Dist Sch Brd (E/F),J G Workman Public School,Public,Not applicable,Elementary,English,JK-8,Toronto,M1K1N7,190.0,43.70718,-79.2671,114.0,28.0,28.0,0.0,57.0,57.0,105.0,142.0,111.0,133.0,92.0,124.0,136.0,141.0,152.0,169.0,56.0,49.0
Toronto DSB,Pub Dist Sch Brd (E/F),J R Wilcox Community School,Public,Not applicable,Elementary,English,JK-8,York,M6C1X3,310.0,43.69494,-79.4363,62.0,31.0,62.0,0.0,62.0,155.0,257.0,257.0,268.0,257.0,174.0,226.0,221.0,267.0,227.0,254.0,76.0,84.0
Toronto DSB,Pub Dist Sch Brd (E/F),Jack Miner Senior Public School,Public,Not applicable,Elementary,English,7-8,Scarborough,M1E1R3,195.0,43.74968,-79.187,39.0,0.0,29.0,49.0,29.0,107.0,N/A,N/A,N/A,N/A,N/A,N/A,N/A,N/A,N/A,N/A,N/A,N/A
Toronto DSB,Pub Dist Sch Brd (E/F),Jackman Avenue Junior Public School,Public,Not applicable,Elementary,English,JK-6,Toronto,M4K2X5,680.0,43.68064,-79.3539,54.0,27.0,48.0,14.0,41.0,564.0,598.0,490.0,585.0,544.0,590.0,537.0,666.0,653.0,680.0,639.0,489.0,469.0
Toronto DSB,Pub Dist Sch Brd (E/F),James S Bell Junior Middle School,Public,Not applicable,Elementary,English,JK-8,Etobicoke,M8W3E9,440.0,43.5939,-79.5301,88.0,44.0,44.0,0.0,88.0,220.0,359.0,352.0,395.0,304.0,273.0,251.0,354.0,414.0,355.0,405.0,229.0,220.0
Toronto DSB,Pub Dist Sch Brd (E/F),Jesse Ketchum Junior and Senior Public School,Public,Not applicable,Elementary,English,JK-8,Toronto,M5R1H4,510.0,43.67298,-79.3921,240.0,138.0,66.0,0.0,194.0,372.0,401.0,357.0,427.0,286.0,302.0,245.0,425.0,306.0,408.0,306.0,166.0,153.0
Toronto DSB,Pub Dist Sch Brd (E/F),John A Leslie Public School,Public,Not applicable,Elementary,English,JK-8,Scarborough,M1N4A7,525.0,43.71417,-79.249,242.0,47.0,63.0,0.0,158.0,242.0,372.0,331.0,360.0,320.0,151.0,116.0,437.0,415.0,424.0,441.0,289.0,231.0
Toronto DSB,Pub Dist Sch Brd (E/F),John Buchan Senior Public School,Public,Not applicable,Elementary,English,7-8,Scarborough,M1T2M5,185.0,43.78603,-79.3018,111.0,37.0,46.0,0.0,74.0,65.0,N/A,N/A,N/A,N/A,N/A,N/A,N/A,N/A,N/A,N/A,N/A,N/A
Toronto DSB,Pub Dist Sch Brd (E/F),John D Parker Junior School,Public,Not applicable,Elementary,English,JK-5,Etobicoke,M9V3Z5,455.0,43.75342,-79.5964,250.0,46.0,46.0,0.0,136.0,136.0,450.0,455.0,450.0,455.0,433.0,455.0,N/A,N/A,N/A,N/A,N/A,N/A
Toronto DSB,Pub Dist Sch Brd (E/F),John English Junior Middle School,Public,Not applicable,Elementary,English,JK-8,Toronto,M8V1R4,875.0,43.61185,-79.4944,158.0,44.0,105.0,18.0,149.0,499.0,563.0,586.0,617.0,438.0,625.0,700.0,811.0,770.0,803.0,779.0,531.0,499.0
Toronto DSB,Pub Dist Sch Brd (E/F),John Fisher Junior Public School,Public,Not applicable,Elementary,English,JK-6,Toronto,M4P1Y2,415.0,43.71192,-79.3975,104.0,0.0,21.0,21.0,42.0,353.0,N/A,N/A,N/A,N/A,340.0,299.0,395.0,407.0,379.0,398.0,342.0,274.0
Toronto DSB,Pub Dist Sch Brd (E/F),John G Althouse Middle School,Public,Not applicable,Elementary,English,6-8,Etobicoke,M9B5K1,480.0,43.66835,-79.5542,96.0,24.0,48.0,192.0,72.0,336.0,N/A,N/A,N/A,N/A,N/A,N/A,436.0,432.0,423.0,427.0,312.0,312.0
Toronto DSB,Pub Dist Sch Brd (E/F),John G Diefenbaker Public School,Public,Not applicable,Elementary,English,JK-8,Scarborough,M1B2X3,240.0,43.80229,-79.1719,84.0,24.0,36.0,0.0,48.0,60.0,184.0,182.0,210.0,233.0,158.0,166.0,152.0,158.0,216.0,166.0,115.0,120.0
Toronto DSB,Pub Dist Sch Brd (E/F),John McCrae Public School,Public,Not applicable,Elementary,English,JK-8,Scarborough,M1J1J1,610.0,43.74396,-79.2399,238.0,67.0,110.0,0.0,244.0,201.0,397.0,500.0,390.0,433.0,324.0,360.0,400.0,384.0,441.0,445.0,180.0,189.0
Toronto DSB,Pub Dist Sch Brd (E/F),John Ross Robertson Junior Public School,Public,Not applicable,Elementary,English,JK-6,Toronto,M4R1P2,555.0,43.71832,-79.4089,117.0,67.0,61.0,11.0,39.0,488.0,555.0,538.0,521.0,516.0,536.0,472.0,549.0,516.0,549.0,544.0,492.0,477.0
Toronto DSB,Pub Dist Sch Brd (E/F),John Wanless Junior Public School,Public,Not applicable,Elementary,English,JK-6,Toronto,M5M1T2,690.0,43.7288,-79.4122,62.0,55.0,69.0,7.0,28.0,614.0,656.0,676.0,630.0,662.0,616.0,628.0,620.0,614.0,634.0,628.0,536.0,552.0
Toronto DSB,Pub Dist Sch Brd (E/F),Joseph Brant Senior Public School,Public,Not applicable,Elementary,English,JK-8,Scarborough,M1E3V4,620.0,43.76696,-79.1757,198.0,56.0,143.0,0.0,217.0,248.0,310.0,248.0,303.0,236.0,220.0,180.0,425.0,391.0,398.0,422.0,218.0,229.0
Toronto DSB,Pub Dist Sch Brd (E/F),Joseph Howe Senior Public School,Public,Not applicable,Elementary,English,7-8,Scarborough,M1C3E7,395.0,43.7858,-79.1373,79.0,0.0,40.0,20.0,40.0,257.0,N/A,N/A,N/A,N/A,N/A,N/A,N/A,N/A,N/A,N/A,N/A,N/A
Toronto DSB,Pub Dist Sch Brd (E/F),Joyce Public School,Public,Not applicable,Elementary,English,JK-6,North York,M6B2S9,255.0,43.71083,-79.4643,128.0,13.0,38.0,0.0,64.0,76.0,228.0,230.0,241.0,217.0,176.0,153.0,217.0,247.0,226.0,255.0,129.0,148.0
Toronto DSB,Pub Dist Sch Brd (E/F),Kapapamahchakwew - Wandering Spirit Scho Junior Senior,Public,Not applicable,Elementary,English,JK-8,Toronto,M4J3T2,175.0,43.67908,-79.337,9.0,0.0,52.0,0.0,52.0,70.0,0.0,0.0,0.0,0.0,0.0,0.0,130.0,100.0,67.0,51.0,16.0,12.0
Toronto DSB,Pub Dist Sch Brd (E/F),Karen Kain School of the Arts,Public,Not applicable,Elementary,English,6-8,Etobicoke,M8Y3C7,175.0,43.63122,-79.5002,9.0,0.0,18.0,18.0,26.0,122.0,N/A,N/A,N/A,N/A,N/A,N/A,172.0,175.0,170.0,175.0,141.0,145.0
Toronto DSB,Pub Dist Sch Brd (E/F),Keele Street Public School,Public,Not applicable,Elementary,English,JK-8,Toronto,M6P2L5,580.0,43.6575,-79.4616,273.0,110.0,52.0,6.0,122.0,418.0,487.0,487.0,398.0,394.0,452.0,447.0,492.0,458.0,481.0,505.0,396.0,400.0
Toronto DSB,Pub Dist Sch Brd (E/F),Keelesdale Junior Public School,Public,Not applicable,Elementary,English,JK-6,York,M6M4G9,140.0,43.68695,-79.4769,28.0,7.0,28.0,0.0,49.0,28.0,49.0,41.0,75.0,81.0,26.0,24.0,N/A,105.0,94.0,116.0,N/A,46.0
Toronto DSB,Pub Dist Sch Brd (E/F),Kennedy Public School,Public,Not applicable,Elementary,English,JK-8,Scarborough,M1V2Y6,620.0,43.81883,-79.3082,533.0,62.0,50.0,0.0,124.0,105.0,543.0,527.0,561.0,527.0,531.0,515.0,517.0,620.0,569.0,620.0,520.0,577.0
Toronto DSB,Pub Dist Sch Brd (E/F),Kensington Community School School Junior,Public,Not applicable,Elementary,English,JK-6,Toronto,M5T1S9,150.0,43.65639,-79.4057,68.0,22.0,30.0,0.0,30.0,68.0,89.0,93.0,85.0,75.0,78.0,81.0,128.0,123.0,137.0,114.0,97.0,98.0
Toronto DSB,Pub Dist Sch Brd (E/F),Kew Beach Junior Public School,Public,Not applicable,Elementary,English,JK-6,Toronto,M4L3R3,505.0,43.66846,-79.3027,35.0,20.0,50.0,5.0,40.0,444.0,453.0,444.0,379.0,379.0,374.0,404.0,465.0,470.0,466.0,480.0,356.0,303.0
Toronto DSB,Pub Dist Sch Brd (E/F),Kimberley Junior Public School,Public,Not applicable,Elementary,English,JK-6,Toronto,M4E2Z5,275.0,43.68261,-79.2991,28.0,28.0,41.0,0.0,55.0,206.0,239.0,270.0,221.0,256.0,186.0,220.0,234.0,206.0,218.0,214.0,122.0,138.0
Toronto DSB,Pub Dist Sch Brd (E/F),King Edward Junior and Senior Public School,Public,Not applicable,Elementary,English,JK-8,Toronto,M5S2P1,570.0,43.65824,-79.4074,148.0,28.0,74.0,86.0,108.0,342.0,412.0,490.0,380.0,285.0,343.0,285.0,529.0,524.0,529.0,524.0,352.0,331.0
Toronto DSB,Pub Dist Sch Brd (E/F),King George Junior Public School,Public,Not applicable,Elementary,English,JK-6,York,M6S2M2,225.0,43.66316,-79.4869,22.0,11.0,11.0,0.0,11.0,191.0,185.0,209.0,177.0,200.0,161.0,184.0,208.0,202.0,196.0,214.0,128.0,169.0
Toronto DSB,Pub Dist Sch Brd (E/F),Kingslake Public School,Public,Not applicable,Elementary,English,JK-5,North York,M2J3E8,240.0,43.78478,-79.3456,168.0,72.0,24.0,0.0,108.0,120.0,198.0,170.0,188.0,156.0,147.0,156.0,N/A,N/A,N/A,N/A,N/A,N/A
Toronto DSB,Pub Dist Sch Brd (E/F),Kingsview Village Junior School,Public,Not applicable,Elementary,English,JK-5,Etobicoke,M9R3C8,505.0,43.69786,-79.5508,323.0,66.0,76.0,0.0,252.0,116.0,324.0,298.0,312.0,318.0,221.0,197.0,N/A,N/A,N/A,N/A,N/A,N/A
Toronto DSB,Pub Dist Sch Brd (E/F),Knob Hill Public School,Public,Not applicable,Elementary,English,JK-8,Scarborough,M1J1M8,520.0,43.74529,-79.2498,276.0,88.0,109.0,0.0,177.0,213.0,352.0,218.0,344.0,234.0,225.0,135.0,316.0,307.0,312.0,296.0,204.0,224.0
Toronto DSB,Pub Dist Sch Brd (E/F),Lamberton Public School,Public,Not applicable,Elementary,English,JK-5,North York,M3J1G6,365.0,43.75365,-79.5028,201.0,91.0,36.0,0.0,146.0,146.0,288.0,299.0,277.0,299.0,249.0,219.0,N/A,N/A,N/A,N/A,N/A,N/A
Toronto DSB,Pub Dist Sch Brd (E/F),Lambton Kingsway Junior Middle School,Public,Not applicable,Elementary,English,JK-8,Etobicoke,M8X2M6,665.0,43.65865,-79.5093,60.0,20.0,53.0,13.0,27.0,592.0,645.0,632.0,644.0,618.0,609.0,579.0,632.0,645.0,632.0,645.0,477.0,539.0
Toronto DSB,Pub Dist Sch Brd (E/F),Lambton Park Community School,Public,Not applicable,Elementary,English,JK-6,York,M6N1W9,140.0,43.66757,-79.4983,49.0,14.0,35.0,0.0,56.0,42.0,59.0,57.0,49.0,41.0,41.0,41.0,87.0,87.0,94.0,87.0,13.0,11.0
Toronto DSB,Pub Dist Sch Brd (E/F),Lanor Junior Middle School,Public,Not applicable,Elementary,English,JK-8,Etobicoke,M8W2S1,295.0,43.60945,-79.545,59.0,15.0,44.0,44.0,44.0,148.0,180.0,148.0,215.0,230.0,163.0,165.0,261.0,248.0,241.0,277.0,117.0,112.0
Toronto DSB,Pub Dist Sch Brd (E/F),Lawrence Heights Middle School,Public,Not applicable,Elementary,English,6-8,North York,M6A2R1,145.0,43.72083,-79.4511,44.0,7.0,72.0,0.0,58.0,29.0,N/A,N/A,N/A,N/A,N/A,N/A,71.0,70.0,105.0,91.0,31.0,22.0
Toronto DSB,Pub Dist Sch Brd (E/F),Ledbury Park Elementary and Middle School,Public,Not applicable,Elementary,English,JK-8,North York,M5M4K1,560.0,43.72772,-79.427,95.0,50.0,45.0,6.0,56.0,437.0,457.0,420.0,460.0,442.0,446.0,442.0,435.0,448.0,416.0,437.0,267.0,246.0
Toronto DSB,Pub Dist Sch Brd (E/F),Lescon Public School,Public,Not applicable,Elementary,English,JK-5,North York,M2J2G6,240.0,43.78079,-79.3577,108.0,72.0,24.0,0.0,72.0,144.0,185.0,211.0,190.0,211.0,165.0,187.0,N/A,N/A,N/A,N/A,N/A,N/A
Toronto DSB,Pub Dist Sch Brd (E/F),Leslieville Junior Public School,Public,Not applicable,Elementary,English,JK-6,Toronto,M4M3C9,350.0,43.66731,-79.3324,105.0,0.0,70.0,18.0,70.0,228.0,263.0,284.0,203.0,199.0,209.0,199.0,225.0,241.0,225.0,252.0,141.0,164.0
Toronto DSB,Pub Dist Sch Brd (E/F),Lester B Pearson Elementary School,Public,Not applicable,Elementary,English,K-8,Toronto,M2K2K5,525.0,43.79233,-79.3873,231.0,16.0,47.0,10.0,152.0,420.0,N/A,N/A,N/A,N/A,458.0,472.0,504.0,504.0,447.0,514.0,342.0,373.0
Toronto DSB,Pub Dist Sch Brd (E/F),Lillian Public School,Public,Not applicable,Elementary,English,JK-5,North York,M2M3G1,265.0,43.79781,-79.4104,186.0,66.0,13.0,0.0,80.0,212.0,203.0,175.0,169.0,183.0,177.0,156.0,N/A,N/A,N/A,N/A,N/A,N/A
Toronto DSB,Pub Dist Sch Brd (E/F),Lord Dufferin Junior and Senior Public School,Public,Not applicable,Elementary,English,JK-8,Toronto,M5A2Z7,435.0,43.66082,-79.3673,261.0,44.0,65.0,0.0,261.0,130.0,287.0,339.0,326.0,352.0,164.0,148.0,319.0,313.0,342.0,339.0,190.0,209.0
Toronto DSB,Pub Dist Sch Brd (E/F),Lord Lansdowne Junior Public School,Public,Not applicable,Elementary,English,K-6,Toronto,M5S2K2,295.0,43.65895,-79.4019,44.0,15.0,30.0,15.0,74.0,162.0,N/A,N/A,N/A,N/A,266.0,239.0,N/A,263.0,N/A,274.0,N/A,209.0
Toronto DSB,Pub Dist Sch Brd (E/F),Lord Roberts Junior Public School,Public,Not applicable,Elementary,English,JK-6,Scarborough,M1K3W5,415.0,43.74142,-79.2637,290.0,83.0,42.0,0.0,83.0,166.0,378.0,344.0,348.0,324.0,318.0,315.0,343.0,295.0,343.0,336.0,272.0,220.0
Toronto DSB,Pub Dist Sch Brd (E/F),Lucy Maud Montgomery Public School,Public,Not applicable,Elementary,English,JK-8,Scarborough,M1B2L6,195.0,43.79691,-79.2094,39.0,10.0,58.0,0.0,39.0,58.0,105.0,103.0,100.0,82.0,91.0,51.0,N/A,103.0,N/A,103.0,N/A,39.0
Toronto DSB,Pub Dist Sch Brd (E/F),Lucy McCormick Senior School,Public,Not applicable,Elementary,English,1-8,Toronto,M6P1Y1,75.0,43.66463,-79.4602,30.0,0.0,75.0,0.0,22.0,38.0,N/A,N/A,N/A,N/A,N/A,N/A,N/A,N/A,N/A,N/A,N/A,N/A
Toronto DSB,Pub Dist Sch Brd (E/F),Lynngate Junior Public School,Public,Not applicable,Elementary,English,JK-6,Scarborough,M1T2B5,180.0,43.77664,-79.3006,90.0,27.0,27.0,0.0,45.0,90.0,96.0,72.0,87.0,81.0,96.0,99.0,117.0,121.0,126.0,121.0,54.0,50.0
Toronto DSB,Pub Dist Sch Brd (E/F),Lynnwood Heights Junior Public School,Public,Not applicable,Elementary,English,JK-6,Toronto,M1S1J1,175.0,43.79659,-79.2913,131.0,18.0,35.0,0.0,52.0,88.0,122.0,100.0,110.0,75.0,104.0,114.0,154.0,122.0,156.0,131.0,114.0,88.0
Toronto DSB,Pub Dist Sch Brd (E/F),Macklin Public School,Public,Not applicable,Elementary,English,JK-8,Scarborough,M1V2Y4,510.0,43.82169,-79.2674,423.0,56.0,61.0,0.0,158.0,158.0,382.0,382.0,424.0,454.0,379.0,398.0,433.0,398.0,464.0,408.0,326.0,280.0
Toronto DSB,Pub Dist Sch Brd (E/F),Malvern Junior Public School,Public,Not applicable,Elementary,English,JK-6,Toronto,M1B1P6,405.0,43.79783,-79.2332,243.0,61.0,40.0,0.0,162.0,202.0,251.0,223.0,216.0,190.0,150.0,117.0,311.0,308.0,295.0,316.0,213.0,219.0
Toronto DSB,Pub Dist Sch Brd (E/F),Manhattan Park Junior Public School,Public,Not applicable,Elementary,English,JK-6,Scarborough,M1R3V8,115.0,43.75335,-79.2953,58.0,12.0,17.0,0.0,34.0,29.0,N/A,N/A,N/A,N/A,N/A,N/A,103.0,92.0,82.0,80.0,79.0,92.0
Toronto DSB,Pub Dist Sch Brd (E/F),Maple Leaf Public School,Public,Not applicable,Elementary,English,JK-8,North York,M6L2V4,255.0,43.71484,-79.4903,102.0,13.0,51.0,0.0,153.0,38.0,159.0,212.0,181.0,235.0,130.0,148.0,172.0,207.0,181.0,217.0,20.0,18.0
Toronto DSB,Pub Dist Sch Brd (E/F),Market Lane Junior and Senior Public School,Public,Not applicable,Elementary,English,JK-8,Toronto,M5A4J6,315.0,43.64984,-79.3647,94.0,32.0,47.0,0.0,126.0,173.0,181.0,176.0,148.0,148.0,153.0,148.0,300.0,243.0,271.0,268.0,170.0,170.0
Toronto DSB,Pub Dist Sch Brd (E/F),Mary Shadd Public School,Public,Not applicable,Elementary,English,JK-8,Scarborough,M1B4R6,440.0,43.81439,-79.2183,286.0,44.0,66.0,0.0,132.0,132.0,375.0,356.0,351.0,383.0,298.0,286.0,391.0,418.0,377.0,418.0,232.0,251.0
Toronto DSB,Pub Dist Sch Brd (E/F),Maryvale Public School,Public,Not applicable,Elementary,English,JK-8,Scarborough,M1R2J1,270.0,43.75478,-79.3079,94.0,27.0,54.0,0.0,94.0,135.0,181.0,224.0,207.0,224.0,146.0,167.0,199.0,167.0,187.0,213.0,91.0,89.0
Toronto DSB,Pub Dist Sch Brd (E/F),Mason Road Junior Public School,Public,Not applicable,Elementary,English,JK-6,Scarborough,M1M3R2,355.0,43.73914,-79.2256,160.0,53.0,71.0,0.0,178.0,106.0,214.0,231.0,186.0,188.0,154.0,146.0,235.0,256.0,242.0,256.0,162.0,146.0
Toronto DSB,Pub Dist Sch Brd (E/F),Maurice Cody Junior Public School,Public,Not applicable,Elementary,English,JK-5,Toronto,M4S1N2,665.0,43.7048,-79.3778,53.0,33.0,40.0,0.0,27.0,592.0,624.0,605.0,585.0,585.0,587.0,552.0,N/A,N/A,N/A,N/A,N/A,N/A
Toronto DSB,Pub Dist Sch Brd (E/F),McKee Public School,Public,Not applicable,Elementary,English,JK-5,North York,M2N6X6,775.0,43.7741,-79.411,512.0,256.0,46.0,0.0,294.0,674.0,698.0,705.0,720.0,713.0,687.0,666.0,N/A,N/A,N/A,N/A,N/A,N/A
Toronto DSB,Pub Dist Sch Brd (E/F),McMurrich Junior Public School,Public,Not applicable,Elementary,English,JK-6,Toronto,M6G3S8,545.0,43.67807,-79.4311,60.0,22.0,114.0,71.0,82.0,365.0,395.0,458.0,394.0,343.0,308.0,283.0,460.0,474.0,447.0,474.0,255.0,245.0
Toronto DSB,Pub Dist Sch Brd (E/F),Meadowvale Public School,Public,Not applicable,Elementary,English,JK-8,Scarborough,M1C1T1,255.0,43.7955,-79.1641,102.0,26.0,26.0,0.0,51.0,89.0,211.0,245.0,215.0,224.0,185.0,191.0,148.0,176.0,168.0,176.0,104.0,128.0
Toronto DSB,Pub Dist Sch Brd (E/F),Melody Village Junior School,Public,Not applicable,Elementary,English,JK-5,Etobicoke,M9V3L5,205.0,43.73813,-79.5948,82.0,0.0,20.0,0.0,62.0,62.0,137.0,180.0,121.0,168.0,101.0,133.0,N/A,N/A,N/A,N/A,N/A,N/A
Toronto DSB,Pub Dist Sch Brd (E/F),Military Trail Public School,Public,Not applicable,Elementary,English,JK-8,Scarborough,M1E4P6,465.0,43.78911,-79.1971,232.0,140.0,70.0,0.0,279.0,163.0,271.0,298.0,214.0,205.0,170.0,167.0,319.0,335.0,338.0,358.0,140.0,98.0
Toronto DSB,Pub Dist Sch Brd (E/F),Mill Valley Junior School,Public,Not applicable,Elementary,English,JK-5,Etobicoke,M9C1Y9,165.0,43.64418,-79.587,50.0,8.0,25.0,0.0,33.0,99.0,143.0,137.0,138.0,165.0,105.0,155.0,N/A,N/A,N/A,N/A,N/A,N/A
Toronto DSB,Pub Dist Sch Brd (E/F),Milliken Public School,Public,Not applicable,Elementary,English,JK-8,Scarborough,M1V2T4,295.0,43.81658,-79.2885,266.0,30.0,15.0,0.0,88.0,59.0,255.0,263.0,237.0,263.0,263.0,263.0,236.0,224.0,222.0,233.0,163.0,174.0
Toronto DSB,Pub Dist Sch Brd (E/F),Millwood Junior School,Public,Not applicable,Elementary,English,JK-5,Etobicoke,M9C1Y2,410.0,43.63354,-79.5772,164.0,0.0,62.0,0.0,62.0,266.0,363.0,316.0,385.0,316.0,281.0,160.0,N/A,N/A,N/A,N/A,N/A,N/A
Toronto DSB,Pub Dist Sch Brd (E/F),Milne Valley Middle School,Public,Not applicable,Elementary,English,6-8,North York,M3A2J9,580.0,43.74741,-79.3268,255.0,52.0,122.0,0.0,180.0,313.0,N/A,N/A,N/A,N/A,N/A,N/A,459.0,487.0,442.0,499.0,234.0,255.0
Toronto DSB,Pub Dist Sch Brd (E/F),Montrose Junior Public School,Public,Not applicable,Elementary,English,JK-6,Toronto,M6G3G9,190.0,43.65867,-79.4188,28.0,10.0,19.0,0.0,28.0,133.0,144.0,190.0,145.0,158.0,133.0,142.0,190.0,190.0,190.0,190.0,135.0,135.0
Toronto DSB,Pub Dist Sch Brd (E/F),Morrish Public School,Public,Not applicable,Elementary,English,JK-8,Scarborough,M1C3T7,330.0,43.7933,-79.1792,132.0,33.0,66.0,0.0,82.0,132.0,205.0,228.0,250.0,267.0,192.0,238.0,259.0,277.0,272.0,267.0,191.0,201.0
Toronto DSB,Pub Dist Sch Brd (E/F),Morse Street Junior Public School,Public,Not applicable,Elementary,English,JK-6,Toronto,M4M2R9,530.0,43.66016,-79.3402,21.0,11.0,48.0,5.0,69.0,398.0,387.0,461.0,374.0,408.0,360.0,371.0,446.0,477.0,446.0,477.0,281.0,233.0
Toronto DSB,Pub Dist Sch Brd (E/F),Mountview Alternative School School,Public,Not applicable,Elementary,English,JK-8,Toronto,M6P2L5,95.0,43.6575,-79.4616,0.0,0.0,0.0,0.0,10.0,66.0,N/A,N/A,N/A,N/A,N/A,N/A,N/A,N/A,N/A,N/A,N/A,N/A
Toronto DSB,Pub Dist Sch Brd (E/F),Muirhead Public School,Public,Not applicable,Elementary,English,JK-5,Toronto,M2J3W3,235.0,43.77888,-79.3374,118.0,94.0,47.0,0.0,47.0,164.0,179.0,172.0,177.0,136.0,126.0,106.0,N/A,N/A,N/A,N/A,N/A,N/A
Toronto DSB,Pub Dist Sch Brd (E/F),Nelson Mandela Park Public School,Public,Not applicable,Elementary,English,JK-8,Toronto,M5A1X6,350.0,43.65816,-79.3607,158.0,18.0,105.0,0.0,175.0,140.0,181.0,186.0,152.0,178.0,115.0,122.0,225.0,241.0,180.0,231.0,70.0,80.0
Toronto DSB,Pub Dist Sch Brd (E/F),Niagara Street Junior Public School,Public,Not applicable,Elementary,English,JK-6,Toronto,M6J2L3,250.0,43.64393,-79.4082,38.0,0.0,25.0,0.0,62.0,100.0,212.0,212.0,187.0,185.0,153.0,158.0,209.0,215.0,213.0,190.0,130.0,155.0
Toronto DSB,Pub Dist Sch Brd (E/F),Norman Cook Junior Public School,Public,Not applicable,Elementary,English,JK-6,Scarborough,M1K1G4,140.0,43.71903,-79.2578,63.0,7.0,7.0,0.0,56.0,63.0,89.0,91.0,66.0,67.0,62.0,60.0,95.0,127.0,105.0,140.0,65.0,90.0
Toronto DSB,Pub Dist Sch Brd (E/F),Norman Ingram Public School,Public,Not applicable,Elementary,English,JK-5,North York,M3B1C8,200.0,43.73995,-79.3496,60.0,20.0,30.0,0.0,20.0,140.0,175.0,178.0,167.0,162.0,178.0,166.0,N/A,N/A,N/A,N/A,N/A,N/A
Toronto DSB,Pub Dist Sch Brd (E/F),Norseman Junior Middle School,Public,Not applicable,Elementary,English,JK-8,Etobicoke,M8Z2R1,885.0,43.6343,-79.5163,239.0,53.0,88.0,9.0,71.0,664.0,745.0,752.0,709.0,681.0,654.0,628.0,821.0,805.0,821.0,796.0,646.0,575.0
Toronto DSB,Pub Dist Sch Brd (E/F),North Agincourt Junior Public School,Public,Not applicable,Elementary,English,JK-6,Scarborough,M1S2J3,380.0,43.79645,-79.2761,209.0,19.0,38.0,0.0,95.0,171.0,297.0,255.0,345.0,228.0,289.0,243.0,311.0,323.0,305.0,323.0,273.0,319.0
Toronto DSB,Pub Dist Sch Brd (E/F),North Bendale Junior Public School,Public,Not applicable,Elementary,English,JK-6,Scarborough,M1H2P4,135.0,43.77045,-79.2476,81.0,20.0,14.0,0.0,34.0,54.0,120.0,127.0,125.0,96.0,96.0,96.0,99.0,107.0,112.0,92.0,71.0,57.0
Toronto DSB,Pub Dist Sch Brd (E/F),North Bridlewood Junior Public School,Public,Not applicable,Elementary,English,JK-6,Scarborough,M1W1L7,210.0,43.78891,-79.3186,116.0,32.0,42.0,0.0,63.0,105.0,164.0,162.0,149.0,145.0,144.0,153.0,160.0,174.0,160.0,174.0,108.0,122.0
Toronto DSB,Pub Dist Sch Brd (E/F),North Kipling Junior Middle School,Public,Not applicable,Elementary,English,JK-8,Etobicoke,M9V5C7,630.0,43.75185,-79.5843,202.0,76.0,113.0,32.0,277.0,132.0,378.0,416.0,427.0,491.0,229.0,195.0,497.0,472.0,513.0,472.0,336.0,252.0
Toronto DSB,Pub Dist Sch Brd (E/F),North Preparatory Junior Public School,Public,Not applicable,Elementary,English,JK-6,Toronto,M5N2M6,210.0,43.70569,-79.4202,116.0,74.0,10.0,0.0,52.0,158.0,191.0,134.0,187.0,172.0,164.0,143.0,198.0,210.0,198.0,210.0,134.0,141.0
Toronto DSB,Pub Dist Sch Brd (E/F),Northlea Elementary and Middle School,Public,Not applicable,Elementary,English,JK-8,East York,M4G1R4,775.0,43.71444,-79.3695,116.0,39.0,101.0,16.0,62.0,666.0,628.0,597.0,637.0,535.0,649.0,597.0,751.0,728.0,775.0,744.0,682.0,566.0
Toronto DSB,Pub Dist Sch Brd (E/F),Norway Junior Public School,Public,Not applicable,Elementary,English,JK-6,Toronto,M4L1T9,320.0,43.6765,-79.3063,16.0,0.0,64.0,0.0,48.0,256.0,232.0,246.0,189.0,157.0,182.0,182.0,297.0,291.0,276.0,298.0,261.0,269.0
Toronto DSB,Pub Dist Sch Brd (E/F),O'Connor Public School,Public,Not applicable,Elementary,English,JK-5,North York,M4A1W5,185.0,43.7165,-79.3041,83.0,28.0,18.0,0.0,83.0,92.0,129.0,163.0,101.0,120.0,80.0,87.0,N/A,N/A,N/A,N/A,N/A,N/A
Toronto DSB,Pub Dist Sch Brd (E/F),Oakdale Park Middle School,Public,Not applicable,Elementary,English,6-8,North York,M3N1J5,420.0,43.74746,-79.512,189.0,42.0,126.0,0.0,189.0,63.0,N/A,N/A,N/A,N/A,N/A,N/A,250.0,235.0,262.0,252.0,101.0,88.0
Toronto DSB,Pub Dist Sch Brd (E/F),Oakridge Junior Public School,Public,Not applicable,Elementary,English,JK-4,Toronto,M1L3P1,565.0,43.69536,-79.28154,458.0,124.0,40.0,0.0,311.0,322.0,416.0,441.0,437.0,446.0,320.0,288.0,N/A,N/A,N/A,N/A,N/A,N/A
Toronto DSB,Pub Dist Sch Brd (E/F),Ogden Junior Public School,Public,Not applicable,Elementary,English,JK-6,Toronto,M5T1A8,225.0,43.64986,-79.3954,112.0,45.0,22.0,0.0,79.0,112.0,157.0,151.0,172.0,151.0,136.0,99.0,191.0,212.0,192.0,225.0,132.0,184.0
Toronto DSB,Pub Dist Sch Brd (E/F),Orde Street Public School,Public,Not applicable,Elementary,English,JK-8,Toronto,M5T1N7,455.0,43.65862,-79.3923,228.0,182.0,23.0,0.0,182.0,228.0,401.0,337.0,340.0,323.0,308.0,314.0,371.0,441.0,373.0,455.0,334.0,428.0
Toronto DSB,Pub Dist Sch Brd (E/F),Oriole Park Junior Public School,Public,Not applicable,Elementary,English,JK-6,Toronto,M5P2L4,275.0,43.70257,-79.4097,55.0,28.0,14.0,0.0,28.0,234.0,235.0,270.0,242.0,264.0,228.0,264.0,N/A,N/A,N/A,N/A,N/A,N/A
Toronto DSB,Pub Dist Sch Brd (E/F),Ossington/Old Orchard Junior Public School,Public,Not applicable,Elementary,English,JK-6,Toronto,M6J3A5,310.0,43.6527,-79.4226,0.0,16.0,16.0,0.0,62.0,186.0,291.0,279.0,300.0,264.0,256.0,248.0,298.0,301.0,297.0,291.0,237.0,211.0
Toronto DSB,Pub Dist Sch Brd (E/F),Owen Public School,Public,Not applicable,Elementary,English,JK-5,North York,M2P1G6,530.0,43.74905,-79.3925,238.0,85.0,58.0,0.0,117.0,440.0,431.0,466.0,454.0,477.0,449.0,413.0,N/A,N/A,N/A,N/A,N/A,N/A
Toronto DSB,Pub Dist Sch Brd (E/F),Palmerston Avenue Junior Public School,Public,Not applicable,Elementary,English,JK-6,Toronto,M6G2R4,430.0,43.66904,-79.4153,0.0,22.0,43.0,0.0,43.0,366.0,333.0,430.0,276.0,383.0,321.0,228.0,379.0,421.0,354.0,421.0,314.0,305.0
Toronto DSB,Pub Dist Sch Brd (E/F),Pape Avenue Junior Public School,Public,Not applicable,Elementary,English,JK-6,Toronto,M4K1B9,390.0,43.67045,-79.342,78.0,20.0,39.0,0.0,78.0,273.0,374.0,363.0,381.0,328.0,347.0,281.0,389.0,370.0,378.0,382.0,308.0,308.0
Toronto DSB,Pub Dist Sch Brd (E/F),Park Lane Public School,Public,Not applicable,Elementary,English,JK-8,North York,M3C2N2,65.0,43.72892,-79.3668,32.0,6.0,65.0,0.0,26.0,32.0,N/A,N/A,N/A,N/A,N/A,N/A,N/A,N/A,N/A,N/A,N/A,N/A
Toronto DSB,Pub Dist Sch Brd (E/F),Park Lawn Junior and Middle School,Public,Not applicable,Elementary,English,JK-8,Etobicoke,M8Y4B6,530.0,43.6377,-79.4964,138.0,58.0,90.0,5.0,111.0,398.0,479.0,450.0,474.0,408.0,442.0,398.0,474.0,498.0,482.0,472.0,314.0,254.0
Toronto DSB,Pub Dist Sch Brd (E/F),Parkdale Junior and Senior Public School,Public,Not applicable,Elementary,English,JK-8,Toronto,M6K3L2,520.0,43.64339,-79.4371,218.0,62.0,88.0,0.0,203.0,208.0,252.0,328.0,283.0,328.0,166.0,198.0,327.0,255.0,291.0,224.0,91.0,88.0
Toronto DSB,Pub Dist Sch Brd (E/F),Parkfield Junior School,Public,Not applicable,Elementary,English,JK-5,Etobicoke,M9R3T9,300.0,43.68221,-79.5699,120.0,75.0,45.0,0.0,120.0,120.0,233.0,210.0,219.0,204.0,194.0,138.0,N/A,N/A,N/A,N/A,N/A,N/A
Toronto DSB,Pub Dist Sch Brd (E/F),Parkside Elementary School,Public,Not applicable,Elementary,English,JK-5,East York,M4C4K7,175.0,43.69935,-79.3164,44.0,18.0,35.0,0.0,44.0,105.0,105.0,154.0,101.0,142.0,89.0,108.0,N/A,N/A,N/A,N/A,N/A,N/A
Toronto DSB,Pub Dist Sch Brd (E/F),Pauline Johnson Junior Public School,Public,Not applicable,Elementary,English,JK-6,Scarborough,M1T2K2,310.0,43.78488,-79.3035,170.0,31.0,31.0,0.0,124.0,108.0,207.0,236.0,213.0,260.0,155.0,174.0,225.0,232.0,213.0,245.0,129.0,133.0
Toronto DSB,Pub Dist Sch Brd (E/F),Pauline Junior Public School,Public,Not applicable,Elementary,English,JK-6,Toronto,M6H3M8,265.0,43.66258,-79.4392,146.0,26.0,53.0,0.0,66.0,93.0,208.0,220.0,220.0,244.0,176.0,188.0,224.0,204.0,211.0,215.0,126.0,111.0
Toronto DSB,Pub Dist Sch Brd (E/F),Pelmo Park Public School,Public,Not applicable,Elementary,English,JK-5,North York,M9N2M1,280.0,43.71205,-79.5181,56.0,28.0,56.0,0.0,126.0,56.0,152.0,190.0,137.0,182.0,113.0,143.0,N/A,N/A,N/A,N/A,N/A,N/A
Toronto DSB,Pub Dist Sch Brd (E/F),Percy Williams Junior Public School,Public,Not applicable,Elementary,English,JK-6,Toronto,M1V1P6,340.0,43.81266,-79.2657,255.0,34.0,17.0,0.0,85.0,102.0,291.0,320.0,289.0,306.0,245.0,255.0,330.0,330.0,308.0,320.0,234.0,241.0
Toronto DSB,Pub Dist Sch Brd (E/F),Perth Avenue Junior Public School,Public,Not applicable,Elementary,English,JK-6,Toronto,M6P3P8,420.0,43.66282,-79.4524,84.0,0.0,42.0,0.0,105.0,189.0,283.0,294.0,240.0,218.0,217.0,223.0,420.0,315.0,420.0,315.0,239.0,105.0
Toronto DSB,Pub Dist Sch Brd (E/F),Pierre Laporte Middle School,Public,Not applicable,Elementary,English,6-8,North York,M3M1H5,405.0,43.72507,-79.4921,202.0,81.0,81.0,81.0,142.0,122.0,N/A,N/A,N/A,N/A,N/A,N/A,286.0,300.0,319.0,332.0,167.0,182.0
Toronto DSB,Pub Dist Sch Brd (E/F),Pineway Public School,Public,Not applicable,Elementary,English,JK-6,North York,M2H1A8,140.0,43.79646,-79.3747,56.0,14.0,28.0,0.0,56.0,49.0,139.0,78.0,141.0,62.0,119.0,43.0,N/A,N/A,N/A,N/A,N/A,N/A
Toronto DSB,Pub Dist Sch Brd (E/F),Pleasant Public School,Public,Not applicable,Elementary,English,JK-6,North York,M2R2R1,405.0,43.79008,-79.4341,304.0,81.0,40.0,0.0,122.0,243.0,313.0,332.0,306.0,300.0,258.0,279.0,342.0,356.0,311.0,364.0,221.0,223.0
Toronto DSB,Pub Dist Sch Brd (E/F),Pleasant View Middle School,Public,Junior High School,Elementary,English,6-8,North York,M2J3Y8,345.0,43.78748,-79.3339,207.0,86.0,34.0,0.0,86.0,224.0,N/A,N/A,N/A,N/A,N/A,N/A,N/A,307.0,N/A,307.0,N/A,266.0
Toronto DSB,Pub Dist Sch Brd (E/F),Poplar Road Junior Public School,Public,Not applicable,Elementary,English,JK-6,Scarborough,M1E1S4,225.0,43.75373,-79.1872,45.0,0.0,34.0,0.0,22.0,112.0,173.0,142.0,178.0,166.0,137.0,133.0,211.0,198.0,181.0,205.0,117.0,148.0
Toronto DSB,Pub Dist Sch Brd (E/F),Port Royal Public School,Public,Not applicable,Elementary,English,JK-8,Scarborough,M1V4R1,420.0,43.82463,-79.29,294.0,63.0,21.0,0.0,84.0,84.0,378.0,344.0,330.0,353.0,377.0,328.0,366.0,311.0,395.0,328.0,311.0,218.0
Toronto DSB,Pub Dist Sch Brd (E/F),Portage Trail Community School,Public,Not applicable,Elementary,English,JK-8,North York,M6M5H6,610.0,43.69276,-79.5098,177.0,73.0,140.0,0.0,220.0,159.0,395.0,458.0,392.0,372.0,281.0,323.0,389.0,366.0,396.0,360.0,74.0,67.0
Toronto DSB,Pub Dist Sch Brd (E/F),Presteign Heights Elementary School,Public,Not applicable,Elementary,English,JK-5,Toronto,M4B1M3,210.0,43.70554,-79.3172,52.0,0.0,21.0,0.0,32.0,158.0,162.0,178.0,144.0,187.0,129.0,147.0,N/A,N/A,N/A,N/A,N/A,N/A
Toronto DSB,Pub Dist Sch Brd (E/F),Princess Margaret Junior School,Public,Not applicable,Elementary,English,JK-5,Etobicoke,M9B5Y7,350.0,43.67118,-79.5591,122.0,35.0,52.0,0.0,52.0,210.0,297.0,350.0,292.0,350.0,261.0,308.0,N/A,N/A,N/A,N/A,N/A,N/A
Toronto DSB,Pub Dist Sch Brd (E/F),Queen Alexandra Middle School,Public,Not applicable,Elementary,English,6-8,Toronto,M4M2G3,345.0,43.66153,-79.3499,138.0,0.0,86.0,0.0,104.0,207.0,N/A,N/A,N/A,N/A,N/A,N/A,247.0,269.0,246.0,283.0,132.0,148.0
Toronto DSB,Pub Dist Sch Brd (E/F),Queen Victoria Junior Public School,Public,Not applicable,Elementary,English,JK-8,Toronto,M6K2V3,785.0,43.63657,-79.4351,392.0,94.0,133.0,149.0,275.0,290.0,490.0,510.0,495.0,495.0,310.0,267.0,591.0,597.0,593.0,581.0,301.0,298.0
Toronto DSB,Pub Dist Sch Brd (E/F),Quest Alternative School Senior,Public,Not applicable,Elementary,English,7-8,Toronto,M4K1E5,65.0,43.67045,-79.3521,6.0,0.0,6.0,0.0,13.0,52.0,N/A,N/A,N/A,N/A,N/A,N/A,N/A,N/A,N/A,N/A,N/A,N/A
Toronto DSB,Pub Dist Sch Brd (E/F),R H McGregor Elementary School,Public,Not applicable,Elementary,English,JK-5,East York,M4J2G9,745.0,43.68999,-79.3271,67.0,7.0,89.0,0.0,74.0,566.0,527.0,522.0,551.0,507.0,483.0,425.0,N/A,N/A,N/A,N/A,N/A,N/A
Toronto DSB,Pub Dist Sch Brd (E/F),R J Lang Elementary and Middle School,Public,Not applicable,Elementary,English,JK-8,North York,M2M1E3,465.0,43.78348,-79.4265,279.0,140.0,93.0,0.0,163.0,279.0,292.0,339.0,282.0,288.0,264.0,288.0,271.0,260.0,302.0,293.0,170.0,153.0
Toronto DSB,Pub Dist Sch Brd (E/F),Ranchdale Public School,Public,Not applicable,Elementary,English,JK-5,North York,M3A2M3,230.0,43.75245,-79.3233,104.0,34.0,46.0,0.0,92.0,127.0,139.0,175.0,138.0,166.0,91.0,94.0,N/A,N/A,N/A,N/A,N/A,N/A
Toronto DSB,Pub Dist Sch Brd (E/F),Rawlinson Community School,Public,Not applicable,Elementary,English,JK-8,York,M6E3C7,715.0,43.68382,-79.4399,122.0,29.0,93.0,7.0,143.0,358.0,438.0,429.0,243.0,214.0,413.0,450.0,525.0,551.0,497.0,522.0,241.0,243.0
Toronto DSB,Pub Dist Sch Brd (E/F),Regal Road Junior Public School,Public,Not applicable,Elementary,English,JK-6,Toronto,M6H2J6,580.0,43.67377,-79.4401,122.0,23.0,52.0,0.0,99.0,284.0,327.0,406.0,344.0,365.0,349.0,377.0,528.0,470.0,532.0,452.0,293.0,249.0
Toronto DSB,Pub Dist Sch Brd (E/F),Regent Heights Public School,Public,Not applicable,Elementary,English,JK-8,Scarborough,M1L3H1,555.0,43.70707,-79.2892,422.0,122.0,50.0,0.0,250.0,311.0,467.0,472.0,463.0,472.0,381.0,366.0,491.0,422.0,484.0,450.0,355.0,316.0
Toronto DSB,Pub Dist Sch Brd (E/F),Rene Gordon Health and Wellness Academy,Public,Not applicable,Elementary,English,JK-5,North York,M3A3L6,265.0,43.76192,-79.3401,132.0,53.0,40.0,0.0,106.0,132.0,159.0,178.0,155.0,178.0,118.0,138.0,N/A,N/A,N/A,N/A,N/A,N/A
Toronto DSB,Pub Dist Sch Brd (E/F),Rippleton Public School,Public,Not applicable,Elementary,English,JK-5,North York,M3B1H4,280.0,43.7409,-79.3601,112.0,14.0,28.0,0.0,56.0,196.0,256.0,230.0,256.0,230.0,257.0,244.0,N/A,N/A,N/A,N/A,N/A,N/A
Toronto DSB,Pub Dist Sch Brd (E/F),Rivercrest Junior School,Public,Not applicable,Elementary,English,JK-5,Toronto,M9W4C9,225.0,43.72971,-79.5695,68.0,22.0,56.0,0.0,45.0,90.0,182.0,169.0,119.0,112.0,88.0,72.0,N/A,N/A,N/A,N/A,N/A,N/A
Toronto DSB,Pub Dist Sch Brd (E/F),Robert Service Senior Public School,Public,Not applicable,Elementary,English,7-8,Scarborough,M1K1J2,165.0,43.72902,-79.2512,91.0,16.0,41.0,0.0,66.0,74.0,N/A,N/A,N/A,N/A,N/A,N/A,N/A,N/A,N/A,N/A,N/A,N/A
Toronto DSB,Pub Dist Sch Brd (E/F),Rockcliffe Middle School,Public,Not applicable,Elementary,English,6-8,Toronto,M6N4R8,305.0,43.67421,-79.4893,107.0,15.0,76.0,0.0,107.0,61.0,N/A,N/A,N/A,N/A,N/A,N/A,255.0,189.0,259.0,192.0,77.0,76.0
Toronto DSB,Pub Dist Sch Brd (E/F),Rockford Public School,Public,Not applicable,Elementary,English,JK-6,North York,M2R3A7,725.0,43.78611,-79.4525,450.0,167.0,72.0,0.0,232.0,399.0,539.0,507.0,514.0,493.0,427.0,406.0,461.0,558.0,541.0,638.0,282.0,341.0
Toronto DSB,Pub Dist Sch Brd (E/F),Roden Public School,Public,Not applicable,Elementary,English,JK-8,Toronto,M4L2Y1,455.0,43.67387,-79.3231,114.0,23.0,91.0,0.0,91.0,228.0,258.0,359.0,226.0,291.0,212.0,282.0,360.0,328.0,349.0,314.0,192.0,200.0
Toronto DSB,Pub Dist Sch Brd (E/F),Rolph Road Elementary School,Public,Not applicable,Elementary,English,JK-6,East York,M4G3M5,360.0,43.69982,-79.366,18.0,18.0,36.0,0.0,18.0,342.0,321.0,302.0,271.0,295.0,266.0,274.0,336.0,346.0,330.0,346.0,244.0,281.0
Toronto DSB,Pub Dist Sch Brd (E/F),Rose Avenue Junior Public School,Public,Not applicable,Elementary,English,JK-6,Toronto,M4X1N4,715.0,43.67021,-79.3727,601.0,214.0,86.0,0.0,365.0,379.0,560.0,493.0,524.0,472.0,371.0,286.0,533.0,522.0,506.0,536.0,296.0,329.0
Toronto DSB,Pub Dist Sch Brd (E/F),Rosedale Junior Public School,Public,Not applicable,Elementary,English,JK-6,Toronto,M4W1R1,250.0,43.67765,-79.3817,50.0,38.0,25.0,0.0,38.0,188.0,250.0,250.0,242.0,242.0,249.0,222.0,238.0,240.0,238.0,250.0,188.0,240.0
Toronto DSB,Pub Dist Sch Brd (E/F),Roselands Junior Public School,Public,Not applicable,Elementary,English,JK-6,York,M6N4E2,320.0,43.68122,-79.4991,112.0,0.0,32.0,0.0,96.0,64.0,240.0,262.0,254.0,272.0,193.0,170.0,243.0,243.0,234.0,250.0,92.0,86.0
Toronto DSB,Pub Dist Sch Brd (E/F),Rosethorn Junior School,Public,Not applicable,Elementary,English,JK-5,Etobicoke,M9A2J1,420.0,43.66005,-79.5395,63.0,0.0,21.0,0.0,21.0,336.0,376.0,399.0,368.0,420.0,375.0,382.0,N/A,N/A,N/A,N/A,N/A,N/A
Toronto DSB,Pub Dist Sch Brd (E/F),Rouge Valley Public School,Public,Not applicable,Elementary,English,JK-8,Scarborough,M1B4X3,230.0,43.7994,-79.151,58.0,23.0,23.0,0.0,46.0,104.0,198.0,200.0,208.0,200.0,151.0,140.0,178.0,205.0,206.0,214.0,87.0,74.0
Toronto DSB,Pub Dist Sch Brd (E/F),Roywood Public School,Public,Not applicable,Elementary,English,JK-5,North York,M3A2C7,175.0,43.76472,-79.3218,105.0,26.0,44.0,0.0,61.0,96.0,120.0,124.0,117.0,130.0,92.0,103.0,N/A,N/A,N/A,N/A,N/A,N/A
Toronto DSB,Pub Dist Sch Brd (E/F),Runnymede Junior and Senior Public School,Public,Not applicable,Elementary,English,JK-8,Toronto,M6S2Y7,980.0,43.65592,-79.4775,98.0,29.0,88.0,10.0,39.0,862.0,960.0,941.0,932.0,941.0,887.0,843.0,949.0,892.0,927.0,862.0,722.0,657.0
Toronto DSB,Pub Dist Sch Brd (E/F),Ryerson Community School Junior Senior,Public,Not applicable,Elementary,English,JK-8,Toronto,M5T1E4,500.0,43.65121,-79.4026,245.0,125.0,60.0,0.0,160.0,205.0,297.0,270.0,347.0,260.0,256.0,210.0,408.0,375.0,435.0,405.0,276.0,235.0
Toronto DSB,Pub Dist Sch Brd (E/F),Samuel Hearne Public School,Public,Not applicable,Elementary,English,5-8,Scarborough,M1L4N7,370.0,43.69488,-79.2836,296.0,74.0,56.0,0.0,185.0,204.0,N/A,N/A,N/A,N/A,N/A,N/A,285.0,285.0,294.0,303.0,178.0,185.0
Toronto DSB,Pub Dist Sch Brd (E/F),Scarborough Village Public School,Public,Not applicable,Elementary,English,JK-8,Scarborough,M1J3P2,220.0,43.74407,-79.2221,110.0,22.0,88.0,0.0,99.0,88.0,131.0,117.0,122.0,143.0,60.0,53.0,124.0,161.0,138.0,178.0,56.0,59.0
Toronto DSB,Pub Dist Sch Brd (E/F),Second Street Junior Middle School,Public,Not applicable,Elementary,English,JK-8,Etobicoke,M8V2X4,485.0,43.60429,-79.5,121.0,48.0,97.0,0.0,146.0,267.0,423.0,364.0,485.0,364.0,337.0,175.0,393.0,393.0,417.0,417.0,199.0,209.0
Toronto DSB,Pub Dist Sch Brd (E/F),Secord Elementary School,Public,Not applicable,Elementary,English,JK-5,East York,M4C4Y9,680.0,43.69206,-79.3016,340.0,136.0,102.0,0.0,286.0,381.0,424.0,462.0,395.0,442.0,324.0,340.0,N/A,N/A,N/A,N/A,N/A,N/A
Toronto DSB,Pub Dist Sch Brd (E/F),Selwyn Elementary School,Public,Not applicable,Elementary,English,JK-5,East York,M4B3J9,240.0,43.70881,-79.3064,72.0,12.0,24.0,48.0,48.0,132.0,223.0,230.0,208.0,223.0,169.0,214.0,N/A,N/A,N/A,N/A,N/A,N/A
Toronto DSB,Pub Dist Sch Brd (E/F),Seneca Hill Public School,Public,Not applicable,Elementary,English,JK-6,North York,M2J2W6,305.0,43.79093,-79.3502,183.0,30.0,0.0,61.0,61.0,259.0,305.0,290.0,305.0,296.0,305.0,262.0,N/A,N/A,N/A,N/A,N/A,N/A
Toronto DSB,Pub Dist Sch Brd (E/F),Seneca School,Public,Not applicable,Elementary,English,JK-8,Etobicoke,M9C3T3,75.0,43.65093,-79.5825,30.0,8.0,75.0,0.0,22.0,22.0,N/A,N/A,N/A,N/A,N/A,N/A,N/A,N/A,N/A,N/A,N/A,N/A
Toronto DSB,Pub Dist Sch Brd (E/F),Seventh Street Junior School,Public,Not applicable,Elementary,English,JK-5,Etobicoke,M8V3B5,210.0,43.5997,-79.504,21.0,21.0,32.0,0.0,42.0,126.0,185.0,181.0,180.0,193.0,168.0,151.0,N/A,N/A,N/A,N/A,N/A,N/A
Toronto DSB,Pub Dist Sch Brd (E/F),Shaughnessy Public School,Public,Not applicable,Elementary,English,JK-8,North York,M2J1H5,220.0,43.77026,-79.3515,110.0,22.0,44.0,0.0,55.0,154.0,173.0,194.0,170.0,180.0,160.0,163.0,N/A,167.0,N/A,189.0,N/A,136.0
Toronto DSB,Pub Dist Sch Brd (E/F),Sheppard Public School,Public,Not applicable,Elementary,English,JK-5,North York,M3M2W9,185.0,43.74542,-79.4883,65.0,18.0,56.0,0.0,56.0,74.0,106.0,124.0,110.0,124.0,31.0,28.0,N/A,N/A,N/A,N/A,N/A,N/A
Toronto DSB,Pub Dist Sch Brd (E/F),Shirley Street Junior Public School,Public,Not applicable,Elementary,English,JK-6,Toronto,M6K1S9,175.0,43.64852,-79.4367,18.0,0.0,18.0,0.0,35.0,88.0,159.0,154.0,139.0,124.0,120.0,138.0,161.0,175.0,161.0,175.0,113.0,124.0
Toronto DSB,Pub Dist Sch Brd (E/F),Shoreham Public School,Public,Not applicable,Elementary,English,JK-5,North York,M3N2S6,250.0,43.76879,-79.5174,112.0,12.0,50.0,0.0,150.0,38.0,166.0,178.0,150.0,105.0,84.0,65.0,N/A,N/A,N/A,N/A,N/A,N/A
Toronto DSB,Pub Dist Sch Brd (E/F),Silver Springs Public School,Public,Not applicable,Elementary,English,JK-8,Scarborough,M1V1S4,380.0,43.80442,-79.3024,266.0,57.0,57.0,0.0,152.0,152.0,285.0,274.0,333.0,293.0,266.0,213.0,323.0,281.0,323.0,281.0,252.0,217.0
Toronto DSB,Pub Dist Sch Brd (E/F),Silverthorn Community School,Public,Not applicable,Elementary,English,JK-8,Toronto,M6M3P1,305.0,43.68724,-79.4694,107.0,0.0,61.0,0.0,92.0,92.0,227.0,259.0,262.0,259.0,201.0,229.0,262.0,262.0,254.0,262.0,151.0,110.0
Toronto DSB,Pub Dist Sch Brd (E/F),Sir Adam Beck Junior School,Public,Not applicable,Elementary,English,JK-5,Etobicoke,M8W2C2,410.0,43.60176,-79.5483,62.0,0.0,20.0,0.0,41.0,205.0,340.0,279.0,340.0,279.0,329.0,283.0,N/A,N/A,N/A,N/A,N/A,N/A
Toronto DSB,Pub Dist Sch Brd (E/F),Sir Alexander Mackenzie Senior Public School,Public,Not applicable,Elementary,English,7-8,Scarborough,M1S2E2,400.0,43.78943,-79.2731,260.0,20.0,60.0,0.0,100.0,180.0,N/A,N/A,N/A,N/A,N/A,N/A,N/A,N/A,N/A,N/A,N/A,N/A
Toronto DSB,Pub Dist Sch Brd (E/F),Sir Ernest MacMillan Senior Public School,Public,Not applicable,Elementary,English,7-8,Scarborough,M1W2Y2,375.0,43.80656,-79.3287,262.0,19.0,56.0,0.0,131.0,169.0,N/A,N/A,N/A,N/A,N/A,N/A,N/A,N/A,N/A,N/A,N/A,N/A
Toronto DSB,Pub Dist Sch Brd (E/F),Sir Samuel B Steele Junior Public School,Public,Not applicable,Elementary,English,JK-6,Scarborough,M1W2Y2,375.0,43.80714,-79.3272,281.0,75.0,38.0,0.0,94.0,150.0,270.0,308.0,253.0,296.0,257.0,308.0,331.0,338.0,329.0,349.0,285.0,285.0
Toronto DSB,Pub Dist Sch Brd (E/F),Sloane Public School,Public,Not applicable,Elementary,English,JK-5,North York,M4A2B1,300.0,43.73121,-79.3103,105.0,45.0,30.0,0.0,90.0,150.0,197.0,201.0,161.0,171.0,158.0,171.0,N/A,N/A,N/A,N/A,N/A,N/A
Toronto DSB,Pub Dist Sch Brd (E/F),Smithfield Middle School,Public,Not applicable,Elementary,English,6-8,Etobicoke,M9V2E3,635.0,43.74973,-79.5956,387.0,51.0,165.0,6.0,210.0,222.0,N/A,N/A,N/A,N/A,N/A,N/A,486.0,476.0,504.0,514.0,265.0,241.0
Toronto DSB,Pub Dist Sch Brd (E/F),Spectrum Alternative Senior School,Public,Not applicable,Elementary,English,7-8,York,M6C2R1,60.0,43.69939,-79.395,6.0,0.0,6.0,6.0,6.0,42.0,N/A,N/A,N/A,N/A,N/A,N/A,N/A,N/A,N/A,N/A,N/A,N/A
Toronto DSB,Pub Dist Sch Brd (E/F),Sprucecourt Junior Public School,Public,Not applicable,Elementary,English,JK-8,Toronto,M5A2J1,320.0,43.66448,-79.3638,192.0,16.0,64.0,0.0,160.0,160.0,267.0,259.0,272.0,234.0,248.0,198.0,251.0,291.0,275.0,278.0,154.0,182.0
Toronto DSB,Pub Dist Sch Brd (E/F),St Andrew's Middle School,Public,Junior High School,Elementary,English,6-8,North York,M2P1X7,405.0,43.75159,-79.3903,142.0,40.0,40.0,122.0,81.0,344.0,N/A,N/A,N/A,N/A,N/A,N/A,N/A,373.0,N/A,389.0,N/A,271.0
Toronto DSB,Pub Dist Sch Brd (E/F),St Andrews Public School,Public,Not applicable,Elementary,English,JK-8,Scarborough,M1P3Z1,365.0,43.76664,-79.2548,201.0,36.0,18.0,0.0,91.0,182.0,320.0,310.0,315.0,321.0,270.0,310.0,308.0,277.0,324.0,314.0,202.0,190.0
Toronto DSB,Pub Dist Sch Brd (E/F),St George's Junior School,Public,Not applicable,Elementary,English,JK-5,Etobicoke,M9A2P7,190.0,43.67259,-79.5417,19.0,10.0,19.0,0.0,19.0,171.0,158.0,180.0,157.0,173.0,143.0,163.0,N/A,N/A,N/A,N/A,N/A,N/A
Toronto DSB,Pub Dist Sch Brd (E/F),St Margaret's Public School,Public,Not applicable,Elementary,English,JK-8,Scarborough,M1E1X5,295.0,43.76787,-79.1958,133.0,30.0,88.0,0.0,162.0,59.0,187.0,224.0,182.0,224.0,113.0,103.0,228.0,189.0,208.0,189.0,80.0,68.0
Toronto DSB,Pub Dist Sch Brd (E/F),Stanley Public School,Public,Not applicable,Elementary,English,JK-5,North York,M3N1C2,315.0,43.7416,-79.5176,158.0,0.0,32.0,32.0,94.0,47.0,240.0,214.0,266.0,205.0,146.0,101.0,N/A,N/A,N/A,N/A,N/A,N/A
Toronto DSB,Pub Dist Sch Brd (E/F),Steelesview Public School,Public,Not applicable,Elementary,English,JK-5,North York,M2M2Y1,290.0,43.80266,-79.3856,203.0,58.0,14.0,87.0,72.0,246.0,220.0,209.0,235.0,197.0,215.0,209.0,N/A,N/A,N/A,N/A,N/A,N/A
Toronto DSB,Pub Dist Sch Brd (E/F),Stilecroft Public School,Public,Not applicable,Elementary,English,JK-5,North York,M3J1A7,260.0,43.75105,-79.4932,143.0,26.0,52.0,0.0,78.0,52.0,124.0,114.0,160.0,130.0,110.0,91.0,N/A,N/A,N/A,N/A,N/A,N/A
Toronto DSB,Pub Dist Sch Brd (E/F),Summit Heights Public School,Public,Not applicable,Elementary,English,JK-6,North York,M3H1M1,370.0,43.74131,-79.43,18.0,18.0,0.0,74.0,37.0,296.0,361.0,318.0,347.0,340.0,353.0,300.0,349.0,363.0,352.0,363.0,297.0,303.0
Toronto DSB,Pub Dist Sch Brd (E/F),Sunny View Junior and Senior Public School,Public,Not applicable,Elementary,English,JK-8,Toronto,M4N1A9,85.0,43.71984,-79.3873,34.0,8.0,85.0,0.0,26.0,34.0,N/A,N/A,N/A,N/A,N/A,N/A,N/A,N/A,N/A,N/A,N/A,N/A
Toronto DSB,Pub Dist Sch Brd (E/F),Sunnylea Junior School,Public,Not applicable,Elementary,English,JK-5,Etobicoke,M8Y2M2,300.0,43.64244,-79.5069,15.0,15.0,30.0,0.0,0.0,255.0,300.0,294.0,300.0,300.0,285.0,282.0,N/A,N/A,N/A,N/A,N/A,N/A
Toronto DSB,Pub Dist Sch Brd (E/F),Swansea Junior and Senior Junior and Senior Public School,Public,Not applicable,Elementary,English,JK-8,Toronto,M6S3J9,935.0,43.64345,-79.4771,187.0,84.0,75.0,9.0,150.0,757.0,834.0,851.0,784.0,870.0,813.0,748.0,907.0,898.0,881.0,907.0,684.0,636.0
Toronto DSB,Pub Dist Sch Brd (E/F),Tam O'Shanter Junior Public School,Public,Not applicable,Elementary,English,JK-6,Scarborough,M1T2V3,355.0,43.78495,-79.2975,266.0,124.0,36.0,0.0,142.0,213.0,283.0,238.0,271.0,263.0,248.0,213.0,256.0,305.0,272.0,305.0,179.0,188.0
Toronto DSB,Pub Dist Sch Brd (E/F),Taylor Creek Public School,Public,Not applicable,Elementary,English,JK-8,Scarborough,M1L3Z3,415.0,43.70003,-79.2773,187.0,21.0,83.0,0.0,208.0,124.0,257.0,311.0,266.0,324.0,168.0,183.0,291.0,253.0,261.0,253.0,141.0,133.0
Toronto DSB,Pub Dist Sch Brd (E/F),Tecumseh Senior Public School,Public,Not applicable,Elementary,English,7-8,Scarborough,M1G1H7,260.0,43.7629,-79.2167,156.0,13.0,52.0,0.0,117.0,78.0,N/A,N/A,N/A,N/A,N/A,N/A,N/A,N/A,N/A,N/A,N/A,N/A
Toronto DSB,Pub Dist Sch Brd (E/F),Terraview-Willowfield Public School,Public,Not applicable,Elementary,English,JK-8,Scarborough,M1R4K1,290.0,43.76378,-79.3086,130.0,29.0,44.0,0.0,72.0,145.0,207.0,232.0,221.0,223.0,237.0,232.0,185.0,133.0,181.0,165.0,100.0,75.0
Toronto DSB,Pub Dist Sch Brd (E/F),Terry Fox Public School,Public,Not applicable,Elementary,English,JK-8,Scarborough,M1W3M9,425.0,43.81589,-79.3187,340.0,64.0,42.0,0.0,128.0,212.0,340.0,357.0,336.0,302.0,359.0,323.0,376.0,327.0,383.0,391.0,343.0,353.0
Toronto DSB,Pub Dist Sch Brd (E/F),The Elms Junior Middle School,Public,Not applicable,Elementary,English,JK-8,Etobicoke,M9W2H8,380.0,43.72222,-79.5521,95.0,38.0,76.0,0.0,152.0,114.0,151.0,156.0,156.0,133.0,106.0,110.0,211.0,228.0,202.0,232.0,86.0,99.0
Toronto DSB,Pub Dist Sch Brd (E/F),The Grove Community School,Public,Not applicable,Elementary,English,JK-6,Toronto,M6J3L2,130.0,43.64579,-79.4284,0.0,0.0,13.0,0.0,26.0,84.0,N/A,77.0,N/A,77.0,N/A,53.0,112.0,103.0,110.0,92.0,80.0,83.0
Toronto DSB,Pub Dist Sch Brd (E/F),The Waterfront School,Public,Not applicable,Elementary,English,JK-8,Toronto,M5V3G3,235.0,43.63586,-79.3971,82.0,35.0,35.0,0.0,70.0,141.0,164.0,207.0,167.0,169.0,154.0,169.0,198.0,190.0,212.0,176.0,105.0,118.0
Toronto DSB,Pub Dist Sch Brd (E/F),Thomas L Wells Public School,Public,Not applicable,Elementary,English,JK-8,Scarborough,M1X1V6,545.0,43.82436,-79.2263,349.0,16.0,49.0,0.0,82.0,142.0,511.0,485.0,466.0,452.0,445.0,387.0,516.0,501.0,534.0,507.0,445.0,441.0
Toronto DSB,Pub Dist Sch Brd (E/F),Thorncliffe Park Public School,Public,Not applicable,Elementary,English,1-5,East York,M4H1K3,1420.0,43.70521,-79.3434,1349.0,369.0,185.0,0.0,895.0,767.0,893.0,866.0,867.0,824.0,577.0,554.0,N/A,N/A,N/A,N/A,N/A,N/A
Toronto DSB,Pub Dist Sch Brd (E/F),Three Valleys Public School,Public,Not applicable,Elementary,English,JK-5,North York,M3A3B7,290.0,43.75061,-79.3377,102.0,29.0,14.0,58.0,58.0,203.0,256.0,238.0,224.0,186.0,165.0,104.0,N/A,N/A,N/A,N/A,N/A,N/A
Toronto DSB,Pub Dist Sch Brd (E/F),Timberbank Junior Public School,Public,Not applicable,Elementary,English,JK-6,Scarborough,M1W2A3,250.0,43.79146,-79.3073,150.0,38.0,12.0,0.0,75.0,138.0,194.0,188.0,176.0,178.0,193.0,160.0,219.0,195.0,229.0,195.0,141.0,155.0
Toronto DSB,Pub Dist Sch Brd (E/F),Tom Longboat Junior Public School,Public,Not applicable,Elementary,English,JK-6,Scarborough,M1B1X6,285.0,43.81044,-79.2316,157.0,28.0,43.0,0.0,86.0,43.0,208.0,231.0,219.0,254.0,193.0,222.0,239.0,237.0,246.0,248.0,179.0,140.0
Toronto DSB,Pub Dist Sch Brd (E/F),Topcliff Public School,Public,Not applicable,Elementary,English,JK-5,North York,M3N1L6,365.0,43.75537,-79.5106,128.0,36.0,73.0,0.0,146.0,55.0,218.0,201.0,245.0,223.0,169.0,164.0,N/A,N/A,N/A,N/A,N/A,N/A
Toronto DSB,Pub Dist Sch Brd (E/F),Tredway Woodsworth Public School,Public,Not applicable,Elementary,English,JK-8,Scarborough,M1H1X9,760.0,43.76502,-79.2352,342.0,53.0,122.0,0.0,281.0,258.0,517.0,517.0,535.0,578.0,340.0,289.0,572.0,578.0,595.0,631.0,318.0,312.0
Toronto DSB,Pub Dist Sch Brd (E/F),Tumpane Public School,Public,Not applicable,Elementary,English,JK-5,North York,M3M1L8,415.0,43.72659,-79.5022,145.0,42.0,21.0,0.0,166.0,83.0,258.0,237.0,322.0,290.0,199.0,187.0,N/A,N/A,N/A,N/A,N/A,N/A
Toronto DSB,Pub Dist Sch Brd (E/F),Twentieth Street Junior School,Public,Not applicable,Elementary,English,JK-5,Etobicoke,M8V1L8,160.0,43.59797,-79.5199,40.0,16.0,64.0,0.0,32.0,80.0,70.0,80.0,48.0,48.0,56.0,56.0,N/A,N/A,N/A,N/A,N/A,N/A
Toronto DSB,Pub Dist Sch Brd (E/F),Valley Park Middle School,Public,Not applicable,Elementary,English,6-8,East York,M3C1B2,980.0,43.7102,-79.3354,872.0,235.0,137.0,0.0,588.0,480.0,N/A,N/A,N/A,N/A,N/A,N/A,647.0,647.0,672.0,706.0,344.0,382.0
Toronto DSB,Pub Dist Sch Brd (E/F),Valleyfield Junior School,Public,Not applicable,Elementary,English,JK-6,Etobicoke,M9P2E8,315.0,43.69409,-79.5388,126.0,47.0,32.0,0.0,142.0,94.0,163.0,145.0,166.0,151.0,139.0,107.0,269.0,315.0,315.0,315.0,237.0,315.0
Toronto DSB,Pub Dist Sch Brd (E/F),Victoria Park Elementary School,Public,Not applicable,Elementary,English,JK-5,East York,M4B2A6,160.0,43.71268,-79.2981,40.0,8.0,32.0,0.0,32.0,80.0,101.0,86.0,99.0,80.0,85.0,74.0,N/A,N/A,N/A,N/A,N/A,N/A
Toronto DSB,Pub Dist Sch Brd (E/F),Victoria Village Public School,Public,Not applicable,Elementary,English,JK-5,North York,M4A1T7,275.0,43.73595,-79.3141,124.0,55.0,28.0,0.0,110.0,82.0,230.0,239.0,225.0,239.0,188.0,113.0,N/A,N/A,N/A,N/A,N/A,N/A
Toronto DSB,Pub Dist Sch Brd (E/F),Vradenburg Junior Public School,Public,Not applicable,Elementary,English,JK-6,Scarborough,M1T1M6,235.0,43.77434,-79.3083,106.0,24.0,35.0,0.0,70.0,153.0,180.0,202.0,200.0,202.0,176.0,146.0,214.0,214.0,213.0,200.0,147.0,157.0
Toronto DSB,Pub Dist Sch Brd (E/F),Walter Perry Junior Public School,Public,Not applicable,Elementary,English,JK-6,Scarborough,M1K4M7,330.0,43.73345,-79.2512,132.0,33.0,33.0,0.0,99.0,115.0,193.0,205.0,222.0,178.0,157.0,168.0,257.0,254.0,275.0,267.0,140.0,132.0
Toronto DSB,Pub Dist Sch Brd (E/F),Warren Park Junior Public School,Public,Not applicable,Elementary,English,JK-6,York,M6S4P4,195.0,43.66284,-79.4994,39.0,0.0,39.0,0.0,78.0,78.0,157.0,129.0,161.0,121.0,119.0,107.0,133.0,146.0,136.0,158.0,46.0,49.0
Toronto DSB,Pub Dist Sch Brd (E/F),Wedgewood Junior School,Public,Not applicable,Elementary,English,JK-5,Etobicoke,M9B1V1,460.0,43.64531,-79.5462,184.0,46.0,46.0,0.0,46.0,322.0,437.0,363.0,439.0,386.0,393.0,322.0,N/A,N/A,N/A,N/A,N/A,N/A
Toronto DSB,Pub Dist Sch Brd (E/F),Wellesworth Junior School,Public,Not applicable,Elementary,English,JK-6,Etobicoke,M9C4S5,165.0,43.65663,-79.5767,58.0,8.0,41.0,0.0,33.0,74.0,104.0,117.0,115.0,107.0,85.0,78.0,N/A,N/A,N/A,N/A,N/A,N/A
Toronto DSB,Pub Dist Sch Brd (E/F),West Glen Junior School,Public,Not applicable,Elementary,English,JK-5,Etobicoke,M9B2E4,170.0,43.6504,-79.561,68.0,26.0,34.0,0.0,76.0,68.0,106.0,136.0,101.0,128.0,73.0,94.0,N/A,N/A,N/A,N/A,N/A,N/A
Toronto DSB,Pub Dist Sch Brd (E/F),West Hill Public School,Public,Not applicable,Elementary,English,JK-8,Scarborough,M1E3G1,230.0,43.77255,-79.1868,69.0,23.0,69.0,0.0,92.0,69.0,108.0,110.0,112.0,110.0,79.0,69.0,158.0,161.0,158.0,161.0,27.0,25.0
Toronto DSB,Pub Dist Sch Brd (E/F),West Humber Junior Middle School,Public,Not applicable,Elementary,English,JK-8,Toronto,M9W4S7,450.0,43.72382,-79.5807,225.0,68.0,45.0,0.0,90.0,202.0,330.0,346.0,407.0,387.0,290.0,284.0,355.0,369.0,353.0,364.0,180.0,171.0
Toronto DSB,Pub Dist Sch Brd (E/F),West Preparatory Junior Public School,Public,Not applicable,Elementary,English,JK-6,Toronto,M6C2J6,545.0,43.7026,-79.4331,213.0,60.0,54.0,0.0,98.0,365.0,469.0,441.0,424.0,360.0,405.0,409.0,502.0,512.0,502.0,512.0,378.0,382.0
Toronto DSB,Pub Dist Sch Brd (E/F),West Rouge Junior Public School,Public,Not applicable,Elementary,English,JK-6,Scarborough,M1C2X8,310.0,43.79561,-79.1337,46.0,16.0,46.0,0.0,31.0,202.0,288.0,279.0,282.0,226.0,266.0,189.0,297.0,276.0,256.0,251.0,220.0,189.0
Toronto DSB,Pub Dist Sch Brd (E/F),Westmount Junior School,Public,Not applicable,Elementary,English,JK-5,Toronto,M9P1E9,225.0,43.68909,-79.5197,101.0,22.0,34.0,0.0,68.0,101.0,210.0,187.0,185.0,200.0,149.0,110.0,N/A,N/A,N/A,N/A,N/A,N/A
Toronto DSB,Pub Dist Sch Brd (E/F),Weston Memorial Junior Public School,Public,Not applicable,Elementary,English,JK-5,York,M9N1K2,305.0,43.70597,-79.5093,92.0,0.0,30.0,0.0,61.0,107.0,256.0,241.0,240.0,247.0,203.0,183.0,N/A,N/A,N/A,N/A,N/A,N/A
Toronto DSB,Pub Dist Sch Brd (E/F),Westway Junior School,Public,Not applicable,Elementary,English,JK-5,Etobicoke,M9R1K8,225.0,43.69082,-79.549,101.0,34.0,22.0,0.0,79.0,79.0,164.0,171.0,162.0,126.0,101.0,92.0,N/A,N/A,N/A,N/A,N/A,N/A
Toronto DSB,Pub Dist Sch Brd (E/F),Westwood Middle School,Public,Not applicable,Elementary,English,6-8,Toronto,M4K3M6,370.0,43.68653,-79.3511,111.0,0.0,74.0,56.0,111.0,204.0,N/A,N/A,N/A,N/A,N/A,N/A,293.0,278.0,274.0,266.0,153.0,159.0
Toronto DSB,Pub Dist Sch Brd (E/F),Wexford Public School,Public,Not applicable,Elementary,English,JK-8,Scarborough,M1R2H1,390.0,43.73998,-79.3042,195.0,58.0,58.0,0.0,117.0,156.0,235.0,242.0,260.0,242.0,168.0,148.0,319.0,316.0,292.0,277.0,136.0,129.0
Toronto DSB,Pub Dist Sch Brd (E/F),White Haven Junior Public School,Public,Not applicable,Elementary,English,JK-8,Scarborough,M1S2Z1,485.0,43.7875,-79.2472,315.0,48.0,73.0,0.0,121.0,291.0,379.0,349.0,392.0,349.0,324.0,340.0,384.0,403.0,405.0,446.0,259.0,344.0
Toronto DSB,Pub Dist Sch Brd (E/F),Whitney Junior Public School,Public,Not applicable,Elementary,English,JK-6,Toronto,M4T1C7,280.0,43.68715,-79.3784,14.0,14.0,28.0,0.0,14.0,252.0,255.0,280.0,262.0,272.0,217.0,258.0,280.0,280.0,262.0,280.0,251.0,266.0
Toronto DSB,Pub Dist Sch Brd (E/F),Wilkinson Junior Public School,Public,Not applicable,Elementary,English,JK-6,Toronto,M4J3N7,500.0,43.68203,-79.3375,135.0,10.0,60.0,0.0,90.0,340.0,452.0,420.0,452.0,420.0,397.0,385.0,485.0,480.0,466.0,480.0,321.0,305.0
Toronto DSB,Pub Dist Sch Brd (E/F),William Burgess Elementary School,Public,Not applicable,Elementary,English,JK-5,East York,M4J2P5,370.0,43.69204,-79.3482,74.0,37.0,37.0,0.0,92.0,166.0,305.0,311.0,288.0,311.0,296.0,263.0,N/A,N/A,N/A,N/A,N/A,N/A
Toronto DSB,Pub Dist Sch Brd (E/F),William G Davis Junior Public School,Public,Not applicable,Elementary,English,JK-6,Scarborough,M1C3L6,265.0,43.78504,-79.1345,53.0,0.0,26.0,13.0,13.0,159.0,217.0,228.0,195.0,209.0,157.0,146.0,247.0,215.0,234.0,241.0,164.0,156.0
Toronto DSB,Pub Dist Sch Brd (E/F),William G Miller Junior Public School,Public,Not applicable,Elementary,English,JK-8,Scarborough,M1E3Y3,540.0,43.76859,-79.165,119.0,11.0,49.0,0.0,119.0,254.0,253.0,167.0,241.0,205.0,305.0,308.0,484.0,421.0,461.0,410.0,171.0,162.0
Toronto DSB,Pub Dist Sch Brd (E/F),William J McCordic School,Public,Not applicable,Elementary,English,JK-8,Toronto,M4C1T4,75.0,43.69063,-79.299,30.0,0.0,75.0,0.0,22.0,38.0,N/A,N/A,N/A,N/A,N/A,N/A,N/A,N/A,N/A,N/A,N/A,N/A
Toronto DSB,Pub Dist Sch Brd (E/F),Williamson Road Junior Public School,Public,Not applicable,Elementary,English,JK-6,Toronto,M4E1K5,575.0,43.67445,-79.2975,40.0,17.0,63.0,0.0,46.0,472.0,483.0,483.0,497.0,472.0,437.0,437.0,515.0,494.0,509.0,540.0,353.0,339.0
Toronto DSB,Pub Dist Sch Brd (E/F),Willow Park Junior Public School,Public,Not applicable,Elementary,English,JK-6,Scarborough,M1G1P1,355.0,43.76119,-79.2096,142.0,36.0,89.0,0.0,213.0,106.0,189.0,142.0,229.0,195.0,142.0,128.0,267.0,256.0,282.0,302.0,120.0,114.0
Toronto DSB,Pub Dist Sch Brd (E/F),Willowdale Middle School,Public,Not applicable,Elementary,English,6-8,North York,M2R1P6,540.0,43.76963,-79.4259,265.0,43.0,108.0,5.0,119.0,410.0,N/A,N/A,N/A,N/A,N/A,N/A,455.0,400.0,458.0,421.0,358.0,308.0
Toronto DSB,Pub Dist Sch Brd (E/F),Wilmington Elementary School,Public,Not applicable,Elementary,English,JK-3,North York,M3H5L1,240.0,43.76841,-79.4605,96.0,36.0,24.0,0.0,48.0,144.0,187.0,187.0,191.0,168.0,146.0,115.0,N/A,N/A,N/A,N/A,N/A,N/A
Toronto DSB,Pub Dist Sch Brd (E/F),Winchester Junior and Senior Public School,Public,Not applicable,Elementary,English,JK-8,Toronto,M4X1C7,455.0,43.66588,-79.371,159.0,23.0,46.0,0.0,182.0,250.0,N/A,N/A,N/A,N/A,177.0,191.0,316.0,300.0,289.0,382.0,186.0,141.0
Toronto DSB,Pub Dist Sch Brd (E/F),Windfields Middle School,Public,Junior High School,Elementary,English,6-8,North York,M2L2V2,665.0,43.75607,-79.3705,279.0,53.0,80.0,0.0,126.0,512.0,N/A,N/A,N/A,N/A,N/A,N/A,N/A,625.0,N/A,625.0,N/A,545.0
Toronto DSB,Pub Dist Sch Brd (E/F),Winona Drive Senior Public School,Public,Not applicable,Elementary,English,7-8,Toronto,M6G3S8,415.0,43.677,-79.4309,42.0,0.0,83.0,62.0,42.0,249.0,N/A,N/A,N/A,N/A,N/A,N/A,N/A,N/A,N/A,N/A,N/A,N/A
Toronto DSB,Pub Dist Sch Brd (E/F),Withrow Avenue Junior Public School,Public,Not applicable,Elementary,English,JK-6,Toronto,M4K1E5,585.0,43.67045,-79.3521,53.0,23.0,47.0,6.0,53.0,491.0,473.0,468.0,484.0,450.0,409.0,421.0,585.0,550.0,585.0,562.0,463.0,421.0
Toronto DSB,Pub Dist Sch Brd (E/F),Woburn Junior Public School,Public,Not applicable,Elementary,English,JK-6,Scarborough,M1G3N2,385.0,43.7795,-79.227,308.0,58.0,19.0,0.0,212.0,173.0,273.0,289.0,281.0,320.0,233.0,266.0,334.0,331.0,309.0,346.0,216.0,227.0
Toronto DSB,Pub Dist Sch Brd (E/F),Woodbine Middle School,Public,Junior High School,Elementary,English,6-8,Toronto,M2J3B6,360.0,43.78232,-79.3499,234.0,108.0,72.0,0.0,144.0,216.0,N/A,N/A,N/A,N/A,N/A,N/A,N/A,220.0,N/A,216.0,N/A,108.0
Toronto DSB,Pub Dist Sch Brd (E/F),Yorkview Public School,Public,Not applicable,Elementary,English,JK-5,North York,M2R1K1,460.0,43.77257,-79.4356,207.0,46.0,46.0,0.0,92.0,299.0,296.0,317.0,334.0,354.0,278.0,267.0,N/A,N/A,N/A,N/A,N/A,N/A
Toronto DSB,Pub Dist Sch Brd (E/F),Yorkwoods Public School,Public,Not applicable,Elementary,English,JK-5,North York,M3N1K1,390.0,43.75065,-79.5139,117.0,20.0,78.0,0.0,215.0,39.0,201.0,215.0,243.0,226.0,123.0,117.0,N/A,N/A,N/A,N/A,N/A,N/A
Toronto DSB,Pub Dist Sch Brd (E/F),Zion Heights Middle School,Public,Junior High School,Elementary,English,6-8,North York,M2H1J9,490.0,43.79791,-79.3711,245.0,49.0,49.0,220.0,122.0,343.0,N/A,N/A,N/A,N/A,N/A,N/A,427.0,431.0,433.0,446.0,395.0,431.0
Toronto DSB,Pub Dist Sch Brd (E/F),da Vinci School,Public,Not applicable,Elementary,English,JK-6,Toronto,M5S2K2,85.0,43.65925,-79.4025,26.0,0.0,8.0,0.0,17.0,51.0,N/A,N/A,N/A,N/A,N/A,N/A,N/A,N/A,N/A,N/A,N/A,N/A
Toronto DSB,Pub Dist Sch Brd (E/F),tienne Brl Junior School,Public,Not applicable,Elementary,English,JK-5,Etobicoke,M8Y1T3,215.0,43.63561,-79.4897,75.0,43.0,22.0,0.0,64.0,118.0,191.0,189.0,189.0,178.0,166.0,189.0,N/A,N/A,N/A,N/A,N/A,N/A
